longitude,latitude,code,name,type,phone,dates_open,comments,num_sites,elevation,amenities,state,nearest_town_distance,nearest_town_bearing,city
-114.353,53.675,ALBE,Alberta Beach Family RV Park,CP,780.924.2333,mid may-late sep,,30,,WES,AB,,,Alberta Beach
-112.332,53.88,ANDR,Andrew RV Park,CP,780.365.3687,mid may-late aug,no tents,15,,WES,AB,,,Andrew
-113.962,52.034,ANTH,Anthony Henday,CP,403.318.3508,mid may-mid oct,pull thrus,45,,E DP SH RS,AB,,,Innisfail
-110.59,52.75,ARML,Arm Lake Rec Area,CP,780.842.4727,mid may-mid oct,big rigs OK,100,,WE,AB,,,Wainwright
-117.164,58.49,ASPE,Aspen Ridge,CP,780.926.4540,,,40,,WES,AB,,,High Level
-116.073,52.396,AYLM,Aylmer Provincial Rec Area,PP,403.845.8349,,,7,3925,NR,AB,,,
-113.532,54.733,BAPT,Baptiste Lake,CP,,mid may-mid sep,,10,,NH,AB,,,Athabasca
-112.463,50.787,BASS,Bassano Homecoming Trailer Park,CP,403.641.3788,mid may-late oct,,20,,WE,AB,,,Bassano
-110.027,49.652,BATT,Battle Creek - Cypress Hills Interprov. Park,PP,403.893.3833,,,16,4026,NR,AB,0.6,W,Elkwater
-114.167,52.966,BATT,Battle Lake Park,CP,780.586.0722,all year,,40,,DP SH,AB,,,Wetaskiwin
-116.158,53.74,BEAR,Bear Lake,CP,780.693.2479,mid may-mid sep,pull thrus,30,,NH,AB,,,Edson
-114.1,49.413,BEAU,Beauvais Lake Provincial Park,PP,403.382.4097,,,90,,E NR,AB,8.4,SW,Pincher Creek
-110.294,49.658,BEAC,Beaver Creek - Cypress Hills Interprov. Park,PP,403.893.3833,,,39,4017,WE RS,AB,0.6,W,Elkwater
-114.797,50.857,BEAF,Beaver Flats - Elbow Falls Provincial Rec Area,PP,403.949.4261,,,55,5004,NH NR,AB,11.9,SW,Bragg Creek
-111.881,54.758,BEAL,Beaver Lake Provincial Rec Area,PP,780.623.9222,,,90,1893,E RS,AB,3.7,E,Lac La Biche
-114.298,49.367,BEAM,Beaver Mines Lake Rec Area,PP,403.563.5395,,,97,,NR,AB,,,
-116.01,52.489,BEAD,Beaverdam Provincial Rec Area,PP,403.845.8349,,,10,4303,NR,AB,,,
-119.434,55.214,BEAV,Beaverlodge Pioneer,CP,780.354.2201,mid may-late sep,no tents,20,,WES DP SH,AB,,,Beaverlodge
-113.529,51.387,BEIS,Beiseker Municipal,CP,403 888.9730,mid may-mid oct,pull thrus,50,,WES,AB,,,Beiseker
-112.152,54.105,BELL,Bellis Beach Lake,CP,780.656.3037,mid may-mid oct,,20,,,AB,,,Smoky Lake County
-113.685,49.025,BELL,Belly River - Waterton Lakes National Park,CNP,,,,24,4528,NH NR,AB,11.1,E,Waterton Park
-115.581,53.733,BETA,Beta Lake,CP,780.723.4800,mid may-mid oct,,7,,NH,AB,,,Nojack
-118.365,53.756,BIGB,Big Berland Provincial Rec Area,PP,780.827.1382,,,18,4575,NR,AB,,,
-112.22,52.489,BIGK,Big Knife Provincial Park,PP,403.742.7512,,,50,2223,NR,AB,9.1,SW,Forestburg
-112.533,53.215,BLAC,Black Nugget Lake,CP,780.663.2421,early may-mid oct,,66,,E DP RS,AB,,,Tofield
-116.327,52.614,BLAC,Blackstone Provincial Rec Area,PP,403.845.8349,,,10,4436,NR,AB,,,
-112.887,51.566,BLER,Bleriot Ferry Provincial Rec Area,PP,403.823.1749,,,28,2260,NR,AB,12.8,NE,Carbon
-111.199,51.271,BLOO,Blood Indian Park,CP,403.779.2155,early apr-late oct,pull thrus,300,,WE DP SH,AB,,,Youngstown
-114.723,50.612,BLUE,Bluerock - Sheep River Provincial Park,PP,403.949.4261,,,66,5534,NR,AB,20,SW,Millarville
-115.1,50.634,BOUL,Boulton Creek - Peter Lougheed Provincial Park,PP,403.591.6322,,,118,5738,E RS,AB,,,
-112.227,50.433,BOWC,Bow City Park,CP,403.362.6693,early may-late oct,,15,,WE,AB,,,Brooks
-111.379,49.862,BOWI,Bow Island Centennial Park,CP,403.545.2522,mid may-late sep,,20,,E DP SH,AB,,,Bow Island
-115.104,51.081,BOWR,Bow River - Bow Valley Provincial Park,PP,403.673.3985,,,39,4260,NH NR,AB,1.2,E,Kananaskis
-115.081,51.08,BOWV,Bow Valley - Bow Valley Provincial Park,PP,403.673.3985,,,169,4306,WE RS,AB,2.2,E,Kananaskis
-113.237,51.667,BRAC,Braconniers Dam,CP,403.443.5541,mid may-late sep,,10,,,AB,,,Three Hills
-116.556,52.879,BRAZ,Brazeau River Provincial Rec Area,PP,780.865.2154,,,7,4140,NH RS,AB,,,
-114.468,53.115,BRET,Breton RV Park,CP,780.696.3636,mid may-mid oct,pull thrus,35,,WE,AB,,,Breton
-113.979,52.46,BREW,Brewers - Aspen Beach Provincial Park,PP,877.277.3645,,,303,2947,RS,AB,3,E,Bentley
-116.363,52.764,BROW,Brown Creek Provincial Rec Area,PP,780.865.2154,,,9,4224,NH NR,AB,,,
-114.752,52.953,BUCK,Buck Lake Park,CP,,mid may-late oct,,35,,,AB,,,Buck Lake
-114.794,53.022,BUCK,Buck Lake Provincial Rec Area,PP,780.586.2864,,,27,2936,NH NR,AB,7.2,SE,Buck Creek
-112.78,52.515,BUFF,Buffalo Lake Rec Area,PP,800.267.5844,,,30,2568,NH NR,AB,5.8,NE,Rochon Sands
-111.413,52.401,BURM,Burma Park,CP,403.578.4040,mid may-mid oct,,20,,E,AB,,,Brownfield
-115.169,51.59,BURN,Burnt Timber Provincial Rec Area,PP,403.637.2198,,,30,4672,NH NR,AB,24.7,W,Water Valley
-117.803,53.491,CACH,Cache Lake - William A. Switzer Provincial Park,PP,780.865.5600,,,14,3773,NR,AB,,,
-114.717,52.995,CALH,Calhoun Bay Provincial Rec Area,PP,780.586.2864,,,50,2905,NH NR,AB,10.7,SE,Buck Creek
-113.275,55.177,CALL,Calling Lake Provincial Park,PP,,,,,2021,NR,AB,4,SW,Calling Lake
-111.526,53.127,CAMP,Camp Lake Park,CP,780.336.3414,mid may-mid sep,,45,,E,AB,,,Viking
-115.125,50.689,CANY,Canyon - Peter Lougheed Provincial Park,PP,403.591.6322,,,52,5433,NR,AB,,,
-110.716,52.296,CAPT,Capt Ayre Lake and Resort,CP,780.857.2105,mid may-late sep,,80,,WE NR,AB,,,Cadogan
-113.145,51.484,CARE,Carbon East,CP,403.572.3244,mid may-mid oct,,15,,WE,AB,,,Carbon
-113.151,51.485,CARB,Carbon Main,CP,403.572.3244,mid may-mid oct,,20,,WES,AB,,,Carbon
-114.725,52.094,CARO,Caroline Municipal RV Park,CP,403.722.2210,mid may-mid oct,,20,,WE,AB,,,Caroline
-115.63,54.288,CARS,Carson Pegasus Provincial Park,PP,780.778.2664,,,182,2935,E NR,AB,5.7,W,Woodlands County
-114.094,51.567,CARS,Carstairs Municipal,CP,403.337.3341,mid may-mid oct,,30,,E,AB,,,Carstairs
-114.86,51.702,CART,Cartier Creek Provincial Rec Area,PP,403.637.2229,,,19,4079,NH NR,AB,,,
-114.325,49.446,CASF,Castle Falls Rec Area,PP,403.563.5395,,,46,,NH NR,AB,,,
-115.907,51.268,CAST,Castle Mountain - Banff National Park,CNP,403. 762.1550,,,43,4906,FT NR,AB,,,
-114.339,49.403,CASR,Castle River Bridge Rec Area,PP,403.563.5395,,,30,,NH NR,AB,,,
-111.919,52.224,CASL,Castor Lions,CP,403.882.3225,mid apr-late oct,,15,,,AB,,,Castor
-111.909,52.217,CASR,Castor Rec Area,CP,403.882.3225,mid may-mid oct,,40,,E,AB,,,Castor
-114.583,50.287,CATA,Cataract Creek Provincial Rec Area,PP,403.591.6322,,,102,5427,NH NR,AB,22.8,SW,Longview
-110.41,49.93,CAVA,Cavan Lake Rec,CP,403.979.1788,mid may-late sep,,50,,E,AB,,,Medicine Hat
-117.207,56.211,CECI,Cecil Thompson Park,CP,780.322.3831,,pull thrus,5,,N$,AB,,,Peace River
-113.643,50.163,CEN1,Centennial Park,CP,403.549.3761,,,15,,WES,AB,,,Stavely
-114.925,52.383,CEN2,Centennial Park,CP,403 845.3720,mid may-mid sep,,15,,E,AB,,,Rocky Mountain House
-113.078,53.279,CEN3,Centennial Park Family,CP,780.941.2124,mid may-late aug,,65,,E,AB,,,New Sarepta
-110.805,51.417,CERE,Cereal Board of Trade,CP,403.326.3818,mid may-mid sep,pull thrus,15,,E,AB,,,Cereal
-113.504,54.962,CHLL,Chain Lakes (Lower) Provincial Rec Area,PP,780.675.8213,,,,2103,NH NR,AB,22.2,E,Hondo
-114.194,50.217,CHAI,Chain Lakes Provincial Park,PP,403.646.5887,,,124,4372,E NR,AB,21.8,S,Longview
-115.312,52.452,CHAM,Chambers Creek Provincial Rec Area,PP,,,,,3486,NR,AB,,,
-113.148,50.243,CHAM,Champion Community Park,CP,403.897.3833,all year,no tents - pull thrus,10,,E,AB,,,Champion
-118.829,55.781,CHEP,Chepi-Sepe-Municipal,CP,780.864.3998,mid may-late sep,,15,,E,AB,,,Spirit River
-114.605,49.669,CHIN,Chinook Rec Area,PP,403.563.5395,,,99,,NH NR,AB,6.5,NW,Crowsnest Pass
-115.352,53.67,CHIP,Chip Lake Park,CP,780.325.2460,mid may-late oct,pull thrus,20,,NH,AB,,,Wildwood
-113.59,50.021,CLAR,Claresholm Centennial Park,CP,403.625.2751,mid apr-mid oct,,30,,WES RS,AB,,,Claresholm
-113.22,53.003,COAL,Coal Lake South Provincial Rec Area,PP,780.672.7274,,,14,2297,NH NR,AB,1.4,NW,Gwynne
-112.937,49.752,COAL,Coalhurst Miners Memorial,CP,403.381.3033,early may-late sep,,15,,NH,AB,,,Coalhurst
-117.01,53.174,COAS,Coalspur Provincial Rec Area,PP,780.865.2154,,,8,3922,NH NR,AB,,,
-110.196,54.475,COLD,Cold Lake MD,CP,780.639.4121,mid may-mid sep,pull thrus,70,,E,AB,,,Cold Lake
-110.205,54.457,COLD,Cold Lake Provincial Park,PP,780.594.7856,,,117,1761,E RS,AB,8.2,NW,Cherry Grove
-117.206,52.219,COLU,Columbia Icefield - Jasper National Park,CNP,780. 852.6146,,,33,6600,,AB,,,
-117.624,56.954,COND,Condy Meadows Golf Course,CP,780.836.2176,mid may-mid sep,,25,,WES SH,AB,,,Manning
-111.447,52.104,CORO,Coronation Rec Park,CP,403.575.1967  ,mid may-mid oct,,20,,WES DP,AB,,,Coronation
-114.312,51.998,COTD,Cottonwood - Dickson Dam Provincial Rec Area,PP,403.887.5522,,overflow only,,3114,NR,AB,6.1,S,Spruce View
-115.03,52.283,COWL,Cow Lake Rec Area,CP,403.845.5851,mid may-late sep,pull thrus,120,,DP,AB,,,Rocky Mountain House
-113.954,49.1,CRAN,Crandell - Waterton Lakes National Park,CNP,,,,129,4542,NH NR,AB,2.1,NW,Waterton Park
-110.535,54.502,CRAE,Crane Lake East Park,CP,780.573.9940,early may-mid sep,,30,,NH,AB,,,Cold Lake
-110.562,54.501,CRAW,Crane Lake West Park,CP,780.573.9940,early may-mid sep,,25,,WE,AB,,,Cold Lake
-116.357,52.387,CRES,Crescent Falls Provincial Rec Area,PP,403.845.8349,,,31,4630,NH NR,AB,,,
-115.029,52.448,CRIM,Crimson Lake - Crimson Lake Provincial Park,PP,403.845.2330,,,171,3207,E RS,AB,16.7,NW,Alhambra
-113.792,49.137,CROO,Crooked Creek,CP,403.653.1100,early may-late sep,big rigs OK,80,,WES,AB,,,Waterton Park Gate
-113.797,54.654,CROS,Cross Lake - Cross Lake Provincial Park,PP,780.675.8213,,,130,2176,E RS,AB,14.5,E,Flatbush
-118.392,56.096,CUMM,Cummings Lake Rec Area,CP,780.835.5461,mid may-mid oct,,30,,E SH,AB,,,Fairview
-114.882,51.023,DAWS,Dawson Provincial Rec Area,PP,403.673.3985,,equestrian,17,4927,NH NR,AB,14.5,W,Bragg Creek
-112.256,52.872,DAYS,Daysland Golf and Country Club,CP,780.374.3633,mid may-mid sep,no tents,30,,WES,AB,,,Daysland
-114.309,52.014,DICK,Dickson Point - Dickson Dam Provincial Rec Area,PP,403.887.5522,,,25,3084,NR,AB,5,S,Spruce View
-110.015,52.579,DILL,Dillberry Lake Provincial Park,PP,780.853.8221,,,83,2041,E RS,AB,9.6,SE,Chauvin
-111.519,50.76,DINO,Dinosaur Provincial Park,PP,403.378.4342,,,126,2117,E RS,AB,9.6,W,Iddesleigh
-112.577,52.581,DONA,Donalda Ag Society,CP,403.883.2233,mid jun-late oct,big rigs OK,15,,,AB,,,Donalda
-110.849,52.837,DRMI,Dr Middlemass,CP,780.842.3541,mid apr-late oct,may be closed - call first,30,,WES SH,AB,,,Wainwright
-114.981,53.223,DRAY,Drayton Valley RV Park,CP,780.514.2200,all year,pull thrus,60,,WES DP SH RS,AB,,,Drayton Valley
-116.207,52.429,DRYH,Dry Haven Provincial Rec Area,PP,403.845.8349,,,14,4335,NH NW NR,AB,,,
-118.595,55.923,DUNV,Dunvegan Provincial Park,PP,780.538.5350,,,67,,E RS,AB,12.4,N,Rycroft
-114.399,49.904,DUTC,Dutch Creek Rec Area,PP,403.563.5395,,,43,,NH NR,AB,7.4,S,Ranchland No. 66
-115.383,52.908,EAST,East Canal - Brazeau Reservoir Provincial Rec Area,PP,780.894.0006,,,8,3129,NH NR,AB,,,
-111.772,53.096,EAST,Eastview Park,CP,780.336.4747,mid may-late sep,,20,,WES SH RS,AB,,,Viking
-115.169,50.844,EAUC,Eau Claire - Spray Valley Provincial Park,PP,403.673.3985,,,51,5077,NR,AB,16.1,S,Kananaskis
-114.374,52.361,ECKV,Eckville Community Centre,CP,,,,30,,WES RS,AB,,,Eckville
-110.464,52.761,EDGE,Edgerton Sand Castle,CP,780.755.3933,mid may-mid oct,,10,,WES,AB,,,Edgerton
-116.412,53.588,EDSO,Edson Lions Park,CP,780.723.3169,all year,pull thrus,55,,WE DP SH RS,AB,,,Edson
-112.046,50.276,EIDH,EID Historical Park and RV Park,CP,403.362.5010,mid apr-late oct,no tents,20,,WE,AB,,,Scandia
-115.647,52.054,ELKC,Elk Creek Provincial Rec Area,PP,403.845.9275,,,13,4836,NH NR,AB,,,
-110.903,53.866,ELKP,Elk Point Rec Park,CP,780.724–3810,mid may-late sep,,10,,E,AB,,,Elk Point
-116.105,52.947,ELKR,Elk River Provincial Rec Area,PP,780.865.2154,,,16,3682,NH NR,AB,,,
-114.301,53.944,ELKS,Elks Beach,CP,780.967.5029,mid may-mid oct,,335,,WE,AB,,,Lac La Nonne
-110.913,54.023,ELKW,Elks Wilderness Park,CP,,mid may-mid sep,big rigs OK,10,,E,AB,,,Elk Point
-114.498,51.652,ELKT,Elkton Valley,CP,403.335.8099,mid may-mid oct,big rigs OK,100,,WE,AB,,,Cremona
-110.287,49.651,ELKW,Elkwater - Cypress Hills Interprov. Park,PP,403.893.3833,,,80,4016,E RS,AB,0.7,W,Elkwater
-115.11,50.662,ELKP,Elkwood - Peter Lougheed Provincial Park,PP,403.591.6322,,,130,5623,NR,AB,,,
-113.201,51.992,ELNO,Elnora,CP,403.773.3922,mid may-mid oct,,25,,WES RS,AB,,,Elnora
-111.937,50.834,EMER,Emerson Bridge Park,CP,403.362.2772,mid may-mid sep,big rigs OK,60,,WE,AB,,,Brooks
-117.117,53.737,EMER,Emerson Lakes - Sundance Provincial Park,PP,780.865.2154,,,13,3320,NR,AB,,,
-112.437,50.162,ENCH,Enchant Municipal Park,CP,403.739.2245,mid may-mid oct,,150,,WE NR,AB,,,Enchant
-110.913,56.201,ENGS,Engstrom Lake Provincial Rec Area,PP,780.743.7437,,,12,1880,NH NR,AB,24.6,N,Chard
-110.334,54.544,ETHE,Ethel Lake Provincial Rec Area,PP,780.826.3171,,,12,1779,NH NR,AB,15.8,N,Ardmore
-114.628,50.329,ETHR,Etherington Creek Provincial Rec Area,PP,403.591.6322,,,61,5398,NH RS,AB,22.3,SW,Longview
-116.579,52.972,FAIR,Fairfax Lake Provincial Rec Area,PP,780.865.2154,,,39,4317,NH RS,AB,,,
-117.196,55.725,FALH,Falher Municipal,CP,780.837.2247,mid may-late sep,,30,,E DP SH NR,AB,,,Falher
-114.726,51.623,FALL,Fallen Timber Rec Area,PP,403.637.2608,,,34,4156,NR,AB,9.6,NW,Water Valley
-115.069,51.495,FALS,Fallen Timber South Provincial Rec Area,PP,403.637.2198,,,62,4928,NR,AB,19.7,W,Water Valley
-114.061,55.31,FAWC,Fawcett Lake Provincial Rec Area,PP,780.829.2211,,,58,2018,NR,AB,11.1,N,Smith
-110.296,49.649,FERG,Ferguson Hill - Cypress Hills Interprov. Park,PP,403.893.3833,,,50,4016,E RS,AB,0.7,W,Elkwater
-112.976,52.768,FERI,Ferintosh,CP,780.679.8922,mid may-mid sep,,20,,WE DP RS,AB,,,Ferintosh
-116.748,53.457,FICK,Fickle Lake Provincial Rec Area,PP,780.797.4154,,,41,3214,NR,AB,,,
-117.905,56.304,FIGU,Figure Eight Lake Rec Area,PP,780.624.6486,,,20,2266,NH NR,AB,18.5,SW,Dixonville
-110.314,49.662,FIRR,Firerock - Cypress Hills Interprov. Park,PP,403.893.3833,,,99,4016,E RS,AB,0.7,NW,Elkwater
-111.359,52.68,FISH,Fish Lake,CP,780.888.3623,,,10,,E,AB,,,Hardisty
-116.146,52.452,FIRL,Fish Lake Provincial Rec Area,PP,403.845.8349,,,91,4493,WE NR,AB,,,
-114.585,50.79,FISH,Fisher Creek Provincial Rec Area,PP,403.949.4261,,,30,4882,NR,AB,11.2,S,Bragg Creek
-111.624,54.212,FLOA,Floating Stone Lake Rec Area,CP,780.726.3428,mid may-late aug,,40,,E DP SH,AB,,,St Paul
-111.454,49.479,FORE,Foremost Wayside,CP,403.867.3733,mid apr-mid oct,,30,,WES DP SH,AB,,,Foremost
-113.666,54.552,FORF,Forfar Rec Park,CP,780.675.5253,mid may-mid sep,pull thrus,70,,NH RS,AB,,,Athabasca
-111.562,54.477,FORK,Fork Lake Rec Area,CP,780 623.1747,mid may-mid sep,pull thrus,45,,,AB,,,Lac La Biche
-116.124,58.408,FORT,Fort Vermilion Provincial Rec Area,PP,780.927.4222,,,10,,NR,AB,3.7,NW,Fort Vermilion
-113.608,51.325,FOUN,Founders Park - Irricana Municipal,CP,403.371.7376,mid may-late sep,,30,,WE DP SH,AB,,,Irricana
-116.81,54.398,FOXC,Fox Creek RV,CP,780.622.3896,mid may-mid sep,pull thrus,30,,WES SH,AB,,,Fox Creek
-112.012,51.664,FOXL,Fox Lake,CP,403.854.4433,mid may-late sep,,65,,WES SH NR,AB,,,Hanna
-111.008,54.256,FRAN,Franchere Bay Rec Area,PP,780.826.5358,,,60,1770,E RS,AB,5.9,E,Glendon
-113.511,51.499,FRAN,Frank Fooks Memorial Park,CP,403.546.3783,mid may-mid oct,,25,,WE DP,AB,,,Acme
-115.527,54.7,FREL,Freeman Lake Rec Area,CP,,mid may-mid oct,unknown facilities - rough road,5,,,AB,,,Swan Hills
-115.404,54.572,FREE,Freeman River Rec Area,PP,,,,,2860,NR,AB,9.9,S,Swan Hills
-110.027,54.435,FREN,French Bay Provincial Rec Area,PP,780.594.7856,,,10,1906,NH NR,AB,5.7,NE,Cherry Grove
-111.745,54.183,GARN,Garner Lake Provincial Park,PP,780.645.6295,,,61,2041,RS,AB,3.3,N,Spedden
-110.723,50.037,GASC,Gas City,CP,403.529.8158,mid may-mid sep,pull thrus,95,,WES DP SH RS,AB,,,Medicine Hat
-115.027,51.395,GHOS,Ghost Airstrip Provincial Rec Area,PP,403.637.2198,,,170,4930,NR,AB,,,
-113.609,54.893,GHOS,Ghost Lake,CP,780.675.2273,mid may-mid sep,,5,,,AB,,,Athabasca
-114.719,51.221,GHOR,Ghost Reservoir Provincial Rec Area,PP,403.851.0766,,,100,3921,NR,AB,,,
-116.19,52.446,GOLD,Goldeye Lake Provincial Rec Area,PP,403.845.8349,,,44,4567,NR,AB,,,
-110.759,52.118,GOOL,Gooseberry Lake Provincial Park,PP,403.742.7512,,,82,2302,WE NR,AB,7.5,N,Consort
-114.634,50.914,GOOS,Gooseberry Provincial Rec Area,PP,403.949.4261,,,83,4455,NR,AB,3.9,SW,Bragg Creek
-110.026,49.65,GRAB,Graburn - Cypress Hills Interprov. Park,PP,403.893.3833,,,,4016,NH,AB,,,Elkwater
-119.139,53.901,GRAN,Grande Cache Municipal,CP,780.827.2404,mid may-mid oct,pull thrus - long term avail,75,,WES DP SH RS,AB,,,Grande Cache
-118.82,55.181,GRAP,Grande Prairie Rotary Park,CP,,mid may-mid sep,no tents - big rigs OK,60,,WES DP SH,AB,,,Grande Prairie
-117.803,53.492,GRAV,Graveyard Lake - William A. Switzer Provincial Park,PP,780.865.5600,,,12,3802,RS,AB,,,
-114.426,50.457,GREE,Greenford Provincial Rec Area,PP,403.558.2373,,,13,4441,NR,AB,9.9,SW,Longview
-114.639,51.795,GREE,Greenwood,CP,403.638.2130,mid may-mid sep,pull thrus,30,,WES DP SH RS,AB,,,Sundre
-117.806,53.533,GREL,Gregg Lake - William A. Switzer Provincial Park,PP,780.865.5600,,,164,3759,E RS,AB,,,
-111.185,56.485,GREG,Gregoire Lake Provincial Park,PP,780.743.7437,,,140,1623,E RS,AB,,,
-119.745,54.38,GUND,Gunderson Meadows - Two Lakes Provincial Park,PP,780.538.5381,,,32,3774,NR,AB,,,
-111.37,56.423,HANG,Hangingstone Provincial Rec Area,PP,780.743.7437,,,56,1686,NH NR,AB,,,
-112.557,54.301,HANM,Hanmore Lake Provincial Rec Area,PP,780.656.3730,,,30,2209,RS,AB,15.5,E,Newbrook
-111.917,51.647,HANN,Hanna Museum Trailer Park,CP,403.854.4433,mid may-late sep,no tents,40,,E NR,AB,,,Hanna
-111.324,52.672,HARD,Hardisty Lake Park,CP,780.888.2700,mid may-mid oct,swim beach,50,,WES DP SH,AB,,,Hardisty
-115.917,52.503,HARL,Harlech Provincial Rec Area,PP,403.845.8349,,,17,4175,NH NR,AB,,,
-116.826,56.117,HARM,Harmon Valley Park,CP,780.624.6580.,mid may-mid oct,,15,,E,AB,,,Nampa
-114.277,50.676,HELL,Hells Half Acre,CP,403.993.8538,mid may-mid oct,,20,,E RS,AB,,,Turner Valley
-116.002,55.508,HILL,Hilliards Bay Provincial Park,PP,780.849.7124,,,189,1968,E NR,AB,6.2,E,Grouard
-117.573,53.408,HINT,Hinton Centre,CP,780.865.0876,mid may-late sep,pull thrus,40,,NH DP SH,AB,,,Hinton
-112.229,53.235,HOLD,Holden,CP,780.688.3928,all year,pull thrus,10,,E DP,AB,,,Holden
-119.487,55.258,HOMM,Hommy Park,CP,780.354.8039,mid may-mid oct,,25,,WE,AB,,,Beaverlodge
-117.683,52.56,HONE,Honeymoon Lake - Jasper National Park,CNP,780. 852.6146,,,35,4624,NR,AB,27.6,SE,Jasper
-112.647,54.666,HOPE,Hope Lake,CP,780.689.0501,mid may-mid sep,no tents,60,,NH RS,AB,,,Athabasca
-115.312,52.396,HORB,Horburg Provincial Rec Area,PP,403.721.3975,,,12,3409,NR,AB,27.2,W,Alhambra
-116.685,53.573,HORN,Hornbeck Creek Provincial Rec Area,PP,780.797.4154,,,33,3081,NH NR,AB,,,
-111.735,52.223,HUBE,Huber Dam,CP,403.740.6097,mid may-mid sep,,20,,E,AB,,,Castor
-119.553,55.331,HYTH,Hythe Municipal,CP,780.356.3888,all year,big rigs OK,25,,WE PA,AB,,,Hythe
-114.362,50.242,INDI,Indian Graves Campground,PP,403.995.5554,,,38,4864,NR,AB,26.9,W,Nanton
-111.523,53.363,INNI,Innisfree Municipal Rec Park,CP,780.592.2414,mid may-mid sep,big rigs OK,50,,WE FT SH RS,AB,,,Innisfail
-115.13,50.627,INTE,Interlakes - Peter Lougheed Provincial Park,PP,403.591.6322,,,48,5503,NR,AB,,,
-116.802,54.462,IOSE,Iosegun Lake Provincial  Rec Area,PP,,,,,2560,NR,AB,,,
-111.233,52.918,IRMA,Irma Rec Area,CP,780.754.3665,mid may-mid oct,,50,,WES,AB,,,Irma
-111.306,53.995,IRON,Iron Horse Trail,CP,780.645.5313,mid may-mid oct,big rigs OK,45,,WES SH,AB,,,St Paul
-111.55,54.597,IRON,Ironwood Lake - Lakeland Provincial Rec Area,PP,780.623.5235,,,20,2031,NR,AB,16.5,NW,Goodridge
-113.513,54.85,ISLA,Island Lake,CP,780.675.2273,mid may-mid sep,,10,,NH RS,AB,,,Athabasca
-114.673,49.629,ISLL,Island Lake Provincial Rec Area,PP,403.563.5395,,,41,,NR,AB,7.2,W,Crowsnest Pass
-113.108,54.792,JACL,Jackfish Lake,CP,780.675.2273,mid may-mid sep,no tents - pull thrus,35,,NH RS,AB,,,Athabasca
-115.57,52.504,JACK,Jackfish Lake Provincial Rec Area,PP,403.845.8349,,,5,3767,NR,AB,,,
-114.519,51.941,JAMR,James River Bridge  Provincial Rec Area,PP,403.637.2608,,,8,3494,NR,AB,5.1,E,James River Bridge
-115.189,51.82,JAMW,James Wilson Provincial Rec Area,PP,403.637.2229,,,17,4376,NR,AB,,,
-114.082,52.345,JARB,Jarvis Bay Provincial Park,PP,403.887.5522,,,169,3183,E RS,AB,25,NW,Red Deer County
-117.799,53.448,JARL,Jarvis Lake - William A. Switzer Provincial Park,PP,780.865.5600,,,24,3791,RS,AB,,,
-115.993,53.71,JERR,Jerry Vanderwell Memorial Park,CP,780.693.2479,mid may-mid sep,pull thrus,25,,NH VT DW,AB,,,Peers
-113.077,52.721,JOHN,Johnsons Beach,CP,780.372.3884,mid may-mid sep,,65,,WE DP SH RS,AB,,,Bashaw
-115.842,51.243,JOHN,Johnston Canyon - Banff National Park,CNP,403. 762.1581,,,132,4718,FT NR,AB,,,
-117.388,52.418,JONA,Jonas Creek - Jasper National Park,CNP,780. 852.6146,,,25,5400,NR,AB,43.1,SE,Jasper
-118.554,54.421,KAKW,Kakwa River Provincial Rec Area,PP,780.538.5350,,,14,2609,NR,AB,,,
-110.904,54.037,KEHI,Kehiwin Provincial Rec Area,PP,780.645.6295,,,38,1786,NR,AB,6.5,S,Kehewin
-113.549,51.693,KEIV,Keivers Lake Rec Park,CP,403.443.7308,mid may-late aug,,50,,NH FT NW SH RS,AB,,,Three Hills
-111.868,52.788,KILL,Killam Centennial Park,CP,780.385.3977,mid may-mid sep,pull thrus,20,,WE SH,AB,,,Killam
-111.896,50.445,KINB,Kinbrook Island Provincial Park,PP,403.362.2962,,,169,2516,E RS,AB,10,NE,Rainier
-110.147,52.697,KING,Kings Park,CP,780.858.3881,mid may-mid oct,,10,,WES,AB,,,Chauvin
-117.776,53.282,KINK,Kinky Lake - Wildhorse Lake Provincial Rec Area,PP,780.866.2231,,,10,3789,RS,AB,,,
-110.331,53.339,KITS,Kitscoty District Regional Park,CP,780.846.2221,mid may-mid sep,,20,,WE DP SH,AB,,,Kitscoty
-111.874,50.571,KIWA,Kiwanis,CP,403.362.5073,all year,pull thrus,15,,WES,AB,,,Brooks
-117.13,57.973,LACR,La Crete Ferry,CP,780.841.2705,mid may-late sep,,100,,E DP,AB,,,La Crete
-111.316,53.806,LACB,Lac Bellevue Municipal Rec Area,CP,780.645.2639,mid may-late aug,,25,,WE SH,AB,,,St Paul
-115.165,51.052,LAC,Lac Des Arcs - Bow Valley Provincial Park,PP,403.673.3985,,,28,4271,NH NR,AB,,,
-116.17,51.409,LAK2,Lake Louise Tent - Banff National Park,CNP,403. 522.3833,,,206,5025,FT RS,AB,,,
-116.177,51.417,LAK1,Lake Louise Trailer - Banff National Park,CNP,403. 522.3833,,,189,5052,FT RS,AB,,,
-112.918,50.565,LAKM,Lake McGregor Provincial Rec Area,PP,403.897.3933,,very few trees,100,2857,NR,AB,1.6,W,Milo
-113.937,52.463,LAKA,Lakeview - Aspen Beach Provincial Park,PP,877.277.3645,,,256,2966,WE RS,AB,17.6,SE,Rimbey
-110.292,49.661,LAKC,Lakeview - Cypress Hills Interprov. Park,PP,403.893.3833,,,30,4016,WE RS,AB,0.7,NW,Elkwater
-113.661,54.991,LAWR,Lawrence Lake Provincial Rec Area,PP,780.675.8213,,,13,2104,NR,AB,15.6,E,Hondo
-113.513,53.251,LEDU,Leduc Lions,CP,780.986.1882,mid apr-mid oct,pull thrus,110,,WES RS,AB,,,Leduc
-113.308,49.193,LEEC,Lee Creek,CP,403.388.4230,,big rigs OK,55,,WES SH RS,AB,,,Cardston
-114.638,53.793,LESS,Lessard Lake,CP,780.785.4125,mid may-late sep,swim,50,,WE SH,AB,,,Cherhill
-114.821,55.443,LESS,Lesser Slave Lake Provincial Park,PP,780.849.7100,,,113,2151,NR,AB,9.9,NE,Widewater
-113.491,51.591,LIND,Linden East Coulee,CP,403.546.3888,all year,,10,,E DP,AB,,,Linden
-112.928,50.231,LITB,Little Bow Provincial Park,PP,403.897.3933,,,205,2849,E NR,AB,10.9,NE,Carmangay
-112.657,50.194,LITR,Little Bow Reservoir Provincial Rec Area,PP,403.897.3933,,,25,2796,NR,AB,10.8,S,Lomond
-114.857,50.796,LITE,Little Elbow Provincial Rec Area,PP,403.949.4261,,,94,5334,RS,AB,16.5,SW,Bragg Creek
-112.201,51.374,LITF,Little Fish Lake Provincial Park,PP,403.823.1749,,,14,2982,NR,AB,8.4,NE,Dorothy
-116.799,53.689,LITS,Little Sundance Creek Provincial Rec Area,PP,780.865.2154,,,8,3354,NR,AB,,,
-114.442,50.102,LIVI,Livingstone Falls Rec Area,PP,403.563.5395,,,22,5526,NR,AB,31.1,S,Longview
-110.307,49.643,LODG,Lodgepole - Cypress Hills Interprov. Park,PP,403.893.3833,,,49,4016,NH RS,AB,0.8,NW,Elkwater
-113.813,54.472,LONI,Long Island Lake Municipal,CP,780.954.2261,mid may-mid sep,pull thrus,35,,,AB,,,Westlock
-116.165,53.795,LONE,Long Lake -Edson,CP,780.693.2479,mid may-mid sep,,15,,NH,AB,,,Edson
-112.767,54.438,LONG,Long Lake Provincial Park,PP,780.576.3959,,,220,2100,E RS,AB,7,SE,Ellscott
-116.819,53.065,LOVE,Lovett River Provincial Rec Area,PP,780.865.2154,,,17,4583,NR,AB,,,
-113.112,49.362,LOWE,Lower - St. Mary Reservoir Provincial Rec Area,PP,403.382.4097,,,100,3683,NR,AB,3.2,NW,Spring Coulee
-115.121,50.631,LOWL,Lower Lake - Peter Lougheed Provincial Park,PP,403.591.6322,,,104,5509,NR,AB,,,
-114.2,49.586,LUND,Lundbreck Falls Rec Area,PP,403.563.5395,,,65,,E NR,AB,1.6,W,Lundbreck
-114.413,49.453,LYNX,Lynx Creek Rec Area,PP,403.563.5395,,,40,,NR,AB,,,
-116.575,58.328,MACH,Machesis Lake Provincial Rec Area,PP,780.927.3718,,,19,,NW NR,AB,,,
-117.63,56.923,MANN,Manning Riverside,CP,780.836.3606,mid may-late sep,,10,,WE DP SH,AB,,,Manning
-117.706,53.307,MASK,Maskuta Creek,CP,780.865.0876,mid may-mid oct,,15,,,AB,,,Hinton
-114.152,49.8,MAYC,Maycroft Provincial Rec Area,PP,403.382.4097,,,10,,NR,AB,15,N,Lundbreck
-115.14,53.937,MAYE,Mayerthorpe Golf and Country Club,CP,780.786.4737,mid apr-mid oct,,30,,WE DP VT DW,AB,,,Mayerthorpe
-118.754,55.111,MACG,Mcgoverns at Evergreen Park,CP,855.539.1814,mid may-mid sep,,75,,E DP SH,AB,,,Grande Prairie
-114.68,50.889,MCLE,Mclean Creek Provincial Rec Area,PP,403.949.4261,,,170,4703,E RS,AB,6.5,SW,Bragg Creek
-117.276,53.298,MCLO,McLeod River Provincial Rec Area,PP,780.865.2154,,,22,3839,NR,AB,,,
-114.743,52.751,MEDI,Medicine Lake Provincial Rec Area,PP,780.388.2223,,,49,3265,NR,AB,14.1,S,Buck Lake
-114.575,50.773,MESA,Mesa Butte Provincial Rec Area,PP,403.949.4261,,equestrian,15,4717,NR,AB,12.4,S,Bragg Creek
-113.757,52.463,MICP,Michener Park,CP,403.782.1250,mid may-mid oct,pull thrus,55,,E DP FT DW SH,AB,,,Lacombe
-112.537,51.583,MICH,Michichi Rec Area,CP,403.772.3793,mid may-mid oct,,20,,WE DP SH NR,AB,,,Morrin
-116.051,53.36,MINN,Minnow Lake Provincial Rec Area,PP,780.797.4154,mid may-mid oct,unknown facilities,10,,NH NR,AB,,,Edson
-112.873,53.246,MIQU,Miquelon Lake Provincial Park,PP,780.672.7274,,,276,2536,E RS,AB,5.6,NW,Kingman
-115.008,52.215,MITC,Mitchell Lake Provincial Rec Area,PP,403.845.9275,,,5,3443,NR,AB,14.1,NW,Caroline
-119.795,54.36,MOBE,Moberly Flats - Two Lakes Provincial Park,PP,780.538.5381,,,30,4329,NR,AB,,,
-112.347,54.184,MONS,Mons Lake Rec Area,CP,780.656.3037,mid apr-mid oct,,10,,,AB,,,Smoky Lake County
-119.218,55.884,MOON,Moonshine Lake Provincial Park,PP,780.538.5350,,,110,2349,E NR,AB,4.3,SW,Blueberry Mountain
-110.931,54.273,MOOS,Moose Lake Provincial Park,PP,780.594.7856,,,59,1811,E RS,AB,9.1,E,Glendon
-116.332,51.632,MOSQ,Mosquito Creek - Banff National Park,CNP,403. 522.3833,,,32,6000,VT NR,AB,,,
-113.967,52.869,MOUR,Mound Red Park,CP,780.586.3508,mid may-late sep,pull thrus,30,,NH,AB,,,Wetaskiwin
-117.865,52.634,MOUN,Mount Kerkeslin - Jasper National Park,CNP,780. 852.6146,,,42,4007,NR,AB,19.2,SE,Jasper
-115.127,50.62,MOUN,Mount Sarrail - Peter Lougheed Provincial Park,PP,403.591.6322,,,44,5542,NR,AB,,,
-113.873,54.152,MOUN,Mountie Park,CP,,mid may-mid oct,,20,,WES SH NR,AB,,,Westlock
-110.659,54.192,MURI,Muriel Lake Park,CP,780.826.4140,mid may-mid sep,,95,,E RS,AB,,,Bonnyville
-118.641,54.56,MUSR,Musreau Lake Campground,PP,780.538.5350,,,69,2991,NR,AB,,,
-113.611,54.618,NARR,Narrow Lake,CP,780.675.2273,mid may-mid sep,,10,,NH,AB,,,Athabasca
-112.504,54.653,NORB,North Buck Lake Rec Area,PP,780.689.4602,,,135,2047,E NR,AB,1.3,N,Caslan
-114.265,52.039,NORD,North Dyke - Dickson Dam Provincial Rec Area,PP,403.887.5522,,,30,3110,NR,AB,3.8,SE,Spruce View
-114.543,50.754,NORP,North Fork Provincial Rec Area,PP,403.949.4261,,,24,4457,NR,AB,9.5,W,Millarville
-115.027,51.395,NORG,North Ghost Provincial Rec Area,PP,,,,,4930,NR,AB,,,
-113.893,55.986,NORT,North Wabasca Rec Area,CP,780.891.2842,mid may-late aug,,35,,E VT,AB,,,Wabasca
-117.195,57.281,NOTI,Notikewin Provincial Park,PP,780.836.2048,,,19,,NR,AB,19.9,NE,Hotchkiss
-117.143,53.547,OBED,Obed Lake Provincial Park,PP,780.865.2154,,,7,3503,NR,AB,,,
-110.295,49.654,OLDB,Old Baldy - Cypress Hills Interprov. Park,PP,403.893.3833,,,19,4016,WE RS,AB,0.8,NW,Elkwater
-114.44,49.95,OLDN,Oldman River North Rec Area,PP,403.563.5395,,,10,,NR,AB,41.2,S,Longview
-113.451,49.719,OLDM,Oldman River Provincial Rec Area,PP,403.382.4097,,,40,3109,NR,AB,2.3,W,Fort Macleod
-119.892,56.316,OLES,Oles Lake Provincial Rec Area,PP,780.595.2149,,,16,2388,NW NR,AB,7.5,N,Bear Canyon
-110.474,51.346,OYEN,Oyen Centennial Park,CP,403.664.3511,mid may-mid oct,water slide nearby,25,,WE DP FT DW,AB,,,Oyen
-114.707,50.884,PADD,Paddys Flat - Elbow River Provincial Rec Area,PP,403.949.4261,,,98,4652,NH NR,AB,7.6,SW,Bragg Creek
-112.925,49.807,PARK,Park Lake Provincial Park,PP,403.382.4097,,,40,3075,E RS,AB,3.5,W,Diamond City
-113.638,49.105,PAYN,Payne Lake Provincial Rec Area,PP,403.382.4097,,,46,4400,NW,AB,2.6,SW,Mountain View
-112.827,52.523,PELI,Pelican Point Park,CP,855.283 . 7838,mid may-mid sep,lake swim,60,,E SH RS,AB,,,Bashaw
-116.567,52.935,PEMF,Pembina Forks Provincial Rec Area,PP,780.865.2154,,,20,4271,NR,AB,,,
-114.46,53.933,PEMB,Pembina River Provincial Park,PP,780.727.3643,,,132,2328,E RS,AB,9.7,N,Glenevis
-115.706,52.041,PEPP,Peppers Lake Provincial Rec Area,PP,403.845.9275,,equestrian,16,5154,NR,AB,,,
-110.009,50.959,PETE,Peter Fidler Park,CP,403.565.3938,mid may-mid oct,pull thrus,10,,WE FT DW SH,AB,,,Empress
-114.968,52.101,PHYL,Phyllis Lake Provincial Rec Area,PP,403.845.9275,,,21,3704,NR,AB,9.7,W,Caroline
-118.592,53.904,PIER,Pierre Greys Lakes Provincial Rec Area,PP,780.827.1382,,,83,4137,NR,AB,,,
-114.006,52.963,PIGE,Pigeon Lake - Pigeon Lake Provincial Park,PP,780.586.2644,,,300,2817,E RS,AB,33.4,E,Wetaskiwin County
-113.942,49.486,PINC,Pincher Creek Veterans Memorial,CP,403.627.4322,mid may-mid oct,stream side - big rigs OK,20,,E DP,AB,,,Pincher Creek
-113.731,50.135,PINC,Pine Coulee - Willow Creek Provincial Park,PP,403.625.6239,,,140,3438,NR,AB,4.4,SW,Stavely
-119.761,54.379,PINH,Pine Hollow - Two Lakes Provincial Park,PP,780.538.5381,,,24,3678,NR,AB,,,
-112.267,59.556,PINL,Pine Lake Campground - Wood Buffalo National Park,CNP,867.872.7900,,Boil drinking water,,,NH ND PT DW NS NR,AB,,,
-111.478,54.651,PINL,Pinehurst Lake - Lakeland Provincial Rec Area,PP,780.623.5235,,,70,1968,NR,AB,19,N,Goodridge
-119.103,55.066,PIPE,Pipestone Creek Park,CP,780.766.2391,mid may-mid oct,fossils,100,,NH,AB,,,Wembley
-117.908,53.196,POCA,Pocahontas - Jasper National Park,CNP,780. 852.6176,,,140,3666,RS,AB,,,
-113.475,49.009,POLI,Police Outpost Provincial Park,PP,,,,,4627,NR,AB,13.1,SW,Aetna
-115.305,52.249,PRAI,Prairie Creek Provincial Rec Area,PP,403.845.9275,,,50,3875,NH NR,AB,,,
-111.827,51.459,PRAI,Prairie Oasis Park,CP,855.283 . 7838,mid may-late sep,pull thrus - warm water swimming,75,,,AB,,,Hanna
-116.036,51.326,PROT,Protection Mountain - Banff National Park,CNP,403. 522.3833,,,89,4873,FT NR,AB,,,
-117.694,56.219,QUEE,Queen Elizabeth Provincial Park,PP,780.624.6486,,,56,2141,E NR,AB,5.3,N,Berwyn
-114.424,49.833,RACE,Racehorse Rec Area,PP,403.563.5395,,,38,,NR,AB,12.4,S,Ranchland No. 66
-115.832,52.092,RAM,Ram Falls Provincial Rec Area,PP,403.845.9275,,,54,5295,NR,AB,,,
-116.865,52.04,RAMP,Rampart Creek - Banff National Park,CNP,403. 522.3833,,,50,4742,VT NR,AB,,,
-114.502,52.091,RAVE,Raven Provincial Rec Area,PP,403.755.6163,,,8,3188,NR,AB,7,SE,Stauffer
-113.087,52.756,REDD,Red Deer Lake Park,CP,780.361.8180,mid may-mid sep,swim,20,,NH DP,AB,,,Ferintosh
-115.279,51.651,REDD,Red Deer River Rec Area,PP,403.637.2229,,,64,4777,NR,AB,,,
-114.244,51.948,REDL,Red Lodge Provincial Park,PP,403.224.2547,,,105,3129,E RS,AB,10,S,Spruce View
-110.106,49.667,REED,Reesor Dock - Cypress Hills Interprov. Park,PP,403.893.3833,,,10,4037,NH NR,AB,8.2,E,Elkwater
-110.098,49.66,REEL,Reesor Lake - Cypress Hills Interprov. Park,PP,403.893.3833,,,40,4016,NH NR,AB,0.9,NW,Elkwater
-115.594,52.967,RESE,Reservoir - Brazeau Reservoir Provincial Rec Area,PP,780.894.0006,,,33,3213,NH RS,AB,,,
-112.555,49.349,RIDG,Ridge Park Recreation,CP,403.642.7021,mid apr-mid oct,,55,,E VT DW,AB,,,Warner
-114.026,51.931,RIVR,River Ridge - Bowden Heritage,CP,403.224.2727,mid may-mid oct,,20,,E,AB,,,Bowden
-110.856,52.995,RIVE,Riverdale Mini-Park,CP,780.842.2996,mid may-mid sep,pull thrus,105,,WES DP SH,AB,,,Wainwright
-112.892,52.462,ROCH,Rochon Sands Provincial Park,PP,403.742.4338,,,69,2563,NR,AB,0.4,NW,Rochon Sands
-118.238,53.472,ROCK,Rock Lake Provincial Park,PP,780.865.2154,,,93,4566,NR,AB,,,
-113.141,51.236,ROCK,Rockyford Lions,CP,403.533.3950,all year,,30,,WES,AB,,,Rockyford
-110.088,53.277,ROLL,Rolling Green Fairways RV,CP,780.872.1660,mid apr-late oct,no tents - big rigs OK,75,,WES,AB,,,Lloydminster
-110.486,53.818,ROSS,Ross Lake - Whitney Lakes Provincial Park,PP,780.645.6295,,,65,1930,E RS,AB,3.6,W,Frog Lake
-114.402,54.111,ROTA,Rotary Park,CP,780.674.2532,mid may-mid oct,no tents - pull thrus,20,,WE,AB,,,Barrhead
-114.531,50.637,SAND,Sandy  McNabb - Sheep River Provincial Park,PP,403.949.4261,,,98,4694,NR,AB,12.2,SW,Millarville
-112.831,53.678,SAND,Sandy Beach - Elk Island National Park,CNP,780. 992.2950,,,,2335,RS,AB,15.6,E,Fort Saskatchewan
-111.859,53.869,SANL,Sandy Lake,CP,780.657.2052,mid may-late sep,swim beach,35,,E DP FT DW SH,AB,,,Two Hills
-110.078,50.732,SAND,Sandy Point Park,CP,403.526.2888,mid may-mid oct,pull thrus,15,,NH,AB,,,Hilda
-114.91,53.89,SANG,Sangudo Riverside,CP,780.785.3411,mid may-late sep,,20,,E DP FT SH,AB,,,Sangudo
-119.085,55.205,SASK,Saskatoon Island Provincial Park,PP,780.538.5350,,,103,2365,E RS,AB,4.4,NE,Wembley
-115.758,52.455,SAUN,Saunders Provincial Rec Area,PP,403.845.8349,,,7,3741,NR,AB,,,
-111.264,54.691,SEIB,Seibert Lake - Lakeland Provincial Rec Area,PP,780.623.5235,,,47,2095,NR,AB,21.6,N,Goodridge
-115.357,51.996,SEVE,Seven Mile Provincial Rec Area,PP,403.845.9275,,,36,4348,NR,AB,27.1,W,Caroline
-118.771,55.346,SEXS,Sexsmith Heritage Park,CP,780.568.3681,early may-late sep,,30,,WE,AB,,,Sexsmith
-117.677,56.531,SHAD,Shady Lane,CP,780.971.3973,mid may-mid oct,pull thrus,25,,WE,AB,,,Dixonville
-114.138,50.719,SHEE,Sheep Creek Provincial Rec Area,PP,780.827.1382,,,9,3638,NR,AB,4.7,NE,Black Diamond
-116.031,53.863,SHIN,Shiningbank Lake,CP,780.693.2150,mid may-mid sep,,40,,NH VT DW,AB,,,Peers
-110.859,52.464,SHOR,Shorncliffe Lake,CP,780.857.2435,mid may-late sep,swim beach,50,,WES DP FT DW SH,AB,,,Czar
-114.862,51.046,SIBB,Sibbald Lake Provincial Rec Area,PP,403.673.3985,,,134,4912,NR,AB,14.3,NW,Bragg Creek
-112.963,52.889,SILV,Silver Creek Golf & Camp,CP,780.855.3982,mid apr-late oct,big rigs OK - many activities,215,,WES DP FT DW SH RS,AB,,,New Norway
-118.182,55.136,SIMO,Simonette River Provincial Rec Area,PP,780.538.5350,,,25,1633,NR,AB,28.1,E,Grovedale
-111.976,54.832,SIRW,Sir Winston Churchill Provincial Park,PP,780.623.4144,,,,1835,E RS,AB,4.3,N,Lac La Biche
-116.909,54.365,SMOL,Smoke Lake Campground,PP,,,,,2835,NR,AB,,,
-112.472,54.12,SMOK,Smoky Lake RV Park,CP,780.656.3674,mid may-mid sep,,10,,E NR,AB,,,Smoky Lake County
-119.154,53.891,SMOK,Smoky River South Provincial Rec Area,PP,780.827.1382,,,22,3162,NR,AB,1.7,W,Grande Cache
-118.085,53.013,SNAR,Snaring River - Jasper National Park,CNP,780. 852.6176,,,66,3329,NR,AB,9.2,N,Jasper
-114.248,52.025,SOUD,South Dyke - Dickson Dam Provincial Rec Area,PP,403.887.5522,,,20,3121,NR,AB,5,SE,Spruce View
-115.348,50.977,SPRA,Spray Lakes West - Spray Valley Provincial Park,PP,403.673.3985,,,50,5563,NR,AB,,,
-110.185,49.679,SPRU,Spruce Coulee - Cypress Hills Interprov. Park,PP,403.893.3833,,,,4016,NH,AB,,,Elkwater
-111.844,54.712,SPRU,Spruce Point Resort,CP,780.623.3930,early may-late sep,swim beach,160,,WE DP SH RS,AB,,,Lac La Biche
-111.309,53.991,STPA,St Paul Overnight Trailer Park,CP,780.645.5313,mid may-late aug,,40,,WES,AB,,,St Paul
-112.983,51.113,STAN,Standard Municipal,CP,403.644.3968,,,10,,E DP FT DW SH,AB,,,Standard
-112.912,51.661,STAR,Starland Rec Area,CP,403.772.3793,mid may-mid oct,,50,,NH ND VT DW NR,AB,,,Morrin
-111.081,53.868,STON,Stoney Lake Municipal Rec Area,CP,780.724.2381,mid may-late aug,,45,,E FT DW SH,AB,,,St Paul
-115.174,52.263,STRA,Strachan Provincial Rec Area,PP,403.845.9275,,,27,3620,NR,AB,,,
-117.422,56.162,STRO,Strong Creek Park,CP,780.338.3845,early may-late oct,unknown facilities,20,,N$,AB,,,Peace River
-119.177,53.869,SULP,Sulphur Gates Provincial Rec Area,PP,780.827.1382,,equestrian,11,3315,NR,AB,,,
-118.311,56.706,SULL,Sulphur Lake Provincial Rec Area,PP,780.624.6486,,,16,2468,NR,AB,26.9,NW,Dixonville
-115.195,52.122,SWAN,Swan Lake Provincial Rec Area,PP,403.845.9275,,,24,4042,NR,AB,19.4,W,Caroline
-112.137,49.783,TABE,Taber RV Park,CP,403.223.5997,mid apr-late oct,not attractive,80,,WES,AB,,,Taber
-117.562,56.092,TANG,Tangent Park,CP,780.359.2025,early may-late oct,pull thrus,70,,WES DP FT DW SH,AB,,,Tangent
-115.098,52.043,TAYR,Tay River Provincial Rec Area,PP,403.845.9275,,,32,3893,NR,AB,15.6,W,Caroline
-113.042,53.192,TELE,Telegraph Park and Hay Lakes Lions,CP,780.878.3200,mid may-mid sep,,20,,WE,AB,,,Hay Lakes
-113.057,52.45,THEN,The Narrows Provincial Rec Area,PP,403.742.4338,,,61,2570,NR,AB,2.5,SE,Mirror
-114.241,52.633,NEST,The Nesting Place,CP,403.704.6997.,mid may-late sep,,40,,WES DP SH NR,AB,,,Rimbey
-116.626,52.014,THOM,Thompson Creek Provincial Rec Area,PP,403.721.2184,,,55,4526,NR,AB,,,
-110.276,53.032,THRC,Three Cities Regional Rec Park,CP,780.745.2283,mid may-late sep,,10,,E FT DW SH,AB,,,Paradise Valley
-113.249,51.707,THRH,Three Hills Rec Park,CP,403.443.5822,all year,pull thrus,50,,WES DP FT DW SH,AB,,,Three Hills
-115.267,51.041,THRE,Three Sisters - Bow Valley Provincial Park,PP,403.673.3985,,,36,4270,NH NR,AB,0.2,NW,Dead Mans Flats
-114.721,54.125,THUN,Thunder Lake Provincial Park,PP,780.674.4051,,,127,2180,E NR,AB,4.4,SE,Tiger Lily
-111.812,50.539,TILL,Tillebrook Provincial Park,PP,403.362.4525,,,85,2518,E RS,AB,9.3,NW,Tilley
-112.755,52.877,TILL,Tillicum Beach Park,CP,780.672.4446,mid may-mid sep,,5,,E DW SH NR,AB,,,Camrose
-113.014,51.837,TOLE,Tolman East - Dry Island Buffalo Jump Provincial Park,PP,403.742.7512,,,36,2315,NH NR,AB,9.4,E,Trochu
-113.019,51.839,TOLW,Tolman West - Dry Island Buffalo Jump Provincial Park,PP,403.742.7512,,,30,2314,NH NR,AB,9.2,E,Trochu
-113.606,51.795,TORR,Torrington Village,CP,403.443.5541,all year,,5,,NH ND VT NS,AB,,,Torrington
-111.437,54.86,TOUC,Touchwood Lake - Lakeland Provincial Rec Area,PP,780.623.5235,,,100,2159,NR,AB,39.1,NW,La Corey
-112.731,52.321,TOWN,Town of Stettler - Lions,CP,403.742.4411,mid may-mid oct,,65,,WES,AB,,,Stettler
-113.91,49.048,TOWN,Townsite - Waterton Lakes National Park,CNP,,,,238,4219,WE RS,AB,2.5,S,Waterton Park
-115.093,54.524,TRAP,Trapper Leas Rec Area,PP,,,,,2738,NR,AB,,,
-113.226,51.824,TROC,Trochu Lions Club,CP,403.442.3061,early apr-mid oct,,35,,WES FT DW SH,AB,,,Trochu
-115.54,51.189,TUNT,Tunnel Mt Trailer - Banff National Park,CNP,,,,321,4803,E FT RS,AB,,,
-115.52,51.191,TUN1,Tunnel Mt Village I - Banff National Park,CNP,403. 762.1550,,,618,4725,FT RS,AB,,,
-115.52,51.189,TUN2,Tunnel Mt Village II - Banff National Park,CNP,,,,188,4658,FT RS,AB,,,
-113.213,53.72,TURN,Turner Park,CP,780.998.4074,mid may-mid oct,big rigs OK,20,,WE SH RS,AB,,,Fort Saskatchewan
-115.005,52.417,TWIC,Twin Lakes - Crimson Lake Provincial Park,PP,403.845.2330,,,39,3204,NH NR,AB,14.9,W,Alhambra
-114.363,52.952,TWIL,Twin Lakes Park,CP,780.819.1078,early may-late sep,pull thrus,60,,NH VT DW,AB,,,Winfield
-117.525,57.448,TWIN,Twin Lakes Provincial Rec Area,PP,780.836.4046,,,49,2376,RS,AB,,,
-112.826,50.269,TWIN,Twin Valley,CP,403.485.2241,mid may-mid oct,,30,,E NR,AB,,,Vulcan
-115.5,51.224,TWOL,Two Jack Lakeside - Banff National Park,CNP,,,,74,4888,FT NR,AB,,,
-115.505,51.229,TWOM,Two Jack Main - Banff National Park,CNP,403. 762.1550,,,380,4864,WE FT NR,AB,,,
-116.419,52.063,TWOO,Two Oclock Creek - Kootenay Plains Provincial Rec Area,PP,403.721.2184,,,24,4484,NR,AB,,,
-112.084,49.145,UNDE,Under Eight Flags,CP,403.647.2502,all year,pull thrus,40,,WES DP FT DW SH,AB,,,Milk River
-113.127,49.372,UPPE,Upper - St. Mary Reservoir Provincial Rec Area,PP,403.382.4097,,,30,3661,NR,AB,4.2,NW,Spring Coulee
-112.097,50.088,VAUX,Vauxhall Lions,CP,403.654.4052,mid may-mid oct,,30,,E VT DW SH,AB,,,Vauxhall
-110.871,53.363,VERM,Vermilion Provincial Park,PP,780.853.4372,,,111,1904,WE RS,AB,0.8,NW,Vermilion
-111.122,52,VETE,Veteran Centennial Park,CP,403.575.3954,all year,,10,,WES,AB,,,Veteran
-112.465,52.917,VILL,Village of Bawlf Jubilee Park,CP,780.373.3797,mid may-mid oct,no tents,5,,WE FT DW,AB,,,Bawlf
-113.271,50.406,VIRG,Virginia Mitchell Memorial Park,CP,403.485.2994,mid may-mid sep,,15,,WES DP FT DW SH,AB,,,Vulcan
-114.442,53.565,WABA,Wabamun Lake Provincial Park,PP,780.892.2702,,,276,2368,E RS,AB,1.2,E,Wabamun
-117.993,52.77,WABA,Wabasso - Jasper National Park,CNP,780. 852.6176,,,228,3581,RS,AB,8.3,SE,Jasper
-115.549,57.76,WADL,Wadlin Lake Park,CP,780.928.3983,mid may-mid sep,,35,,NH DP FT NW,AB,,,Fort Vermilion
-114.988,51.366,WAIP,Waiparous Creek Provincial Rec Area,PP,403.637.2198,,,56,4702,NR,AB,,,
-118.064,52.837,WAPI,Wapiti - Jasper National Park,CNP,780. 852.6176,,,362,3512,E RS,AB,3,S,Jasper
-117.205,54.753,WASK,Waskahigan River Provincial Rec Area,PP,780.538.5350,,,20,2151,NR,AB,,,
-116.62,51.842,WATE,Waterfowl Lakes - Banff National Park,CNP,403. 522.3833,,,116,5505,FT NR,AB,,,
-113.679,49.33,WATE,Waterton Reservoir Rec Area,PP,403.626.3656,,,25,3877,NR,AB,3.5,NW,Hill Spring
-117.27,53.074,WATS,Watson Creek Provincial Rec Area,PP,780.865.2154,,,38,4762,NR,AB,,,
-115.529,52.952,WEST,West Canal - Brazeau Reservoir Provincial Rec Area,PP,780.894.0006,,,18,3157,NH RS,AB,,,
-111.33,54.124,WEST,Westcove Municipal Rec Area,CP,780.645.6688,mid may-late aug,pull thrus,95,,E DP SH,AB,,,St Paul
-113.352,52.989,WETA,Wetaskiwin Lions RV,CP,780.352.7258,mid may-late sep,no tents - big rigs OK,50,,WES DP FT DW SH,AB,,,Wetaskiwin
-118.079,52.847,WHIS,Whistlers- Jasper National Park,CNP,780. 852.6176,,,781,3495,WE RS,AB,2.2,S,Jasper
-117.347,52.986,WHIT,Whitehorse Creek Prov Rec Area,PP,780.865.2154,,equestrian,26,5376,NR,AB,,,
-110.546,53.827,WHIL,Whitney Lake - Whitney Lakes Provincial Park,PP,780.645.6295,,,50,1921,RS,AB,4,N,Heinsburg
-117.176,52.219,WILC,Wilcox Creek - Jasper National Park,CNP,780. 852.6176,,,46,6758,NR,AB,,,
-110.708,50.03,WILD,Wild Rose Trailer Park,CP,403.526.2248,all year,no tents - pull thrus,90,,WES FT DW SH,AB,,,Medicine Hat
-117.788,53.27,WILD,Wildhorse Lake - Wildhorse Lake Provincial Rec Area,PP,780.866.2231,,,23,3773,NR,AB,,,
-115.127,50.665,WILW,William Watson - Peter Lougheed Provincial Park,PP,403.591.6322,,,20,5603,E NR,AB,,,
-117.56,55.082,WILL,Williamson Provincial Park,PP,780.538.5350,,,67,2252,E NR,AB,2.4,NW,Calais
-116.43,53.536,WILC,Willmore Rec Park,CP,780.723.7141,all year,pull thrus,40,,NH PT DW RS,AB,,,Edson
-113.776,50.119,WILC,Willow Creek - Willow Creek Provincial Park,PP,403.625.6239,,,40,3419,NR,AB,6.7,SW,Stavely
-115.058,51.084,WILR,Willow Rock - Bow Valley Provincial Park,PP,403.673.3985,,,124,4257,E NR,AB,3.2,E,Kananaskis
-116.678,55.618,WINA,Winagami Lake Provincial Park,PP,780.523.0041,,,66,2052,E NR,AB,14.8,NW,High Prairie
-113.837,53.113,WIZA,Wizard Lake Jubilee Park,CP,780.985.2499,mid may-late aug,pull thrus,110,,E FT DW SH,AB,,,Calmar
-110.977,54.669,WOLF,Wolf Lake Park,CP,780.916.7821,mid may-mid sep,,65,,NH DP RS,AB,,,Bonnyville
-116.074,53.212,WOLF,Wolf Lake West Provincial Rec Area,PP,780.723.0738,,,32,3458,NR,AB,27.5,W,Cynthia
-113.19,49.178,WOOL,Woolford Provincial Park,PP,403.382.4097,,,46,3719,NR,AB,4.3,NE,Aetna
-111.617,49.084,WRIT,Writing on Stone Provincial Park,PP,403.647.2364,,,64,3010,E RS,AB,15,W,Aden
-113.426,50.83,WYND,Wyndham Carseland Park,PP,403.934.3523,,,177,2979,NR,AB,8.9,NW,Mossleigh
-117.586,55.12,YOUN,Youngs Point Provincial Park,PP,780.538.5350,,,124,2264,E RS,AB,5,NW,Calais
-114.145,53.02,ZEIN,Zeiner - Pigeon Lake Provincial Park,PP,780.586.2644,,,110,2894,WE RS,AB,28.4,W,Mulhurst Bay
-115.169,49.775,40MI,40 Mile Camp - Bull River,SF,,,2wd OK,5,3800,NH ND PT NW NS NR N$,BC,12.9,W,Sparwood
-121.209,52.53,ABBO,Abbott Creek,SF,,,2wd OK,5,2400,NH ND PT NW NS NR N$,BC,,,
-122.078,53.303,AHBA,Ahbau Lake,SF,,,2wd OK,20,3100,NH ND PT NW NS NR N$,BC,28.1,NE,Quesnel
-123.123,49.783,ALIC,Alice Lake Provincial Park,PP,604.986.9371,,,110,,NR,BC,5.8,N,Squamish
-115.547,50.123,ALIS,Alices Lake - Whiteswan Provincial Park,PP,250.422.3003,,,104,3971,NR,BC,,,
-120.336,51.223,ALLA,Allan Lake,SF,,,2wd OK,5,4100,NH ND PT NW NS NR N$,BC,8.4,SW,Darfield
-119.334,49.385,ALLE,Allendale Lake,SF,,,2wd OK,5,5100,NH ND PT NW NS NR N$,BC,11.5,W,Beaverdell
-120.603,49.683,ALLI,Allison Lake Provincial Park,PP,604.476.9069,,,24,,NR,BC,12.7,N,Coalmont
-121.81,49.078,ALLI,Allison Pool,SF,,,2wd OK-RV not recommended - res (604)858-0020,8,,NH ND PT NW NS RS L$,BC,7.2,S,Rosedale
-122.47,49.319,ALOU,Alouette - Golden Ears Provincial Park,PP,604.466.8325,,,205,,NR,BC,,,
-121.824,54.147,AMAN,Amanita Lake,SF,,,2wd OK-swimming,8,2300,NH ND PT NW NS NR N$,BC,5,NE,Upper Fraser
-115.998,49.044,AMER,America Creek,SF,,,2wd OK,5,3500,NH ND PT NW NS NR N$,BC,4.7,SE,Yahk
-122.505,58.55,ANDY,Andy Bailey Regional Park,CP,250.774.2541,,,,1574,NR,BC,,,
-121.552,49.997,APOC,Apocynum,SF,,,2wd OK-RVs can access,15,,NH ND PT NW NS NR L$,BC,16.4,S,Lytton
-125.588,50.08,APPL,Apple Point,SF,,,2wd OK-RVs can access,5,,NH ND PT NW NS NR N$,BC,16.5,W,Heriot Bay
-121.26,51.398,ARRO,Arrowhead - Green Lake Provincial Park,PP,250 397.2523,,,16,3541,NR,BC,8.8,NE,70 Mile House
-126.849,54.287,ASPE,Aspen,SF,,,2wd OK,8,2200,NH ND PT NW NS NR N$,BC,29.3,S,Telkwa
-125.918,52.411,ATNA,Atnarko - Tweedsmuir South Provincial Park,PP,250.397.2523,,,24,,NR,BC,,,
-125.615,54.446,AUGI,Augier Lake,SF,,,2wd OK-swimming,10,2900,NH ND PT NW NS NR N$,BC,15.9,N,Burns Lake
-120.134,51.039,BADG,Badger Lake,SF,,,2wd OK,18,3600,NH ND PT NW NS NR N$,BC,13.6,NE,Heffley Creek
-118.794,50.571,BAIR,Baird Lake,SF,,,2wd OK-RVs can access,8,2700,NH ND PT NW NS NR N$,BC,15.2,E,Enderby
-123.528,48.605,BAMB,Bamberton Provincial Park,PP,250.474.1336,,,53,,RS,BC,3.4,SE,Mill Bay
-121.509,53.09,BARK,Barkerville Historic Town Park,CP,250.994.3297,,,,4017,NR,BC,2.7,E,Wells
-123.41,53.486,BART,Barton Lake,SF,,,2wd OK,8,2600,NH ND PT NW NS NR N$,BC,,,
-123.967,53.357,BATN,Batnuni Lake E.,SF,,,2wd OK,5,2900,NH ND PT NW NS NR N$,BC,,,
-121.763,49.468,BEAR,Bear Creek,SF,,,2wd OK,40,,NH ND PT NW NS NR L$,BC,11.6,N,Harrison Hot Springs
-119.513,49.927,BEAR,Bear Creek Provincial Park,PP,250.548.0076,,,122,,RS,BC,35.4,SE,Douglas Lake
-120.952,56.334,BEAT,Beatton Provincial Park,PP,250.964.2243,,,37,2379,RS,BC,3.7,N,Charlie Lake
-124.614,54.062,BEAU,Beaumont Provincial Park,PP,250.964.3489,,,49,2230,RS,BC,2.5,W,Fort Fraser
-117.606,49.063,BEAV,Beaver Creek Provincial Park,PP,250.367.9165,,,19,,NR,BC,5.3,SE,Trail
-117.458,50.182,BEAL,Beaver Lake,SF,,,2wd OK,8,2900,NH ND PT NW NS NR N$,BC,13.7,N,New Denver
-123.174,58.978,BEAL,Beaver Lake,SF,,,2wd OK,5,1800,NH ND PT NW NS NR N$,BC,,,
-120.022,53.258,BEAR,Beaver River,SF,,,2wd OK,10,2400,NH ND PT NW NS NR N$,BC,,,
-122.368,50.998,BEAC,Beaverdam Creek,SF,,,2wd OK-RVs can access,5,3500,NH ND PT NW NS NR N$,BC,25,W,Pavilion
-121.611,51.28,BEAD,Beaverdam Lake,SF,,,2wd OK-RVs can access,8,3700,NH ND PT NW NS NR N$,BC,9.4,W,70 Mile House
-119.155,50.262,BECK,Becker Lake,SF,,,2wd OK,8,4000,NH ND PT NW NS NR N$,BC,,,
-121.684,49.364,BENC,Bench - Sasquatch Provincial Park,PP,604.986.9371,,,64,,NR,BC,6.3,NE,Harrison Hot Springs
-121.823,51.309,BIGB,Big Bar Lake Provincial Park,PP,250.397.2523,,,46,3706,RS,BC,18.2,NW,Clinton
-123.734,51.52,BIGL,Big Lake,SF,,,2wd OK,5,4300,NH ND PT NW NS NR L$,BC,,,
-121.119,50.484,BIGO,Big Ok - Island Lake,SF,,,2wd OK,,4900,NH ND PT NW NS NR N$,BC,11.6,NE,Spences Bridge
-125.546,53.897,BINN,Binta Lake N.,SF,,,,10,2700,NH ND PT NW NS NR N$,BC,,,
-125.431,53.855,BINS,Binta Lake S.,SF,,,2wd OK,8,2700,NH ND PT NW NS NR N$,BC,,,
-122.662,50.564,BIRK,Birkenhead Lake Provincial Park,PP,604.986.9371,,,79,2149,RS,BC,8.1,W,Darcy
-118.086,50.834,BLAN,Blanket Creek Provincial Park,PP,250 837.5734,,,63,,RS,BC,,,
-123.874,53.354,BOAT,Boat Lake W.,SF,,,2wd OK,5,2800,NH ND PT NW NS NR N$,BC,,,
-124.297,49.606,BOBS,Bobs Lake - Texada Island,SF,,,2wd OK-Take car/pass ferry from Powell River,10,2100,NH ND PT NW NS NR N$,BC,9.9,SE,Gillies Bay
-123.485,53.614,BOBT,Bobtail Lake,SF,,,2wd OK,18,2700,NH ND PT NW NS NR N$,BC,,,
-125.709,54.242,BOER,Boer Mountain,SF,,,2wd OK,13,2800,NH ND PT NW NS NR N$,BC,2.3,E,Burns Lake
-119.494,50.532,BOLE,Bolean Lake,SF,,,2wd OK-RVs can access,5,4800,NH ND PT NW NS NR N$,BC,,,
-126.743,50.34,BONA,Bonanza S,SF,,,2wd OK,13,,NH ND PT NW NS NR N$,BC,,,
-121.669,52.558,BOOT,Bootjack Lake,SF,,,2wd OK-RVs can access,10,3200,NH ND PT NW NS NR N$,BC,,,
-125.089,53.936,BORE,Borel Lake,SF,,,2wd OK,5,3000,NH ND PT NW NS NR N$,BC,10.8,S,Endako
-120.741,49.875,BOSS,Boss Lake,SF,,,2wd OK-RVs can access,25,3400,NH ND PT NW NS NR L$,BC,23.2,SW,Quilchena
-118.696,49.059,BOUN,Boundary Creek Provincial Park,PP,250.548.0076,,,18,2347,NR,BC,2.2,S,Greenwood
-122.284,54.261,BOU1,Boundary Lake,SF,,,2wd OK,5,2600,NH ND PT NW NS NR N$,BC,,,
-116.889,49.009,BOU2,Boundary Lake,SF,,,2wd OK,,4200,NH ND PT NW NS NR N$,BC,18,W,Creston
-121.408,53.258,BOWR,Bowron Lake Provincial Park,PP,778.373.6107,,,25,2985,NR,BC,,,
-129.143,59.383,BOYA,Boya Lake Provincial Park,PP,250.638.8490,,,44,2498,NR,BC,,,
-120.043,49.883,BREN,Brenda Lake,SF,,,2wd OK,5,5600,NH ND PT NW NS NR N$,BC,21.1,S,Douglas Lake
-119.607,51.169,BREC,Brennan Creek,SF,,,2wd OK,13,,NH ND PT NW NS NR L$,BC,,,
-125.577,50.088,BREW,Brewster Lake,SF,,,2wd OK-RVs can access - swimming,20,,NH ND PT NW NS NR L$,BC,16,W,Heriot Bay
-120.698,51.483,BRID,Bridge Lake Provincial Park,PP,250.397.2523,,,13,3756,NR,BC,1.4,E,Bridge Lake
-122.047,51.622,BRIG,Brigham Springs,SF,,,2wd OK-RVs can access,5,2800,NH ND PT NW NS NR N$,BC,27.9,SW,Lac La Hache
-120.262,49.415,BROM,Bromley Rock Provincial Park,PP,604.795.6161,,,17,,NR,BC,27.8,NW,Cawston
-119.182,49.818,BROW,Browne Lake,SF,,,2wd OK,5,4300,NH ND PT NW NS NR N$,BC,14.8,E,Kelowna
-119.684,50.96,BRUS,Brush Creek - Adams Lake Provincial Park,PP,250.955.0861,,,27,,NR,BC,,,
-120.441,49.827,BUCK,Buck Lake,SF,,,2wd OK,10,4400,NH ND PT NW NS NR N$,BC,,,
-122.845,57.387,BUCK,Buckinghorse River Wayside,PP,250 773.6468,,,33,3314,NR,BC,,,
-126.843,54.6,BULK,Bulkley River,SF,,,2wd OK,10,1900,NH ND PT NW NS NR N$,BC,10.5,SE,Telkwa
-123.394,52.089,BULL,Bull Canyon Provincial Park,PP,250.397.2523,,,20,2433,NR,BC,4.9,W,Alexis Creek
-123.548,55.519,BURD,Burden Lake,SF,,,,13,2500,NH ND PT NW NS NR N$,BC,,,
-125.468,50.036,BURB,Burnt Beach,SF,,,2wd OK-small RVs can access,5,,NH ND PT NW NS NR N$,BC,,,
-125.632,49.837,BUTT,Buttle Lake - Strathcona Provincial Park,PP,250.474.1336,,,85,,NR,BC,,,
-123.101,50.064,CALC,Cal-Cheak,SF,,,2wd OK,50,1700,NH ND PT NW NS NR L$,BC,7.3,SW,Whistler
-125.591,50.08,CAM5,Camp 5,SF,,,2wd OK-RVs can access,5,,NH ND PT NW NS NR N$,BC,,,
-125.53,50.017,CAML,Campbell Lake,SF,,,2wd OK,,,NH ND PT NW NS NR L$,BC,,,
-124.862,54.523,CAMS,Camsell Lake,SF,,,2wd OK,5,3100,NH ND PT NW NS NR N$,BC,,,
-119.024,52.679,CANO,Canoe Reach Marina,SF,,,2wd OK-RVs can access,18,2500,NH ND PT NW NS NR L$,BC,,,
-118.286,51.302,CARN,Carnes Creek,SF,,,2wd OK-RVs can access,33,1900,NH ND PT NW NS NR L$,BC,,,
-122.468,50.861,CARO,Carol Lake,SF,,,2wd OK-small RVs can access,8,3100,NH ND PT NW NS NR N$,BC,28.2,W,Pavilion
-123.352,54.825,CARP,Carp Lake Provincial Park,PP,250.964.3489,,,102,2851,NR,BC,,,
-116.431,50.813,CART,Cartwright Lake,SF,,,2wd OK-swimming - trucks on road,18,3800,NH ND PT NW NS NR N$,BC,,,
-121.777,49.441,CASC,Cascade Peninsula,SF,,,,25,,NH ND PT NW NS NR L$,BC,9.7,N,Harrison Hot Springs
-116.985,51.263,CEDA,Cedar Lake,SF,,,2wd OK - swimming,8,3400,NH ND PT NW NS NR L$,BC,2.4,S,Golden
-121.536,52.577,CEDA,Cedar Point Provincial Park,PP,,,,40,2441,NR,BC,,,
-120.281,49.696,CHAI,Chain Lake W.,SF,,,2wd OK-RVs can access,30,3300,NH ND PT NW NS NR L$,BC,27.7,W,Summerland
-117.611,49.187,CHAM,Champion Lakes Provincial Park,PP,250.825.4212,,,95,3530,RS,BC,4.1,SE,Genelle
-116.59,51.239,CHAN,Chancellor Peak - Yoho National Park,CNP,250.343.6783,,,59,3738,VT NR,BC,11.7,SW,Field
-126.674,54.913,CHAP,Chapman Lake,SF,,,2wd OK-RVs can access,5,2600,NH ND PT NW NS NR N$,BC,,,
-121.002,56.306,CHAR,Charlie Lake Provincial Park,PP,250.964.2243,,,58,2621,RS,BC,2.3,NW,Charlie Lake
-125.237,52.153,CHAR,Charlotte Lake,SF,,,2wd OK,10,3900,NH ND PT NW NS NR N$,BC,23.8,NW,Kleena Kleene
-123.883,51.588,CHAU,Chaunigan Lake,SF,,,2wd OK,5,4900,NH ND PT NW NS NR N$,BC,,,
-121.942,49.291,CHEH,Chehalis River,SF,,,2wd OK-RVs can access - res (604)796-0102,55,,NH ND PT NW NS RS L$,BC,3.4,N,Harrison Mills
-115.542,49.181,CHER,Cherry Lake,SF,,,2wd OK,10,4000,NH ND PT NW NS NR N$,BC,17.2,S,Wardner
-118.602,50.272,CHEV,Cherryville,SF,,,2wd OK - RVs can access,5,1700,NH ND PT NW NS NR N$,BC,2.2,NE,Cherryville
-124.957,53.642,CHES,Cheslatta River,SF,,,2wd OK,8,2600,NH ND PT NW NS NR N$,BC,,,
-121.455,49.091,CHIL,Chilliwack Lake Provincial Park,PP,604.986.9371,,,146,2150,NR,BC,17,E,Rosedale
-121.876,49.077,CHI2,Chilliwack River Provincial Park 1,PP,,,,,,NR,BC,7.9,SW,Rosedale
-121.917,49.079,CHI3,Chilliwack River Provincial Park 2,PP,,,,,,NR,BC,5.7,S,Chilliwack
-121.842,49.072,CHI4,Chilliwack River Provincial Park 3,PP,,,,,,NR,BC,7.8,S,Rosedale
-121.952,51.919,CHIM,Chimney Lake,SF,,,2wd OK,10,2900,NH ND PT NW NS NR L$,BC,21.8,W,Lac La Hache
-121.977,51.928,CHIN,Chimney Lake N.,SF,,,2wd OK-RVs can access - swimming,25,2900,NH ND PT NW NS NR L$,BC,23,W,Lac La Hache
-124.074,48.434,CHIN,China Beach - Juan de Fuca Provincial Park,PP,250.474.1336,,,75,,NR,BC,,,
-121.653,49.101,CHIP,Chipmunk Peninsula,SF,,,2wd OK-res (604) 858-0020,20,,NH ND PT NW NS RS L$,BC,14,E,Chilliwack
-122.569,53.282,CHUB,Chubb Lake,SF,,,2wd OK-swimming,10,2400,NH ND PT NW NS NR N$,BC,,,
-124.348,55.169,CHUC,Chuchi Lake Point,SF,,,2wd OK,15,3000,NH ND PT NW NS NR N$,BC,,,
-124.48,53.353,CHUT,Chutanli Lake,SF,,,2wd OK,13,3500,NH ND PT NW NS NR N$,BC,,,
-119.533,49.689,CHUL,Chute Lake,SF,,,2wd OK,5,3900,NH ND PT NW NS NR N$,BC,7,NE,Naramata
-122.105,50.613,CINN,Cinnamon,SF,,,2wd OK-RVs can access,10,2100,NH ND PT NW NS NR N$,BC,16.9,E,Darcy
-121.986,49.042,CLEC,Clear Creek  - Cultus Lake Provincial Park,PP,604.986.9371,,,,,RS,BC,1.8,S,Cultus Lake
-120.191,52.139,CLEA,Clearwater Falls Creek  - Wells Gray Provincial Park,PP,250.674.2194,,,80,2254,NR,BC,,,
-123.567,53.961,COBB,Cobb Lake,SF,,,2wd OK,8,2600,NH ND PT NW NS NR N$,BC,18.3,E,Vanderhoof
-124.428,51.773,COCH,Cochin Lake,SF,,,2wd OK,5,3400,NH ND PT NW NS NR N$,BC,,,
-121.767,49.52,COGB,Cogburn Beach,SF,,,2wd OK-swimming,25,,NH ND PT NW NS NR L$,BC,15.2,N,Harrison Hot Springs
-120.805,49.074,COLD,Cold Spring - Manning Provincial Park,PP,604.795.6161,,,64,4013,NR,BC,1.2,NW,Manning Park
-120.405,51.725,COLN,Coldscaur Lake N.,SF,,,2wd OK-RVs can access,13,3700,NH ND PT NW NS NR N$,BC,,,
-120.377,51.714,COLS,Coldscaur Lake S,SF,,,2wd OK,5,3700,NH ND PT NW NS NR N$,BC,,,
-118.843,50.602,COOK,Cooke Creek,SF,,,2wd OK-swimming,8,,NH ND PT NW NS NR L$,BC,13.5,E,Enderby
-120.557,49.191,COPP,Copper Creek,SF,,,2wd OK-RVs can access,5,3100,NH ND PT NW NS NR L$,BC,13.4,NE,Manning Park
-126.457,49.723,COUG,Cougar Creek,SF,,,2wd OK,55,,NH ND PT NW NS NR L$,BC,,,
-120.072,49.811,CRES,Crescent Lake,SF,,,2wd OK,5,4500,NH ND PT NW NS NR N$,BC,31.1,NE,Princeton
-120.731,52.282,CROO,Crooked Lake N.,SF,,,2wd OK-RVs can access,5,3100,NH ND PT NW NS NR N$,BC,29.2,E,Horsefly
-122.674,54.473,CROO,Crooked River Provincial Park,PP,250.964.3489,,,65,2352,RS,BC,,,
-120.758,51.458,CRYS,Crystal Lake,SF,,,2wd OK-RVs can access,13,3800,NH ND PT NW NS NR N$,BC,2,SW,Bridge Lake
-123.356,55.536,CUTT,Cut Thumb Bay,SF,,,2wd OK,5,2200,NH ND PT NW NS NR N$,BC,,,
-124.806,53.704,CUTO,Cutoff Creek,SF,,,2wd OK,5,2300,NH ND PT NW NS NR N$,BC,26.8,SW,Fort Fraser
-119.268,50.144,DAME,Damer Lake,SF,,,2wd OK,5,4300,NH ND PT NW NS NR N$,BC,,,
-119.867,49.712,DARK,Darke Lake Provincial Park,PP,,,,,,NR,BC,,,
-122.733,54.515,DAVS,Davie Lake S.,SF,,,2wd OK-swimming,13,2300,NH ND PT NW NS NR N$,BC,,,
-116.955,50.143,DAVI,Davis Creek - Kootenay Lake Provincial Park,PP,250.825.4212,,,,1879,NR,BC,2,SW,Argenta
-120.729,49.863,DAVI,Davis Lake,SF,,,2wd OK-RVs can access,50,3400,NH ND PT NW NS NR L$,BC,23.8,SW,Quilchena
-120.387,51.538,DEER,Deer Lake,SF,,,2wd OK,5,4500,NH ND PT NW NS NR N$,BC,11.1,NW,Little Fort
-121.684,49.368,DEER,Deer Lake - Sasquatch Provincial Park,PP,604.986.9371,,,30,,NR,BC,6.5,NE,Harrison Hot Springs
-121.986,49.042,DELT,Delta Bay - Cultus Lake Provincial Park,PP,604.986.9371,,,,,RS,BC,1.8,S,Cultus Lake
-122.614,49.208,DERB,Derby Reach Regional Park,CP,604.530.4983,mid mar-mid oct,tents,40,,NH,BC,,,Fort Langley
-120.424,49.46,DEWD,Dewdney,SF,,,2wd OK-RVs can access,5,2000,NH ND PT NW NS NR N$,BC,3.7,E,Princeton
-123.3,55.532,DINA,Dina - Heather Dina Lakes Provincial Park,PP,250.614.9918,,,5,2379,NR,BC,,,
-124.728,49.958,DINN,Dinner Rock,SF,,,2wd OK,13,,NH ND PT NW NS NR N$,BC,12.4,NW,Powell River
-124.317,49.945,DODD,Dodd Lake,SF,,,2wd OK-small RVs can access,13,,NH ND PT NW NS NR N$,BC,,,
-116.014,50.814,DOLL,Dolly Varden - Kootenay National Park,CNP,250.347.9505,,,7,3809,NH VT NR,BC,9.4,NE,Edgewater
-124.458,54.821,DOLP,Dolphin Lake,SF,,,2wd OK,5,3300,NH ND PT NW NS NR N$,BC,,,
-126.553,54.955,DORI,Doris Lake,SF,,,2wd OK-RV not recommended - swimming,8,2900,NH ND PT NW NS NR N$,BC,,,
-115.24,49.145,DORR,Dorr Road,SF,,,2wd OK,60,2700,NH ND PT NW NS NR L$,BC,7.7,NW,Grasmere
-121.782,51.008,DOWN,Downing Provincial Park,PP,250.397.2523,,walk to sites only,18,3569,NR,BC,10.2,SW,Clinton
-120.911,51.699,DREW,Drewry Lake W.,SF,,,2wd OK-RV not recommended,5,3500,NH ND PT NW NS NR N$,BC,5.3,S,Canim Lake
-122.47,50.19,DRIF,Driftwood Bay,SF,,,,10,,NH ND PT NW NS NR L$,BC,39.4,W,Lytton
-116.038,50.587,DRYG,Dry Gulch Provincial Park,PP,301.695.2625,,,26,3024,NR,BC,2.8,SE,Radium Hot Springs
-120.707,50.656,DUFF,Duffy Lake,SF,,,2wd OK-RVs can access,50,3900,NH ND PT NW NS NR L$,BC,9,SE,Savona
-121.911,52.165,DUGA,Dugan Lake,SF,,,2wd OK-RVs can access,23,3100,NH ND PT NW NS NR N$,BC,4.3,N,150 Mile House
-122.801,57.174,DUHU,Duhu Lake,SF,,,2wd OK,5,4000,NH ND PT NW NS NR N$,BC,,,
-120.143,51.456,DUNN,Dunn Lake N.,SF,,,2wd OK-RVs can access,5,,NH ND PT NW NS NR N$,BC,3.5,NE,Little Fort
-125.808,54.215,EAGL,Eagle Creek-Opal Beds Trail,SF,,,2wd OK,8,2600,NH ND PT NW NS NR N$,BC,,,
-119.853,51.255,EAST,East Barriere Lake,SF,,,2wd OK-RVs can access - swimming,15,2100,NH ND PT NW NS NR L$,BC,,,
-115.103,49.099,EDWA,Edwards Lake,SF,,,2wd OK,5,2600,NH ND PT NW NS NR N$,BC,0.9,W,Grasmere
-120.851,52.234,ELBO,Elbow Lake,SF,,,2wd OK-RVs can access,8,3100,NH ND PT NW NS NR N$,BC,24.9,E,Horsefly
-125.427,50.275,ELKB,Elk Bay,SF,,,2wd OK,10,,NH ND PT NW NS NR N$,BC,,,
-125.928,50.312,ELKC,Elk Creek,SF,,,2wd OK,8,,NH ND PT NW NS NR L$,BC,,,
-119.441,50.174,ELLI,Ellison Provincial Park,PP,250.545.9943,,,71,,RS,BC,9.8,SW,Vernon
-121.161,51.443,EMER,Emerald Bay - Green Lake Provincial Park,PP,250 397.2523,,,51,3581,NR,BC,,,
-121.419,49.512,EMOR,Emory Creek Provincial Park,PP,604 863.2443,,,34,,NR,BC,9.1,N,Hope
-115.255,49.165,ENGL,Englishman Creek,SF,,,2wd OK-RVs can access,40,2500,NH ND PT NW NS NR L$,BC,9,NW,Grasmere
-124.357,49.251,ENGL,Englishman River Falls Provincial Park,PP,250.474.1336,,,105,,RS,BC,2.6,S,Errington
-121.97,49.057,ENTR,Entrance Bay - Cultus Lake Provincial Park,PP,604.986.9371,,,,,RS,BC,0.8,SE,Cultus Lake
-117.547,51.7,ESPL,Esplanade Bay,SF,,,2wd OK-RVs can access,15,2500,NH ND PT NW NS NR N$,BC,,,
-119.463,50.211,EVEL,Evely,SF,,,2wd OK,50,,NH ND PT NW NS NR L$,BC,9.3,SW,Vernon
-124.354,48.588,FAIR,Fairy Lake,SF,,,RVs can access,36,,NH ND PT NW NS NR L$,BC,,,
-121.989,51.938,FELK,Felker Lake,SF,,,2wd OK-RVs can access,10,2800,NH ND PT NW NS NR L$,BC,23.7,W,Lac La Hache
-124.757,49.542,FILL,Fillongley Provincial Park,PP,250.474.1336,,,10,,RS,BC,2.3,SE,Denman Island
-123.816,55.986,FINL,Finlay Bay,SF,,,2wd OK,20,2200,NH ND PT NW NS NR N$,BC,,,
-119.497,50.138,FINT,Fintry Provincial Park,PP,250.260.3590,,,100,,RS,BC,17.3,N,Kelowna
-121.567,50.002,FIRF,Fir Flat,SF,,,2wd OK-RVs can access,5,,NH ND PT NW NS NR L$,BC,16,S,Lytton
-122.859,52.262,FIRL,Fir Lake,SF,,,2wd OK-RVs can access,13,3900,NH ND PT NW NS NR N$,BC,21.6,NE,Alexis Creek
-124.9,53.598,FISH,Fish Lake S,SF,,,2wd OK,5,2900,NH ND PT NW NS NR N$,BC,,,
-126.065,52.37,FISH,Fisheries Pool - Tweedsmuir South Provincial Park,PP,250.397.2523,,,12,,NR,BC,,,
-123.785,52.947,FISP,Fishpot Lake S,SF,,,2wd OK,5,3300,NH ND PT NW NS NR N$,BC,,,
-120.212,51.125,FISC,Fishtrap Creek,SF,,,2wd OK-RVs can access,5,2000,NH ND PT NW NS NR N$,BC,,,
-120.748,54.927,FLAT,Flatbed Creek,SF,,,2wd OK-RVs can access,5,3200,NH ND PT NW NS NR N$,BC,16.8,SE,Tumbler Ridge
-123.062,51.768,FLET,Fletcher Lake,SF,,,2wd OK-RVs can access,5,3600,NH ND PT NW NS NR N$,BC,10.5,S,Hanceville
-120.458,55.188,FOOT,Foot Lake,SF,,,2wd OK,13,3300,NH ND PT NW NS NR N$,BC,29.5,SW,Tomslake
-122.048,52.298,FORE,Forest Lake,SF,,,2wd OK,10,3000,NH ND PT NW NS NR N$,BC,14.3,N,150 Mile House
-115.625,49.622,FORT,Fort Steele Provincial Historical Park,PP,,,,,,NR,BC,,,
-123.942,48.393,FREN,French Beach Provincial Park,PP,250.474.1336,,,70,,RS,BC,37.1,W,Juan De Fuca
-122.776,50.943,FRIB,Friburg,SF,,,2wd OK-RVs can access,5,3300,NH ND PT NW NS NR N$,BC,,,
-114.667,49.004,FROZ,Frozen Lake,SF,,,2wd OK,5,5000,NH ND PT NW NS NR N$,BC,20,E,Grasmere
-125.57,50.029,FRYP,Fry Peninsula,SF,,,2wd OK,8,,NH ND PT NW NS NR N$,BC,,,
-116.859,49.87,GARL,Garland Bay,SF,,,swimming,23,1800,NH ND PT NW NS NR L$,BC,7.4,N,Riondel
-123.07,55.23,GATA,Gataiga Lake,SF,,,2wd OK,5,2300,NH ND PT NW NS NR N$,BC,7.5,S,Mackenzie
-121.714,52.49,GAVI,Gavin Lake,SF,,,2wd OK-RVs can access,5,3200,NH ND PT NW NS NR N$,BC,7.6,NE,Big Lake Ranch
-127.614,50.745,GEOR,Georgie Lake,SF,,,2wd OK,10,,NH ND PT NW NS NR N$,BC,,,
-120.965,49.924,GILL,Gillis Lake W.,SF,,,2wd OK,5,3800,NH ND PT NW NS NR N$,BC,,,
-120.277,50.25,GLIN,Glimpse Lake N.,SF,,,2wd OK-RVs can access - drive slow thru community,18,3900,NH ND PT NW NS NR L$,BC,6.3,NW,Douglas Lake
-120.288,50.244,GLSW,Glimpse Lake SW.,SF,,,2wd OK,8,3900,NH ND PT NW NS NR L$,BC,10.3,NE,Quilchena
-122.459,49.326,GOLC,Gold Creek - Golden Ears Provincial Park,PP,604.466.8325,,,148,,NR,BC,,,
-115.235,49.068,GOLD,Gold Creek Bay,SF,,,2wd OK-RVs can access,23,2500,NH ND PT NW NS NR L$,BC,7.2,W,Grasmere
-116.949,51.298,GOLD,Golden Municipal Campground,CP,250.344.5412,all year,train noise,72,2600,WE DP FT DW SH PA,BC,,,Golden
-121.39,50.348,GOLP,Goldpan Provincial Park,PP,250.455.2708,,,14,,NR,BC,4.8,S,Spences Bridge
-123.55,48.459,GOLS,Goldstream Provincial Park,PP,250.474.1336,,campground fills up - get res.,175,,RS,BC,8.7,W,Victoria
-120.359,51.503,GOOL,Goose Lake,SF,,,2wd OK,5,4100,NH ND PT NW NS NR N$,BC,8.6,NW,Little Fort
-124.199,48.834,GORD,Gordon Bay Provincial Park,PP,250.474.1336,,,126,,NR,BC,1.8,NW,Honeymoon Bay
-125.501,50.045,GOSL,Gosling Lake,SF,,,2wd OK,5,,NH ND PT NW NS NR N$,BC,,,
-121.864,49.332,GRAC,Grace Lake,SF,,,2wd OK-res (604)796-0102,5,,NH ND PT NW NS RS L$,BC,7.8,NW,Agassiz
-120.678,49.504,GRAN,Granite Creek,SF,,,2wd OK-RVs can access,20,2400,NH ND PT NW NS NR L$,BC,0.7,SE,Coalmont
-124.796,54.512,GRAS,Grassham Lake,SF,,,2wd OK-RVs can access,5,3200,NH ND PT NW NS NR N$,BC,,,
-131.66,53.112,GRAY,Gray Bay,SF,,,2wd OK,23,,NH ND PT NW NS NR N$,BC,,,
-125.594,50.05,GRAY,Gray Lake,SF,,,2wd OK,8,,NH ND PT NW NS NR N$,BC,,,
-123.572,54.372,GREA,Great Beaver Lake,SF,,,2wd OK,15,2700,NH ND PT NW NS NR N$,BC,,,
-125.722,49.056,GREE,Green Point  - Pacific Rim National Park,CNP,250.726.3500,,,94,,FT RS,BC,,,
-121.349,51.854,GREE,Greeny Lake N.,SF,,,2wd OK-RVs can access,18,3100,NH ND PT NW NS NR L$,BC,6,NE,Lac La Hache
-123.641,53.615,GRI2,Grizzly Lake,SF,,,2wd OK,,3300,NH ND PT NW NS NR N$,BC,,,
-122.773,50.894,GUNC,Gun Creek,SF,,,2wd OK-RVs can access - swimming,15,2200,NH ND PT NW NS NR N$,BC,,,
-122.247,56.5,HALF,Halfway/Graham,SF,,,2wd OK,13,2200,NH ND PT NW NS NR N$,BC,23,SW,Wonowon
-124.776,53.825,HALL,Hallett Lake,SF,,,2wd OK,10,2600,NH ND PT NW NS NR N$,BC,18.7,SW,Fort Fraser
-120.707,51.245,HAMM,Hammer Lake N.,SF,,,2wd OK-RVs can access,10,4200,NH ND PT NW NS NR N$,BC,16.4,S,Bridge Lake
-120.733,49.059,HAMP,Hampton - Manning Provincial Park,PP,604.795.6161,,,95,3779,NR,BC,2.2,E,Manning Park
-120.7,49.973,HARM,Harmon Lake E.,SF,,,2wd OK-RVs can access,32,3700,NH ND PT NW NS NR L$,BC,16.5,SW,Quilchena
-120.707,49.969,HARM,Harmon Lake W.,SF,,,2wd OK-RVs can access,13,3700,NH ND PT NW NS NR L$,BC,17,SW,Quilchena
-128.788,54.722,HART,Hart Farm,SF,,,2wd OK,18,,NH ND PT NW NS NR N$,BC,,,
-120.044,49.987,HATH,Hathueme Lake S.,SF,,,,13,4600,NH ND PT NW NS NR N$,BC,14.6,SE,Douglas Lake
-119.446,49.018,HAYN,Haynes Point Provincial Park,PP,250.548.0076,,,41,,RS,BC,1.4,SE,Osoyoos
-120.012,49.816,HEAD,Headwater Lakes 3,SF,,,2wd OK,8,4200,NH ND PT NW NS NR N$,BC,33.1,NE,Princeton
-123.244,55.495,HEAT,Heather - Heather Dina Lakes Provincial Park,PP,250.614.9918,,,5,2343,NR,BC,,,
-120.037,50.838,HEFF,Heffley Lake NE.,SF,,,2wd OK-RVs can access,20,3100,NH ND PT NW NS NR L$,BC,10.1,E,Heffley Creek
-121.629,51.787,HELE,Helena Lake,SF,,,2wd OK-RVs can access,15,3100,NH ND PT NW NS NR L$,BC,17.4,NW,100 Mile House
-120.655,50.316,HELM,Helmer Lake,SF,,,2wd OK-RVs can access,8,4400,NH ND PT NW NS NR N$,BC,,,
-120.963,52.473,HENI,Hen Ingram Lake,SF,,,2wd OK-RVs can access,10,3000,NH ND PT NW NS NR N$,BC,,,
-119.204,50.787,HERA,Herald Provincial Park,PP,250 546.3790,,,119,,RS,BC,2.7,N,Canoe
-121.709,49.347,HICK,Hicks Lake - Sasquatch Provincial Park,PP,604.986.9371,,,71,,NR,BC,4.7,NE,Harrison Hot Springs
-121.085,51.048,HIHI,Hihium Lake S.,SF,,,2wd OK-RVs can access,20,4500,NH ND PT NW NS NR N$,BC,42.1,S,100 Mile House
-123.833,53.849,HOGS,Hogsback Lake,SF,,,2wd OK-swimming,10,2700,NH ND PT NW NS NR N$,BC,13.5,SE,Vanderhoof
-115.474,50.153,HOME,Home Basin - Whiteswan Provincial Park,PP,250.422.3003,,,104,3781,NR,BC,,,
-119.513,51.264,HONE,Honeymoon Bay,SF,,,2wd OK,13,,NH ND PT NW NS NR L$,BC,,,
-116.563,51.225,HOOD,Hoodoo Creek - Yoho National Park,CNP,250.343.6783,,,30,3729,VT NR,BC,12.3,S,Field
-124.71,51.79,HORN,Horn Lake,SF,,,2wd OK-RVs can access,15,3100,NH ND PT NW NS NR L$,BC,10.9,S,Kleena Kleene
-119.035,52.686,HORC,Horse Creek Rec. Site,SF,,,2wd OK,23,2500,NH ND PT NW NS NR L$,BC,,,
-121.29,52.385,HORS,Horsefly Lake Provincial Park,PP,250.397.2523,,,23,2618,NR,BC,6.5,NE,Horsefly
-121.056,52.293,HORF,Horsefly River,SF,,,2wd OK-RVs can access,5,2800,NH ND PT NW NS NR N$,BC,15.5,E,Horsefly
-120.012,49.155,HORS,Horseshoe Canyon,SF,,,2wd OK,5,2200,NH ND PT NW NS NR L$,BC,8.9,W,Keremeos
-122.125,52.384,HOWE,Howes Lake,SF,,,2wd OK-RVs can access,8,3300,NH ND PT NW NS NR N$,BC,21.1,NW,150 Mile House
-116.945,50.302,HOWS,Howser Park,SF,,,2wd OK,5,2000,NH ND PT NW NS NR N$,BC,,,
-119.173,49.777,HYDR,Hydraulic Lake,SF,,,2wd OK-RVs can access,18,4100,NH ND PT NW NS NR L$,BC,22.7,NE,Naramata
-126.811,50.458,IDAL,Ida Lake,SF,,,2wd OK,8,,NH ND PT NW NS NR N$,BC,,,
-119.299,49.51,IDLE,Idleback Lake,SF,,,2wd OK-RVs can access,13,4700,NH ND PT NW NS NR N$,BC,10.8,NW,Beaverdell
-117.489,51.271,ILLE,Illecillewaet  - Glacier National Park,CNP,250.837.7500,,,60,5453,NH FT DW NR,BC,,,
-121.636,56.618,INGA,Inga Lake,SF,,,2wd OK-RVs can access,18,2700,NH ND PT NW NS NR N$,BC,10.2,SE,Wonowon
-119.543,49.226,INKA,Inkaneep Provincial Park,PP,250.548.0076,,,7,,NR,BC,3.1,N,Oliver
-122.006,49.027,INTE,International Ridge Provincial Park,PP,,,,,,NR,BC,0.7,SE,Lindell Beach
-124.661,54.979,INZA,Inzana Lake,SF,,,2wd OK,5,2900,NH ND PT NW NS NR N$,BC,,,
-119.976,49.545,ISIN,Isintok Lake,SF,,,2wd OK,5,5500,NH ND PT NW NS NR N$,BC,,,
-119.18,50.094,ISL1,Island Lake,SF,,,2wd OK,8,4400,NH ND PT NW NS NR N$,BC,20,NE,Kelowna
-120.286,49.925,ISL2,Island Lake,SF,,,2wd OK,8,4900,NH ND PT NW NS NR N$,BC,17,S,Douglas Lake
-123.375,48.573,ISLV,Island View Beach Regional Park,CP,250.478.3344,mid may-mid sep,swim - tents,45,,NH FT PA,BC,,,Saanich
-120.405,50.846,ISOB,Isobel Lake,SF,,,,20,3300,NH ND PT NW NS NR L$,BC,,,
-119.804,49.92,JACL,Jackpine Lake,SF,,,2wd OK,10,4300,NH ND PT NW NS NR L$,BC,,,
-122.07,52.435,JACH,Jacksons Hole,SF,,,2wd OK-RVs can access,8,3000,NH ND PT NW NS NR N$,BC,,,
-121.768,52.547,JACO,Jacobie Lake,SF,,,2wd OK-RVs can access,8,3700,NH ND PT NW NS NR N$,BC,,,
-121.119,52.47,JACQ,Jacques Lake,SF,,,2wd OK-RVs can access,8,2900,NH ND PT NW NS NR N$,BC,15.8,NE,Horsefly
-118.622,49.168,JEWE,Jewel Lake Provincial Park,PP,250.548.0076,,,26,3812,NR,BC,6.1,NE,Greenwood
-115.842,49.484,JIMS,Jimsmith Lake Provincial Park,PP,250.422.3003,,,28,,NR,BC,,,
-115.763,49.955,JOHN,Johnson Lake,SF,,,2wd OK-RVs use caution,5,2700,NH ND PT NW NS NR N$,BC,3.2,NW,Skookumchuck
-119.058,49.046,JOHN,Johnstone Creek Provincial Park,PP,250.548.0076,,,16,3002,NR,BC,4.3,E,Bridesville
-126.248,50.439,JUNC,Junction Pool,SF,,,2wd OK-swimming,8,,NH ND PT NW NS NR N$,BC,,,
-121.077,50.783,JUNI,Juniper Beach Provincial Park,PP,250.457.6794,,,30,,NR,BC,4.3,NW,Walhachin
-132.153,53.242,KAGA,Kagan Bay,SF,,,2wd OK,5,,NH ND PT NW NS NR N$,BC,,,
-125.704,54.239,KAGE,Kager Lake,SF,,,,13,2700,NH ND PT NW NS NR N$,BC,2.4,E,Burns Lake
-124.268,54.98,KALD,Kalder Lake,SF,,,2wd OK,5,3100,NH ND PT NW NS NR N$,BC,,,
-120.7,49.978,KANE,Kane Lake,SF,,,2wd OK-RVs can access,8,3700,NH ND PT NW NS NR L$,BC,16.2,SW,Quilchena
-119.338,50.184,KEKU,Kekuli Bay Provincial Park,PP,250.545.8467,,,70,,RS,BC,,,
-120.565,49.911,KENT,Kentucky Alleyne Provincial Park,PP,250.378.5334,,,58,,NR,BC,,,
-118.982,49.112,KETT,Kettle River Provincial Park Rec Area,PP,250.548.0076,,,87,2015,RS,BC,4,S,Westbridge
-127.767,55.205,KEYN,Keynton Lake,SF,,,2wd OK-swimming,8,,NH ND PT NW NS NR N$,BC,5.9,SW,Gitanmaax
-124.139,49.884,KHAR,Khartoum Lake,SF,,,2wd OK,10,,NH ND PT NW NS NR N$,BC,,,
-116.442,51.421,KICK,Kicking Horse - Yoho National Park,CNP,250.343.6783,,,88,4152,FT NR,BC,2.6,NE,Field
-115.24,49.254,KIKO,Kikomun Creek Provincial Park,PP,250.422.3003,,,105,,RS,BC,,,
-121.958,49.236,KILB,Kilby Provincial Park,PP,604.796.9576,,,22,,NR,BC,0.7,SW,Harrison Mills
-124.894,49.729,KIN,Kin Beach Provincial Park,PP,250.339.6365,,,18,,NR,BC,4.1,N,Comox
-130.222,57.503,KINA,Kinaskan Lake Provincial Park,PP,250.638.8490,,,50,2786,NR,BC,,,
-120.571,55.96,KISK,Kiskatinaw Provincial Park,PP,250.843.0074,,,28,1999,NR,BC,4.5,NW,Farmington
-124.997,49.789,KITT,Kitty Coleman Beach Provincial Park,PP,250.338.1332,,,65,,NR,BC,7.2,N,Courtenay
-128.401,54.595,KLEA,Kleanza Creek Provincial Park,PP,250.638.8490,,,32,,NR,BC,9.7,NE,Terrace
-123.967,49.728,KLEI,Klein Lake,SF,,,,23,,NH ND PT NW NS NR L$,BC,19.9,NW,Sechelt
-125.053,55.058,KLOC,Kloch Lake,SF,,,2wd OK,8,2800,NH ND PT NW NS NR N$,BC,,,
-124.939,53.575,KNEW,Knewstubb Lake,SF,,,2wd OK,8,2800,NH ND PT NW NS NR N$,BC,,,
-117.126,49.605,KOKA,Kokanee Creek Provincial Park,PP,250.825.4212,,,168,,RS,BC,10.8,NE,Nelson
-117.275,49.196,KPPK,KP Park Municipal Campground,CP,250.357.9433,,tents,7,2150,NH VT DW SH PA,BC,,,Salmo
-124.565,53.132,KUYA,Kuyakuz Lake,SF,,,2wd OK,8,3600,NH ND PT NW NS NR N$,BC,,,
-121.803,50.669,KWOT,Kwotlenemo Lake,SF,,,,23,3000,NH ND PT NW NS NR L$,BC,6,E,Lillooet
-121.639,51.86,LACH,Lac La Hache Provincial Park,PP,250.397.2523,,,83,2759,RS,BC,7.8,NW,Lac La Hache
-120.488,50.487,LACJ,Lac Le Jeune Provincial Park,PP,250.828.9533,,,144,4305,RS,BC,14.4,E,Logan Lake
-128.534,54.385,LAKL,Lakelse Lake Provincial Park,PP,250.638.8490,,,186,,RS,BC,9.6,S,Terrace
-124.076,48.819,LAKP,Lakeview Park,CP,250.749.3350,,,,,RS,BC,2.3,E,Mesachie Lake
-119.712,49.955,LAMB,Lambly Lake,SF,,,2wd OK-RVs can access,18,3800,NH ND PT NW NS NR L$,BC,26.8,SE,Douglas Lake
-115.795,49.954,LARC,Larchwood Lake,SF,,,,10,2800,NH ND PT NW NS NR N$,BC,3.9,NW,Skookumchuck
-120.68,53.523,LASA,Lasalle Lakes W.,SF,,,2wd OK-RVs can access,20,2800,NH ND PT NW NS NR N$,BC,,,
-118.915,49.593,LASS,Lassie Lake,SF,,,2wd OK,8,4300,NH ND PT NW NS NR N$,BC,13.4,NE,Beaverdell
-120.338,51.495,LATR,Latremouille Lake,SF,,,2wd OK-RVs can access,10,4000,NH ND PT NW NS NR N$,BC,7.5,NW,Little Fort
-124.344,53.488,LAVO,Lavoie Lake,SF,,,2wd OK,5,3300,NH ND PT NW NS NR N$,BC,40.6,S,Fort Fraser
-115.625,49.826,LAZY,Lazy Lake,SF,,,2wd OK-RVs can access,13,3000,NH ND PT NW NS NR L$,BC,,,
-126.626,49.916,LEIN,Leiner River,SF,,,2wd OK-swimming,8,,NH ND PT NW NS NR N$,BC,1.6,SE,Tahsis
-126.097,59.422,LIAR,Liard River Hot Springs Provincial Park,PP,250.776.7000,,,53,1534,RS,BC,,,
-122.078,53.018,LIGH,Lightning Creek,SF,,,2wd OK,8,2700,NH ND PT NW NS NR N$,BC,,,
-120.844,49.062,LIGH,Lightning Lake - Manning Provincial Park,PP,604.795.6161,,,,4161,RS,BC,2.8,W,Manning Park
-116.098,50.503,LILL,Lillian Lake,SF,,,2wd OK,5,3100,NH ND PT NW NS NR N$,BC,,,
-120.233,49.708,LINK,Link Lake,SF,,,2wd OK,10,3600,NH ND PT NW NS NR L$,BC,25.8,W,Summerland
-123.601,53.457,LINT,Lintz Lake,SF,,,2wd OK,13,3100,NH ND PT NW NS NR N$,BC,,,
-125.518,50.338,LITT,Little Bear Bay,SF,,,2wd OK-RVs can access,10,,NH ND PT NW NS NR N$,BC,,,
-121.905,51.352,LITB,Little Big Bar Lake,SF,,,2wd OK-RVs can access,5,3500,NH ND PT NW NS NR N$,BC,22.2,W,70 Mile House
-124.548,49.313,LITT,Little Qualicum Falls Provincial Park,PP,250 474.1336,,,95,,RS,BC,,,
-117.687,49.648,LITS,Little Slocan,SF,,,2wd OK -,5,2100,NH ND PT NW NS NR N$,BC,,,
-124.224,48.605,LIZA,Lizard Lake,SF,,,RVs can access,27,,NH ND PT NW NS NR L$,BC,,,
-116.787,49.509,LOCK,Lockhart Beach Provincial Park,PP,250.422.3003,,,18,,NR,BC,8.4,S,Gray Creek
-120.521,50.517,LODG,Lodgepole Lake,SF,,,2wd OK,10,4600,NH ND PT NW NS NR N$,BC,13,E,Logan Lake
-121.64,50.011,LOGC,Log Creek,SF,,,2wd OK-RVs can access,5,,NH ND PT NW NS NR L$,BC,15.6,S,Lytton
-124.3,49.805,LOIS,Lois Lake,SF,,,2wd OK-RVs can access,15,,NH ND PT NW NS NR N$,BC,10.2,E,Powell River
-125.555,50.013,LONG,Long Point,SF,,,2wd OK,5,,NH ND PT NW NS NR N$,BC,,,
-125.551,50.027,LOON,Loon Bay,SF,,,2wd OK-RVs can access,8,,NH ND PT NW NS NR N$,BC,,,
-115.111,49.114,LOLA,Loon Lake,SF,,,2wd OK-RVs can access,40,2800,NH ND PT NW NS NR L$,BC,1.6,NW,Grasmere
-116.807,51.058,LOOL,Loon Lake,SF,,,2wd OK,5,4100,NH ND PT NW NS NR N$,BC,7.5,W,Parson
-117.535,51.258,LOOP,Loop Brook - Glacier National Park,CNP,250.837.7500,,,20,3919,NH FT DW NR,BC,,,
-120.61,51.743,LORI,Lorin Lake,SF,,,2wd OK-small RVs can access,10,4200,NH ND PT NW NS NR N$,BC,,,
-116.936,50.094,LOST,Lost Ledge - Kootenay Lake Provincial Park,PP,250.825.4212,,,,1909,NR,BC,20.6,E,New Denver
-125.449,50.051,LOVE,Loveland Bay Provincial Park,PP,250 474.1336,,,31,,RS,BC,,,
-126.445,50.177,LOWK,Lower Klaklakama,SF,,,2wd OK,5,,NH ND PT NW NS NR N$,BC,,,
-125.132,49.388,LOWR,Lowry Lake,SF,,,2wd OK-swimming,5,,NH ND PT NW NS NR N$,BC,,,
-118.577,52.849,LUCE,Lucerne - Mount Robson Provincial Park,PP,250.566.4811,,,36,3670,NR,BC,,,
-120.609,50.091,LUNE,Lundbom Lake E.,SF,,,2wd OK-RVs can access,25,3700,NH ND PT NW NS NR L$,BC,7.6,SW,Quilchena
-120.624,50.082,LUNW,Lundbom Lake W.,SF,,,2wd OK-RVs can access,25,3700,NH ND PT NW NS NR L$,BC,8.5,SW,Quilchena
-118.73,50.456,MABL,Mable Lake Provincial Park,PP,250.547.6862,,,81,,NR,BC,17.6,NE,Lumby
-125.77,58.981,MACD,MacDonald - Muncho Lake Provincial Park,PP,250.776.7000,,,15,2692,NR,BC,,,
-120.03,49.886,MACD,Macdonald Lake,SF,,,2wd OK,5,5700,NH ND PT NW NS NR N$,BC,,,
-119.63,49.231,MADD,Madden Lake,SF,,,2wd OK-rough access road,8,2800,NH ND PT NW NS NR N$,BC,6.5,NE,Cawston
-120.525,51.883,MAHO,Mahood Lake - Wells Gray Provincial Park,PP,250.674.2194,,,34,2079,NR,BC,,,
-122.006,49.033,MAPL,Maple Bay - Cultus Lake Provincial Park,PP,604.986.9371,,,,,RS,BC,13.8,SW,Rosedale
-124.286,48.895,MAPL,Maple Grove,SF,,,2wd OK-small RVs can access,60,,NH ND PT NW NS NR L$,BC,4.4,NW,Youbou
-116.114,51.187,MARK,Marble Canyon - Kootenay National Park,CNP,250.347.9505,,,61,4941,NH FT NR,BC,,,
-121.693,50.834,MARB,Marble Canyon Provincial Park,PP,250.378.5334,,,30,2702,NR,BC,6.6,SE,Pavilion
-127.434,50.528,MARB,Marble River,SF,,,2wd OK-RVs can access,32,,NH ND PT NW NS NR N$,BC,9.9,N,Port Alice
-120.64,50.08,MARQ,Marquart Lake,SF,,,2wd OK-RVs can access,13,3800,NH ND PT NW NS NR L$,BC,9.1,SW,Quilchena
-122.598,50.928,MARS,Marshall Lake N.,SF,,,2wd OK-small RVs can access - swimming,5,3800,NH ND PT NW NS NR N$,BC,,,
-118.199,51.149,MART,Martha Creek Provincial Park,PP,250 837.5734,,,25,1956,NR,BC,,,
-126.109,54.308,MAXA,Maxan Lake,SF,,,2wd OK-RVs can access,13,2600,NH ND PT NW NS NR N$,BC,,,
-119.169,49.764,MCCU,Mcculloch Reservoir,SF,,,2wd OK-RVs can access,13,4100,NH ND PT NW NS NR L$,BC,22.3,NE,Naramata
-123.425,48.675,MCDO,McDonald  - Gulf Island National Park,CNP,250.654.4000,,,,,RS,BC,4,N,North Saanich
-117.832,50.115,MCDC,McDonald Creek Provincial Park,PP,250.265.3592,,,46,1515,RS,BC,,,
-122.35,51.974,MCIN,Mcintyre Lake,SF,,,2wd OK-RVs can access,5,3000,NH ND PT NW NS NR N$,BC,7.7,E,Riske Creek
-115.945,50.766,MCLE,McLeod Meadows - Kootenay National Park,CNP,250.347.9505,,,98,3715,NH FT NR,BC,9.4,NE,Edgewater
-122.966,54.53,MERT,Merton Lake,SF,,,2wd OK,5,2700,NH ND PT NW NS NR N$,BC,,,
-129.295,56.089,MEZI,Meziadin Lake Provincial Park,PP,250.638.8490,,,66,,NR,BC,,,
-125.443,49.994,MILL,Miller Creek,SF,,,,25,,NH ND PT NW NS NR L$,BC,,,
-125.096,49.847,MIRA,Miracle Beach Provincial Park,PP,250.474.1336,,,200,,RS,BC,1.8,NE,Black Creek
-120.545,49.813,MISS,Missezula Lake N.,SF,,,2wd OK,10,3300,NH ND PT NW NS NR N$,BC,,,
-121.696,55.807,MOBE,Moberly Lake Provincial Park,PP,250.964.2243,,,109,2446,RS,BC,2.3,SE,Moberly Lake
-116.431,51.424,MONA,Monarch - Yoho National Park,CNP,250.343.6783,,,44,4231,VT NR,BC,3.1,NE,Field
-120.536,50.177,MONC,Monck Provincial Park,PP,250.315.0253,,,120,2143,RS,BC,2,W,Quilchena
-121.202,54.766,MONK,Monkman Provincial Park,PP,604.660.2421,,,20,2889,NR,BC,,,
-123.404,48.901,MONT,Montague Provincial Marine Park,PP,250.539.2115,,take ferry,25,,RS,BC,5.9,NW,Mayne Island
-130.067,57.986,MORC,Morchuea Lake,SF,,,2wd OK-large RVs can access,8,3100,NH ND PT NW NS NR N$,BC,,,
-132.025,53.053,MORE,Moresby Camp,SF,,,2wd OK,8,,NH ND PT NW NS NR N$,BC,,,
-125.483,50.124,MORT,Morton Lake Provincial Park,PP,250.474.1336,,,24,,RS,BC,11.9,W,Heriot Bay
-132.068,53.071,MOSQ,Mosquito Lake,SF,,,2wd OK,10,,NH ND PT NW NS NR N$,BC,,,
-115.101,49.488,MOUF,Mount Fernie Provincial Park,PP,250.422.3003,,,40,,RS,BC,2,SW,Fernie
-117.574,51.259,MOUS,Mount Sir Donald - Glacier National Park,CNP,250.837.7500,,,15,3544,NH NR,BC,,,
-122.751,50.908,MOWS,Mowson Pond,SF,,,2wd OK-RVs can access,5,2600,NH ND PT NW NS NR N$,BC,,,
-115.843,49.373,MOYI,Moyie Lake Provincial Park,PP,250.422.3003,,,111,,RS,BC,,,
-126.163,49.874,MUCH,Muchalat Lake,SF,,,2wd OK-swimming,40,,NH ND PT NW NS NR L$,BC,,,
-120.703,49.076,MULE,Mule Deer - Manning Provincial Park,PP,604.795.6161,,,,3687,NR,BC,3.6,E,Manning Park
-120.931,49.555,MURP,Murphy Lakes W.,SF,,,2wd OK,5,4000,NH ND PT NW NS NR N$,BC,,,
-121.005,49.802,MURR,Murray Lake N.,SF,,,2wd OK,13,3600,NH ND PT NW NS NR N$,BC,,,
-125.074,49.195,NAHR,Nahmint Lake Rec Site,SF,,,2wd OK,13,,NH ND PT NW NS NR N$,BC,,,
-127.866,50.705,NAHW,Nahwitti Lake,SF,,,2wd OK,8,,NH ND PT NW NS NR N$,BC,,,
-122.813,50.296,NAIR,Nairn Falls Provincial Park,PP,604.986.9371,,,94,,RS,BC,1.8,S,Pemberton
-117.941,49.261,NANC,Nancy Greene Provincial Park,PP,250 837.5734,,,10,,NR,BC,12.4,SW,Robson
-124.334,49.912,NANT,Nanton Lake,SF,,,2wd OK-small RVs can access,15,,NH ND PT NW NS NR N$,BC,,,
-118.996,50.135,NICK,Nicklen Lake,SF,,,2wd OK-RVs can access,5,4300,NH ND PT NW NS NR N$,BC,,,
-129.099,55.196,NISG,Nisgaa Memorial Lava Bed,PP,,,,16,,NR,BC,9.9,W,Nisgaa Provincial Park
-124.672,48.809,NITI,Nitinat Lake,SF,,,2wd OK -,50,,NH ND PT NW NS NR L$,BC,,,
-124.387,48.899,NIXO,Nixon Creek,SF,,,2wd OK-RVs can access,50,,NH ND PT NW NS NR L$,BC,8.8,W,Youbou
-121.047,50.16,NKWA,Nkwala,SF,,,2wd OK,20,1700,NH ND PT NW NS NR N$,BC,,,
-118.665,50.709,NOIS,Noisy Creek,SF,,,swimming,60,,NH ND PT NW NS NR L$,BC,15.5,E,Swansea Point
-126.408,53.985,NORA,Noralee E.,SF,,,2wd OK-RVs can access - swimming,5,2400,NH ND PT NW NS NR N$,BC,,,
-126.457,53.982,NORA,Noralee W.,SF,,,2wd OK-RVs can access,5,2400,NH ND PT NW NS NR N$,BC,,,
-115.483,49.538,NORL,Norbury Lake Provincial Park,PP,250.422.3003,,,46,,NR,BC,8.8,N,Wardner
-119.73,49.689,NORO,North - Okanagan Lake Provincial Park,PP,250.548.0076,,,80,,RS,BC,,,
-119.827,51.344,NORT,North Barriere Lake,SF,,,2wd OK-RVs can access,25,2100,NH ND PT NW NS NR L$,BC,,,
-122.457,49.333,NORB,North Beach - Golden Ears Provincial Park,PP,604.466.8325,,,55,,NR,BC,,,
-115.267,49.345,NORT,North Star Lake,SF,,,2wd OK-RVs can access,10,2800,NH ND PT NW NS NR L$,BC,2.7,SW,Galloway
-120.094,51.628,NORT,North Thompson River Provincial Park,PP,250.674.2194,,,61,,RS,BC,,,
-122.016,52.782,NYLA,Nyland Lake,SF,,,2wd OK,5,3300,NH ND PT NW NS NR N$,BC,,,
-119.581,49.341,OKAN,Okanagan Falls Provincial Park,PP,,,,,,NR,BC,13.4,NE,Cawston
-124.715,49.991,OKEO,Okeover Arm Provincial Park,PP,,,,14,,VT DW NR,BC,13.7,NW,Powell River
-120.178,49.382,OLHE,Old Hedley Road E.,SF,,,2wd OK-RVs can access - swimming,15,1800,NH ND PT NW NS NR L$,BC,27.3,SW,Summerland
-120.193,49.384,OLHW,Old Hedley Road W.,SF,,,2wd OK-RVs can access - swimming,10,1800,NH ND PT NW NS NR L$,BC,27.8,SW,Summerland
-120.28,55.309,ONEI,One Island Lake Provincial Park,PP,250.242.8054,,,30,2999,NR,BC,18.8,SW,Tomslake
-122.279,53.747,OPAT,Opatcho Lake,SF,,,2wd OK-rocky ground in campsites,5,2700,NH ND PT NW NS NR N$,BC,,,
-125.579,50.03,ORCH,Orchard Meadow,SF,,,2wd OK-RVs can access,15,,NH ND PT NW NS NR N$,BC,,,
-124.67,54.181,ORMO,Ormond Lake,SF,,,2wd OK,10,2800,NH ND PT NW NS NR N$,BC,9.5,NW,Fort Fraser
-120.204,49.715,OSPR,Osprey Lake N.,SF,,,2wd OK,10,3600,NH ND PT NW NS NR L$,BC,,,
-120.774,49.587,OTTE,Otter Lake Provincial Park,PP,604.795.6161,,,45,,RS,BC,,,
-126.76,54.115,OWEN,Owen Lake,SF,,,2wd OK-RVs can access - swimming,13,2500,NH ND PT NW NS NR N$,BC,41.7,S,Telkwa
-124.38,54.419,PAAR,Paarens Beach Provincial Park,PP,250.964.3489,,,36,2252,RS,BC,,,
-115.512,50.131,PACK,Packrat Point - Whiteswan Provincial Park,PP,250.422.3003,,,104,3798,NR,BC,,,
-115.572,50.532,PALL,Palliser-Albert,SF,,,2wd OK,5,3600,NH ND PT NW NS NR N$,BC,18.9,E,Windermere
-120.658,50.526,PASK,Paska Lake,SF,,,2wd OK-RVs can access,50,4800,NH ND PT NW NS NR L$,BC,7.3,E,Logan Lake
-120.477,50.839,PASS,Pass Lake,SF,,,2wd OK-RVs can access,13,3200,NH ND PT NW NS NR L$,BC,17.1,E,Savona
-126.251,54.764,PAUL,Paul Lake,SF,,,2wd OK,5,3000,NH ND PT NW NS NR N$,BC,,,
-120.109,50.75,PAUL,Paul Lake Provincial Park,PP,250.828.9533,,,90,2808,NR,BC,10.9,NE,Kamloops
-119.973,49.835,PEAC,Peachland Lake,SF,,,2wd OK,8,4200,NH ND PT NW NS NR N$,BC,,,
-123.637,53.323,PELI,Pelican Lake S,SF,,,2wd OK,10,2700,NH ND PT NW NS NR N$,BC,,,
-125.684,54.495,PEND,Pendleton Bay - Babine Lake Provincial Marine Park,PP,250 692.7724,,,16,2656,NR,BC,24.6,E,Topley
-120.316,50.3,PETE,Peterhope Lake N.,SF,,,2wd OK-large RVs can access - drive slow - trucks,27,3600,NH ND PT NW NS NR L$,BC,11.8,NE,Quilchena
-124.731,54.101,PETB,Petersons Beach,SF,,,2wd OK,40,2200,NH ND PT NW NS NR L$,BC,7.7,W,Fort Fraser
-123.787,55.073,PHIL,Philip Lakes,SF,,,2wd OK,5,3300,NH ND PT NW NS NR N$,BC,,,
-120.159,49.382,PICK,Pickard Creek,SF,,,2wd OK-swimming,15,1800,NH ND PT NW NS NR L$,BC,26.7,SW,Summerland
-124.262,48.888,PINE,Pine Point Site,SF,,,2wd OK-RVs can access - swimming,60,,NH ND PT NW NS NR L$,BC,3.2,NW,Youbou
-125.664,54.375,PINK,Pinkut Lake,SF,,,2wd OK-RVs can access,5,3100,NH ND PT NW NS NR N$,BC,10.6,N,Burns Lake
-125.449,52.609,POIS,Poison Lake,SF,,,2wd OK,5,3600,NH ND PT NW NS NR N$,BC,,,
-126.91,53.976,POPL,Poplar Lake,SF,,,2wd OK-swimming,10,2800,NH ND PT NW NS NR N$,BC,,,
-123.75,49.506,PORP,Porpoise Bay Provincial Park,PP,604.885.3714,,,84,,RS,BC,2.2,N,Sechelt
-123.233,49.56,PORT,Porteau Cove Provincial Park,PP,604.986.9371,,,44,,RS,BC,,,
-119.213,49.993,POST,Postill Lake,SF,,,2wd OK-RVs can access,5,4600,NH ND PT NW NS NR N$,BC,14.6,NE,Kelowna
-118.534,52.093,POTL,Potlatch Creek,SF,,,2wd OK-RVs can access,15,2500,NH ND PT NW NS NR N$,BC,,,
-120.986,52.422,PRAI,Prairie Creek,SF,,,2wd OK-RVs can access,5,2600,NH ND PT NW NS NR N$,BC,19.2,E,Horsefly
-120.036,50.422,PRAT,Pratt Lake,SF,,,2wd OK,8,4300,NH ND PT NW NS NR N$,BC,12.1,W,Westwold
-115.648,49.916,PREM,Premier Lake Provincial Park,PP,250.422.3003,,,56,,RS,BC,3.8,E,Skookumchuck
-123.272,48.766,PRIO,Prior Centennial - Gulf Island National Park,CNP,250.654.4000,,take ferry,,,RS,BC,1,SW,Pender Island
-130.133,54.241,PRUD,Prudhomme Lake Provincial Park,PP,250.638.8490,,,24,,NR,BC,6.5,E,Port Edward
-123.036,53.426,PUNC,Punchaw Lake,SF,,,2wd OK,5,2600,NH ND PT NW NS NR N$,BC,,,
-124.071,52.171,PUNT,Puntzi Lake,SF,,,2wd OK-RVs can access - swimming,5,3100,NH ND PT NW NS NR N$,BC,,,
-121.958,53.914,PURD,Purden Lake Provincial Park,PP,250.964.3489,,,78,2594,NR,BC,13.6,SW,Sinclair Mills
-125.585,50.298,PYEB,Pye Bay,SF,,,2wd OK,8,,NH ND PT NW NS NR N$,BC,,,
-125.571,50.289,PYBE,Pye Beach,SF,,,2wd OK,10,,NH ND PT NW NS NR N$,BC,,,
-120.133,51.963,PYRA,Pyramid  - Wells Gray Provincial Park,PP,250.674.2194,,,50,2642,NR,BC,,,
-121.676,52.664,QUES,Quesnel Forks,SF,,,2wd OK-RVs can access,10,2200,NH ND PT NW NS NR N$,BC,,,
-125.297,50.037,QUIN,Quinsam - Elk Falls Provincial Park,PP,250.474.1336,,,122,,RS,BC,1.1,W,Campbell River
-121.51,52.507,RAFT,Raft Creek,SF,,,2wd OK-RVs can access,10,2400,NH ND PT NW NS NR N$,BC,,,
-125.528,49.632,RALP,Ralph River - Strathcona Provincial Park,PP,250.474.1336,,,85,,NR,BC,,,
-120.492,49.664,RAMP,Rampart Lake,SF,,,2wd OK,8,4500,NH ND PT NW NS NR N$,BC,14.1,N,Princeton
-121.671,49.097,RAPI,Rapids,SF,,,2wd OK-res (604) 858-0020,25,,NH ND PT NW NS RS L$,BC,8.5,SE,Rosedale
-124.272,49.325,RATH,Rathtrevor Beach Provincial Park,PP,250.474.1336,,,150,,RS,BC,1.9,E,Parksville
-122.89,52.037,RAVE,Raven Lake,SF,,,2wd OK-RVs can access,20,4100,NH ND PT NW NS NR N$,BC,16,W,Riske Creek
-126.185,54.849,REDB,Red Bluff Provincial Park,PP,250 697.2248,,,27,2383,RS,BC,2.6,S,Granisle
-120.004,49.183,REDB,Red Bridge,SF,,,2wd OK-RVs can access,13,1800,NH ND PT NW NS NR L$,BC,8,W,Keremeos
-128.78,54.71,REDS,Red Sand Lake,SF,,,2wd OK,20,,NH ND PT NW NS NR N$,BC,,,
-116.056,50.629,REDS,Redstreak - Kootenay National Park,CNP,250.347.9505,,,242,3338,WE FT NR,BC,1,NE,Radium Hot Springs
-120.24,54.946,REDW,Redwillow River,SF,,,2wd OK,5,3100,NH ND PT NW NS NR N$,BC,42.6,S,Tomslake
-132.426,53.343,RENN,Rennell Sound,SF,,,2wd OK,8,,NH ND PT NW NS NR N$,BC,,,
-118.085,50.069,RICH,Richy,SF,,,2wd OK-swimming,5,2100,NH ND PT NW NS NR N$,BC,10.7,NW,Burton
-121.584,49.095,RIVE,Riverside,SF,,,2wd OK-RVs can access - res (604) 858-0020,10,,NH ND PT NW NS RS L$,BC,20.7,S,Hope
-123.672,49.44,ROBE,Roberts Creek Provincial Park,PP,604.885.3714,,,21,,NR,BC,1.5,NW,Roberts Creek
-119.238,53.029,ROBS,Robson River Meadows - Mount Robson Provincial Park,PP,250.566.4811,,,150,2724,RS,BC,,,
-120.144,50.488,ROCH,Roche Lake Provincial Park,PP,250.828.9533,,,75,3826,NR,BC,12.1,SE,Knutsford
-119.449,51.377,ROCK,Rocky Point,SF,,,2wd OK,5,,NH ND PT NW NS NR N$,BC,,,
-122.155,50.532,ROGE,Rogers Creek,SF,,,2wd OK-RVs can access,15,2900,NH ND PT NW NS NR N$,BC,14.3,E,Darcy
-122.38,49.241,ROLL,Rolley Lake Provincial Park,PP,604.466.8325,,,64,,RS,BC,3.4,NE,Mission
-117.41,50.033,ROSE,Rosebery Provincial Park,PP,250 837.5734,,,36,1821,NR,BC,3.3,NW,New Denver
-121.062,49.006,ROSS,Ross Lake - Skagit Valley Provincial Park,PP,604.986.9371,,,88,1658,NR,BC,42.6,SE,Fraser Valley B
-123.372,48.774,RUCK,Ruckle Provincial Park,PP,250.539.2115,,take ferry,8,,NR,BC,6.9,SE,Salt Spring Island
-125.688,55.141,SAKE,Sakeniche Crossing,SF,,,2wd OK,5,2300,NH ND PT NW NS NR N$,BC,,,
-117.275,49.196,SALM,Salmo Municipal Campground,CP,250.357.9433,mid may-mid sep,tents,5,,NH FT DW SH PA,BC,,,Salmo
-124.192,49.783,SALT,Saltery Bay Provincial Park,PP,604.885.3714,,take ferry,42,,RS,BC,,,
-124.72,51.808,SAPE,Sapeye Lake,SF,,,2wd OK,5,2900,NH ND PT NW NS NR L$,BC,9.5,S,Kleena Kleene
-119.695,51.401,SASK,Saskum Lake S.,SF,,,2wd OK,10,2800,NH ND PT NW NS NR N$,BC,,,
-130.096,58.781,SAWM,Sawmill Point,SF,,,2wd OK-RV not recommended,10,2600,NH ND PT NW NS NR N$,BC,,,
-126.308,50.166,SCHO,Schoen Lake Provincial Park,PP,250.974.5556,,,9,,NR,BC,,,
-119.437,50.91,SCOT,Scotch Creek - Shuswap Lake Provincial Park,PP,250.955.0861,,,272,,RS,BC,1,NE,Scotch Creek
-125.125,49.365,SCOU,Scout Beach,SF,,,2wd OK,13,,NH ND PT NW NS NR N$,BC,,,
-121.52,49.841,SCUZ,Scuzzy Creek,SF,,,2wd OK,8,,NH ND PT NW NS NR N$,BC,34.7,N,Fraser Valley A
-127.689,55.198,SEEL,Seeley Lake Provincial Park,PP,250.638.8490,,,20,,NR,BC,4.6,S,Hazelton
-117.929,50.635,SHEL,Shelter Bay - Arrow Lakes Provincial Park,PP,250 837.5734,,,17,,NR,BC,,,
-124.463,49.656,SHEP,Shelter Point Regional Park & Campground,CP,604 486-7228,early apr-mid oct,Take car/pass ferry from Powell River,52,,NH ND FT DW SH NR,BC,2,SE,Gillies Bay - Texada Island
-124.331,49.577,SHIN,Shingle Beach - Texada Island,SF,,,2wd OK-RVs can access - Take Ferry,30,,NH ND PT NW NS NR N$,BC,10,SE,Gillies Bay
-120.414,51.798,SICI,Sicily Lake S.,SF,,,2wd OK,5,4100,NH ND PT NW NS NR N$,BC,,,
-118.945,51.244,SILB,Silver Beach Provincial Park,PP,250 546.3790,,,35,,NR,BC,19.6,N,Saint Ives
-119.835,49.828,SILV,Silver Lake,SF,,,2wd OK,5,3500,NH ND PT NW NS NR N$,BC,5.8,NW,Peachland
-121.417,49.317,SILL,Silver Lake Provincial Park,PP,604.986.9371,,,25,,NR,BC,4.6,S,Hope
-121.173,49.123,SILT,Silver Tip - Skagit Valley Provincial Park,PP,604.986.9371,,,43,1854,NR,BC,21.6,SE,Hope
-126.651,54.335,SILT,Silverthorne Lake,SF,,,2wd OK,10,2900,NH ND PT NW NS NR N$,BC,4.4,S,Houston
-121.51,50.254,SKIH,Skihist Provincial Park,PP,250.455.2708,,,58,,NR,BC,3.5,NE,Lytton
-119.442,50.783,SKIM,Skimikin Lake,SF,,,2wd OK-RVs can access,36,1800,NH ND PT NW NS NR L$,BC,4.7,W,Tappen
-122.023,49.448,SKWE,Skwellepil Creek,SF,,,2wd OK,50,,NH ND PT NW NS NR L$,BC,14.7,N,Harrison Mills
-124.996,50.031,SMEL,Smelt Bay Provincial Park,PP,250.474.1336,,take ferry,23,,RS,BC,2.4,S,Mansons Landing
-126.462,55.051,SMIT,Smithers Landing - Babine Lake Provincial Marine Park,PP,250 692.7724,,,5,2412,NR,BC,,,
-125.182,49.273,SNOW,Snow Creek,SF,,,2wd OK-small RVs can access,27,,NH ND PT NW NS NR L$,BC,,,
-119.722,49.683,SOUT,South - Okanagan Lake Provincial Park,PP,250.548.0076,,,88,,RS,BC,5.6,N,Summerland
-124.452,54.421,SOWC,Sowchea Bay Provincial Rec Area,PP,250.964.3489,,,30,2224,NR,BC,,,
-121.406,52.581,SPAN,Spanish Lake,SF,,,2wd OK,8,3000,NH ND PT NW NS NR N$,BC,,,
-118.489,52.101,SPRA,Sprague Bay Rec Site,SF,,,(not near google map road),13,2500,NH ND PT NW NS NR N$,BC,,,
-124.929,49.296,SPRO,Sproat Lake Provincial Park,PP,250.474.1336,,,59,,RS,BC,14.5,S,Fanny Bay
-123.295,49.915,SQUA,Squamish Riverside,SF,,,2wd OK,10,,NH ND PT NW NS NR N$,BC,,,
-122.355,53.745,STMA,St. Marie Lake W.,SF,,,2wd OK-wheelchair toilet,10,2700,NH ND PT NW NS NR N$,BC,,,
-124.921,49.336,STAM,Stamp River Provincial Park,PP,250.474.1336,,,23,,RS,BC,,,
-123.158,49.676,STAW,Stawamus Chief Provincial Park,PP,,,,15,,NR,BC,4.2,NE,Britannia Beach
-125.495,50.288,STEL,Stella Beach,SF,,,2wd OK-RVs can access - swimming,15,,NH ND PT NW NS NR N$,BC,,,
-120.137,49.372,STEM,Stemwinder Provincial Park,PP,604.795.6161,,,26,,NR,BC,26.3,SW,Summerland
-118.09,50.084,STEV,Stevens Creek,SF,,,2wd OK-swimming,13,2100,NH ND PT NW NS NR N$,BC,11.4,NW,Burton
-123.951,48.783,STOL,Stoltz Pool - Cowichan River Provincial Park,PP,250.474.1336,,,43,,RS,BC,5.6,SE,Lake Cowichan
-124.648,58.652,STON,Stone Mountain Provincial Park,PP,250.776.7000,,,28,4184,NR,BC,,,
-120.56,54.837,STON,Stony Lake E.,SF,,,2wd OK,13,3600,NH ND PT NW NS NR N$,BC,26.3,SE,Tumbler Ridge
-125.772,58.95,STRA,Strawberry Flats - Muncho Lake Provincial Park,PP,250.776.7000,,,15,2699,NR,BC,,,
-122.521,50.267,STRA,Strawberry Point,SF,,,2wd OK-all sites walk-in - drive slow - trucks,5,,NH ND PT NW NS NR L$,BC,41.6,W,Lytton
-119.235,50.133,STRE,Streak Lake,SF,,,2wd OK,5,4500,NH ND PT NW NS NR N$,BC,,,
-120.069,55.541,SUDE,Sudeten Heritage Park,CP,250.786.5348,,,,2434,NR,BC,1.1,S,Tomslake
-118.492,50.407,SUGA,Sugar Creek,SF,,,2wd OK,18,2000,NH ND PT NW NS NR L$,BC,12.6,NE,Cherryville
-118.529,50.377,SUGL,Sugar Lake Two Mile,SF,,,2wd OK-RVs can access,50,2000,NH ND PT NW NS NR L$,BC,,,
-117.655,50.155,SUMM,Summit Lake Provincial Park,PP,,,,35,2536,NR,BC,16.9,NW,New Denver
-126.351,54.494,SUNS,Sunset Lake,SF,,,2wd OK-RVs can access - swimming,8,2500,NH ND PT NW NS NR N$,BC,13.7,NE,Houston
-121.205,51.408,SUNS,Sunset View - Green Lake Provincial Park,PP,250 397.2523,,,54,3548,NR,BC,,,
-133.421,59.631,SURP,Surprise Lake,SF,,,2wd OK,5,,NH ND PT NW NS NR N$,BC,,,
-115.245,49.32,SUZA,Suzanne Lake,SF,,,2wd OK,10,2700,NH ND PT NW NS NR N$,BC,3.9,S,Galloway
-119.235,50.057,SWAL,Swalwell Lake,SF,,,2wd OK-RVs can access,10,4400,NH ND PT NW NS NR N$,BC,16.4,NE,Kelowna
-120.03,55.529,SWAN,Swan Lake Provincial Park,PP,250.964.2243,,,42,2410,NR,BC,2.6,SE,Tomslake
-117.889,49.351,SYRI,Syringa Provincial Park,PP,250.365.6945,,,61,,RS,BC,9,W,Robson
-122.532,54.702,TACM,Tacheeda Lakes Middle,SF,,,2wd OK,10,2400,NH ND PT NW NS NR N$,BC,,,
-122.506,54.73,TACN,Tacheeda Lakes NE.,SF,,,2wd OK,10,2400,NH ND PT NW NS NR N$,BC,,,
-122.529,54.709,TACP,Tacheeda Lakes Point,SF,,,2wd OK-large RVs can access,18,2400,NH ND PT NW NS NR N$,BC,,,
-118.089,49.796,TAIT,Taite Creek,SF,,,2wd OK-swimming,5,,NH ND PT NW NS NR N$,BC,,,
-116.484,51.499,TAKA,Takakkaw Falls - Yoho National Park,CNP,250.343.6783,,walk to sites only,35,4958,VT NR,BC,7.2,N,Field
-125.868,53.897,TAKY,Takysie Lake,SF,,,2wd OK-RVs can access,10,2700,NH ND PT NW NS NR N$,BC,,,
-125.431,54.346,TALT,Taltapin Lake,SF,,,2wd OK-RVs can access,13,2900,NH ND PT NW NS NR N$,BC,15.5,NE,Burns Lake
-121.84,49.071,TAMI,Tamihi Creek,SF,,,2wd OK-RVs can access - res(604) 824-2883,110,,NH ND PT NW NS RS L$,BC,7.9,S,Rosedale
-124.49,51.93,TATL,Tatla Lake,SF,,,2wd OK,5,3000,NH ND PT NW NS NR N$,BC,,,
-124.39,51.637,TATK,Tatlayoko Lake NE.,SF,,,2wd OK,5,2700,NH ND PT NW NS NR N$,BC,,,
-118.981,49.324,TAUR,Taurus Lake,SF,,,2wd OK-swimming,13,3800,NH ND PT NW NS NR N$,BC,10.6,N,Westbridge
-122.446,53.073,TENM,Ten Mile Lake Provincial Park,PP,250.397.2523,,,106,2408,RS,BC,,,
-123.942,58.657,TETS,Tetsa River Regional Park,CP,250.774.2541,,,,2176,NR,BC,,,
-118.229,49.103,TEXA,Texas Creek - Gladstone Provincial Park,PP,250.548.0076,,,63,1681,NR,BC,1.6,SE,Christina Lake
-124.382,54.656,TEZZ,Tezzeron Lake,SF,,,2wd OK,8,2600,NH ND PT NW NS NR N$,BC,,,
-121.744,49.076,THUR,Thurston Meadows,SF,,,2wd OK-RV not recommended,50,,NH ND PT NW NS RS L$,BC,7.8,S,Rosedale
-115.303,49.412,TIEL,Tie Lake,SF,,,2wd OK-RVs can access,13,2800,NH ND PT NW NS NR L$,BC,2.8,N,Jaffray
-120.989,52.233,TISD,Tisdall Lake,SF,,,RVs can access (not near google map road),13,3200,NH ND PT NW NS NR N$,BC,19.4,E,Horsefly
-115.014,50.524,TOBE,Tobermory Creek,SF,,,2wd OK,5,5600,NH ND PT NW NS NR N$,BC,,,
-124.815,54.222,TOPL,Top Lake - Peta Lake,SF,,,2wd OK,5,3100,NH ND PT NW NS NR N$,BC,,,
-119.425,51.391,TSIK,Tsikwustum Creek N.,SF,,,2wd OK-RVs can access,8,,NH ND PT NW NS NR N$,BC,,,
-124.056,51.576,TSUN,Tsuniah Lake Bay,SF,,,2wd OK-RV not recommended,10,4000,NH ND PT NW NS NR N$,BC,,,
-123.03,55.061,TUDY,Tudyah Lake Provincial Park,PP,250.964.3489,,,36,2236,NR,BC,,,
-120.841,50.599,TUNK,Tunkwa Lake Provincial Park,PP,250.828.9533,,,275,3824,NR,BC,7.5,N,Logan Lake
-120.002,49.169,TUNN,Tunnel,SF,,,2wd OK,5,1900,NH ND PT NW NS NR L$,BC,8.1,W,Keremeos
-121.879,49.536,TWEN,Twenty Mile Bay,SF,,,2wd OK-res (604)796-0102,65,,NH ND PT NW NS RS L$,BC,20.6,N,Harrison Mills
-122.07,52.378,TYEE,Tyee Lake E.,SF,,,2wd OK-RVs can access,10,3000,NH ND PT NW NS NR N$,BC,,,
-127.041,54.709,TYHE,Tyhee Lake Provincial Park,PP,250.638.8490,,,59,1744,RS,BC,1,N,Telkwa
-120.932,50.291,TYNE,Tyner Lake,SF,,,2wd OK,5,4400,NH ND PT NW NS NR N$,BC,,,
-122.884,52.664,TZEN,Tzenzaicut Lake N.,SF,,,2wd OK,20,3800,NH ND PT NW NS NR N$,BC,27.3,SW,Quesnel
-125.58,53.912,UNCH,Uncha Lake,SF,,,2wd OK-swimming,10,2500,NH ND PT NW NS NR N$,BC,,,
-125.241,56.08,USLI,Uslika Lake,SF,,,2wd OK-swimming,5,3000,NH ND PT NW NS NR N$,BC,,,
-121.457,51.583,VALE,Valentine Lake,SF,,,2wd OK-RVs can access,10,4100,NH ND PT NW NS NR N$,BC,8.1,SW,100 Mile House
-119.53,49.298,VASE,Vaseux Lake Provincial Park,PP,250.548.0076,,,12,,NR,BC,,,
-118.206,51.217,WADE,Wadey,SF,,,2wd OK,30,1900,NH ND PT NW NS NR L$,BC,,,
-117.184,51.501,WAIT,Waitabit Creek,SF,,,2wd OK-RVs can access,13,2500,NH ND PT NW NS NR N$,BC,,,
-120.595,54.643,WAPC,Wapiti Crossing,SF,,,2wd OK,10,3700,NH ND PT NW NS NR N$,BC,36.9,SE,Tumbler Ridge
-120.555,54.681,WAPR,Wapiti River,SF,,,2wd OK,8,3700,NH ND PT NW NS NR N$,BC,35.3,SE,Tumbler Ridge
-115.729,49.781,WASA,Wasa Lake Provincial Park,PP,250.422.3003,,,104,,RS,BC,0.9,N,Wasa
-121.869,49.347,WEAV,Weaver Lake,SF,,,2wd OK-res (604)796-0102,30,,NH ND PT NW NS RS L$,BC,8.8,NW,Agassiz
-122.938,54.908,WHIS,Whiskers Point Provincial Park,PP,250.964.3489,,,69,2315,NR,BC,,,
-115.418,50.159,WHIR,White River - Whiteswan Provincial Park,PP,250.422.3003,,,104,3773,NR,BC,,,
-124.72,54.583,WHIT,Whitefish Bay,SF,,,2wd OK,10,2300,NH ND PT NW NS NR N$,BC,,,
-120.345,51.098,WHIL,Whitewood Lake,SF,,,2wd OK,5,4400,NH ND PT NW NS NR N$,BC,29.3,N,Kamloops
-119.925,49.989,WIND,Windy Lake,SF,,,2wd OK,5,4700,NH ND PT NW NS NR N$,BC,17.9,SE,Douglas Lake
-121.416,52.499,WINK,Winkley Creek,SF,,,2wd OK,10,2400,NH ND PT NW NS NR N$,BC,,,
-121.858,49.459,WOOD,Wood Lake,SF,,,2wd OK-res (604)796-0102,30,,NH ND PT NW NS RS L$,BC,11.4,N,Harrison Hot Springs
-126.624,50.187,WOSS,Woss Lake,SF,,,2wd OK-swimming,25,,NH ND PT NW NS NR N$,BC,2.5,SW,Woss
-116.096,49.082,YAHK,Yahk Provincial Park,PP,250 422.3003,,,26,2826,NR,BC,0.6,W,Yahk
-122.242,50.914,YALA,Yalakom,SF,,,2wd OK-RVs can access,5,2300,NH ND PT NW NS NR N$,BC,18.4,W,Pavilion
-119.052,52.705,YELL,Yellowjacket Creek,SF,,,2wd OK-RVs can access,10,2500,NH ND PT NW NS NR L$,BC,,,
-100.06,49.049,ADAM,Adam   - Turtle Mountain Provincial Park,PP,204.534.2578,,,81,2307,RS,MB,12.5,S,Boissevain
-101.387,50.963,ASES,Asessippi - Asessippi Provincial Park,PP,,,,100,1535,E RS,MB,4.5,SE,Dropmore
-101.663,54.677,BAKE,Bakers Narrows  Provincial Park,PP,888.482.2267,,,90,,RS,MB,,,
-96.916,51.376,BEAV,Beaver Creek  Provincial Park,PP,204.945.6784,,,,,NR,MB,20.6,S,Little Bullhead
-101.241,52.542,BELL,Bell Lake - Bell Lake  Provincial Park,PP,,,primitive,16,2250,NR,MB,11.6,NW,Birch River
-95.265,50.847,BERE,Beresford Lake  - Nopiming Provincial Park,PP,204.277.5212,,,19,,RS,MB,,,
-95.587,50.067,BETU,Betula Lake  - Whiteshell Provincial Park,PP,204.349.2201,,,17,,RS,MB,,,
-95.373,50.082,BIGW,Big Whiteshell  - Whiteshell Provincial Park,PP,204.349.2201,,,90,,RS,MB,,,
-95.232,49.168,BIRC,Birch Point  Provincial Park,PP,,,,25,,NR,MB,10.8,N,Buffalo Point
-95.376,50.462,BIRL,Bird Lake  - Nopiming Provincial Park,PP,204.277.5212,,,30,,RS,MB,,,
-96.897,50.019,BIRH,Birds Hill Provincial Park,PP,,,,420,,RS,MB,6,NW,Oakbank
-95.39,50.675,BLAC,Black Lake  - Nopiming Provincial Park,PP,204.277.5212,,,50,,RS,MB,,,
-100.913,51.606,BLUE,Blue Lakes - Duck Mountain Provincial Park,PP,204.546.2701,,,15,2226,RS,MB,19.5,E,Boggy Creek
-95.525,49.902,BRER,Brereton Lake  - Whiteshell Provincial Park,PP,204.349.2201,,,25,,RS,MB,,,
-95.218,49.807,CADD,Caddy Lake  - Whiteshell Provincial Park,PP,204.349.2201,,,30,,RS,MB,9.7,NE,Falcon Beach
-96.988,50.714,CAMM,Camp Morton  Provincial Park,PP,,,,20,,RS,MB,0.3,E,Camp Morton
-101.168,53.972,CAMC,Campers Cove  - Clearwater Lake Provincial Park,PP,,,,80,,RS,MB,,,
-101.134,51.581,CHIL,Childs Lake  - Duck Mountain Provincial Park,PP,204.546.2701,,,90,2242,RS,MB,9.9,E,Boggy Creek
-98.144,49.178,COLE,Colert Beach,CP,204.822.4991,,,125,,,MB,4.2,SE,Thornhill
-98.7,49.627,COTT,Cottonwood,CP,204.723.2044,,,100,,,MB,0.1,SW,Treherne
-101.383,54.585,CRAN,Cranberry Portage,CP,204.472.3219,,,20,,,MB,0.3,W,Kelsey (Cranberry Portage)
-95.33,49.685,FALB,Falcon Beach  - Whiteshell Provincial Park,PP,204.349.2201,,,235,,RS,MB,0.2,W,Falcon Beach
-95.238,49.713,FALC,Falcon Creek - Whiteshell Provincial Park,PP,204.349.2201,,,70,,RS,MB,2.2,SW,Whiteshell
-95.317,49.693,FALL,Falcon Lakeshore - Whiteshell Provincial Park,PP,204.349.2201,,,160,,RS,MB,0.6,NE,Falcon Beach
-100.496,51.149,GILB,Gilbert Plains,CP,204.548.2326,,,35,,,MB,0.3,W,Gilbert Plains
-96.589,50.563,GRAN,Grand Beach  Provincial Park,PP,,,,355,,RS,MB,1.9,NE,Grand Marais
-96.632,51.191,GULL,Gull Harbour  - Hecla/Grindstone Provincial Park,PP,,,,280,,RS,MB,20.9,NE,Riverton
-101.101,54.527,GYLE,Gyles  - Grass River Provincial Park,PP,204.472.3331,,,32,,NR,MB,,,
-96.992,50.9,HNAU,Hnausa  Provincial Park,PP,,,,,,E RS,MB,6.8,N,Arnes
-100.802,54.596,ISKW,Iskwasum  - Grass River Provincial Park,PP,204.472.3331,,,40,,NR,MB,,,
-99.258,49.66,KICH,Kiche Manitou - Spruce Woods Provincial Park,PP,,,,170,,RS,MB,10.4,NW,Cypress River
-100.232,50.754,LAKA,Lake Audy - Riding Mountain National Park,CNP,204.848.7275,,,35,1879,NR,MB,2.9,N,Lake Audy
-97.404,51.726,LAKG,Lake St. George Provincial Wayside Park,PP,,,,40,,NR,MB,20.4,W,Matheson Island
-98.273,50.724,LUND,Lundar Beach  Provincial Park,PP,,,,40,,RS,MB,,,
-99.549,51.517,MANI,Manipogo  Provincial Park,PP,,,,90,,RS,MB,2.3,N,Toutes Aides
-100.149,49.074,MAX,Max Lake  - Turtle Mountain Provincial Park,PP,204.534.2578,,,27,2275,NR,MB,11.5,S,Boissevain
-99.819,50.261,MINN,Minnedosa,CP,204.867.3450,,,150,1710,,MB,1.3,NE,Minnedosa
-100.054,50.874,MOON,Moon Lake - Riding Mountain National Park,CNP,204.848.7275,,,30,2209,NR,MB,15.3,N,Wasagaming
-95.316,49.193,MOOS,Moose Lake  Provincial Park,PP,204.437.2348,,,75,,RS,MB,13.3,NE,Middlebro
-97.417,50.482,NORR,Norris Lake Provincial Park,PP,,,,15,,NR,MB,3.9,SE,Inwood
-95.687,50.141,NUTI,Nutimik Lake  - Whiteshell Provincial Park,PP,204.349.2201,,,120,,RS,MB,8.6,E,Pinawa
-95.698,50.171,OPAP,Opapiskaw  - Whiteshell Provincial Park,PP,204.349.2201,,,70,,RS,MB,8.2,E,Pinawa
-95.812,50.144,OTTE,Otter Falls  - Whiteshell Provincial Park,PP,204.349.2201,,,75,,RS,MB,,,
-98.024,55.491,PAIN,Paint Lake  Provincial Park,PP,,,,65,,RS,MB,,,
-100.877,54.044,PION,Pioneer Bay  - Clearwater Lake Provincial Park,PP,,,,,,RS,MB,,,
-101.583,52.336,PORC,Porcupine - Whitefish Provincial Park,PP,,,,30,1973,NR,MB,20.6,W,Birch River
-99.812,51.132,RAIN,Rainbow Beach  Provincial Park,PP,,,,70,,RS,MB,5,N,Ochre River
-100.498,54.584,REED,Reed Lake  - Grass River Provincial Park,PP,204.472.3331,,,53,,NR,MB,,,
-100.195,50.033,RIVE,Rivers  Provincial Park,PP,,,,29,1555,RS,MB,2,E,Rivers
-97.355,49.351,SCRA,Scratching River,CP,204.746.2531,,,50,,,MB,0.5,SE,Morris
-100.805,51.607,SING,Singush  - Duck Mountain Provincial Park,PP,204.546.2701,,,15,2283,NR,MB,,,
-98.07,50.285,STAM,St. Ambroise Provincial Park,PP,,,,125,,RS,MB,2.5,NW,Saint Ambroise
-96.928,49.319,STMA,St. Malo  Provincial Park,PP,,,,435,,RS,MB,1.2,E,Saint Malo
-101.35,52.601,STEE,Steep Rock Beach Park,AUTH,204.449.2221,,,110,2425,,MB,17.5,NW,Birch River
-98.296,49.521,STEP,Stephenfield  Provincial Park,PP,,,,135,,RS,MB,2.4,NW,Stephenfield
-95.27,50.471,TULA,Tulabi Falls  - Nopiming Provincial Park,PP,204.277.5212,,,35,,RS,MB,,,
-100.053,51.153,VERM,Vermillion Park,CP,204.622.3125,,,110,,,MB,0.2,NW,Dauphin
-99.975,50.657,WASA,Wasagaming - Riding Mountain National Park,CNP,204.848.7275,,,500,2048,RS,MB,0.3,W,Wasagaming
-98.562,51.278,WATC,Watchorn  Provincial Park,PP,888.482.2267,,,47,,RS,MB,6,W,Moosehorn
-99.971,54.79,WEKU,Wekusko Falls Provincial Park,PP,,,,65,,RS,MB,6.5,S,Snow Lake
-100.897,51.811,WELL,Wellman Lake  - Duck Mountain Provincial Park,PP,204.546.2701,,,30,2377,RS,MB,27.2,NE,Boggy Creek
-95.212,49.745,WEST,West Hawk Lake  - Whiteshell Provincial Park,PP,204.349.2201,,,150,,RS,MB,0.6,N,Whiteshell
-95.511,50.033,WHIL,White Lake  - Whiteshell Provincial Park,PP,204.369.5246,,,30,,RS,MB,,,
-101.585,52.332,WHIP,Whitefish Lake - Porcupine  Provincial Forest,PP,,,primitive,30,2008,NR,MB,20.8,W,Birch River
-99.971,49.044,WILL,William Lake  Provincial Park,PP,888.482.2267,,,32,,RS,MB,13.2,S,Ninga
-66.805,44.66,ANCH,Anchorage Provincial Park,PP,506. 662.7022,,take ferry,100,,FT RS,NB,3.2,S,Grand Manan
-66.917,47.429,ARMS,Armstrong Brook - Mount Carleton Provincial Park,PP,506. 235.0793,,,88,,FT RS,NB,24.5,S,Eldon
-66.366,48.019,BLUE,Blue Heron Town Park,CP,506. 684.7850,,,170,,,NB,2.6,NW,Charlo
-64.987,45.604,CHIG,Chignecto - Fundy National Park,CNP,902.535.2032,,,256,,WE FT RS,NB,,,
-64.939,46.836,COTE,Cote-a-Fabien - Kouchibouguac National Park,CNP,506. 876.2443,,,32,,NR,NB,,,
-66.905,47.426,FRAN,Franquelin - Mount Carleton Provincial Park,PP,506. 235.0793,,walk to sites only,8,,VT RS,NB,24.9,S,Eldon
-64.951,45.599,HEAD,Headquarters - Fundy National Park,CNP,902.535.2032,,,132,,FT RS,NB,0.6,SW,Alma
-66.927,44.875,HERR,Herring Cove Provincial Park,PP,506. 752.7010,,,76,,E FT RS,NB,1.4,SE,Welshpool
-64.693,47.814,ILEL,Ile Lameque Municipal Park,CP,506. 344.3292,,,50,,,NB,,,
-65.988,47.919,JACQ,Jacquet River Village Park,CP,506. 237.3239,,,30,,,NB,8.5,W,Belledune
-68.395,47.441,LESJ,Les Jardins Provincial Park,PP,506. 735.2525,,,113,,WE FT NR,NB,5.9,NW,Edmundston
-66.894,45.97,MACT,Mactaquac Provincial Park,PP,506. 363.4747,,,303,,WE FT RS,NB,16,SE,Bright
-63.98,46.182,MURR,Murray Beach Provincial Park,PP,506. 538.2628,,,111,,WE RS,NB,5,NE,Little Shemogue
-66.529,45.137,NEW,New River Beach Provincial Park,PP,506. 755.4079,,,100,,FT RS,NB,0.5,E,New River Beach
-67.192,45.227,OAKB,Oak Bay Provincial Park,PP,506. 466.2661,,may be closed - check!,115,,,NB,0.2,S,Oak Bay
-64.504,46.233,PARL,Parlee Beach Provincial Park,PP,506. 533.5363,,,170,,FT RS,NB,1.7,NE,Shediac
-65.016,45.554,POIN,Point Wolfe - Fundy National Park,CNP,902.535.2032,,,178,,FT RS,NB,,,
-64.77,47.751,SHIP,Shippagan Town Park,CP,506. 336.3960,,,150,,,NB,0.6,W,Haut-Shippagan
-64.936,46.825,SOUT,South Kouchibouguac - Kouchibouguac National Park,CNP,506. 876.2443,,,311,,WE FT RS,NB,9.6,NE,Saint-Louis
-66.698,47.993,SUGA,Sugarloaf Provincial Park,PP,506. 789.2366,,,65,,RS,NB,0.9,E,Atholville
-64.871,47.473,VALC,Val Comeau Provincial Park,PP,506. 393.7150,,,140,,NR,NB,1.4,NE,Val-Comeau
-66.886,47.425,WILL,Williams Brook - Mount Carleton Provincial Park,PP,506. 235.0793,,walk to sites only,8,,VT RS,NB,25.3,S,Eldon
-65.142,45.66,WOLF,Wolfe Lake - Fundy National Park,CNP,902.535.2032,,,20,,NR,NB,11.1,E,Waterford
-57.928,49.624,BERR,Berry Hill - Gros Morne National Park,CNP,709.458.2417,,,152,,DP FT DW SH RS,NL,2.4,N,Rocky Harbour NL
-58.364,49.091,BLOW,Blow Me Down Provincial Park,PP,709.635.4520,,,30,,DP FT DW SH RS,NL,,,
-53.046,47.374,BUTT,Butter Pot Provincial Park,PP,709.635.4520,,,175,,DP FT DW SH RS,NL,20.2,SW,St. Johns NL
-59.251,47.632,CHEE,Cheeseman Provincial Park,PP,709.635.4520,,,100,,DP FT DW SH RS,NL,6.8,NW,Channel-Port-Aux-Basques NL
-54.219,48.804,DAVI,David Smallwood Town Park,CP,709.674.0122,,,40,,E DP VT,NL,1.3,N,Gambo NL
-57.449,49.182,DEER,Deer Lake Municipal Park,CP,709.635.5885,,,33,,,NL,0.9,NW,Deer Lake NL
-54.76,49.528,DILD,Dildo Run Provincial Park,PP,709.635.4520,,,55,,DP FT DW RS,NL,,,
-55.468,49.019,FALL,Fallsview Municipal Park,CP,709.258.2228,,,48,,WE DP SH,NL,17.1,N,Bishops Falls NL A0H1C0
-55.402,47.209,FREN,Frenchmans Cove Provincial Park,PP,709.635.4520,,,75,,DP FT DW RS,NL,0.2,NE,Frenchmans Cove Fb NL
-57.958,49.681,GREE,Green Point - Gros Morne National Park,CNP,709.458.2417,,,31,,NR,NL,3.7,S,Sallys Cove
-52.883,47.161,LAMA,La Manche Provincial Park,PP,709.635.4520,,,70,,DP PT DW RS,NL,5.5,NE,Cape Broyle NL
-53.362,48.438,LOCK,Lockston Path Provincial Park,PP,709.635.4520,,,55,,WE DP FT DW SH RS,NL,,,
-57.762,49.461,LOMO,Lomond - Gros Morne National Park,CNP,709.458.2417,,,29,,DP FT DW SH NR,NL,11.3,SE,Rocky Harbour NL
-53.916,48.649,MALA,Malady Head - Terra Nova National Park,CNP,709.533.2801,,,100,,NH DP FT DW SH RS,NL,,,
-53.985,48.542,NEWM,Newman Sound - Terra Nova National Park,CNP,709.533.2801,,,343,,E DP FT DW SH RS,NL,,,
-55.08,49.115,NOTR,Notre Dame Provincial Park,PP,709.635.4520,,,100,,DP FT DW SH RS,NL,9,S,Lewisporte NL
-56.704,51.632,PINW,Pinware River Provincial Park,PP,709.635.4520,,,15,,DP PT DW RS,NL,2.9,N,West St Modeste NL
-55.697,51.523,PIST,Pistolet Bay Provincial Park,PP,709.635.4520,,,30,,DP FT DW SH RS,NL,2.8,SE,Raleigh NL
-57.647,47.607,SAND,Sandbanks Provincial Park,PP,709.635.4520,,,25,,NH DP PT RS,NL,,,
-55.641,48.926,SANG,Sanger Memorial RV Park,CP,709.489.7350,,no tents,38,,WES DP SH,NL,0.8,E,GRAND FALLS WINDSOR NL
-57.76,49.939,SHAL,Shallow Bay - Gros Morne National Park,CNP,709.458.2417,,,62,,DP FT DW SH RS,NL,25,N,Rocky Harbour NL
-57.173,49.345,SIRR,Sir Richard Squires Memorial Provincial Park,PP,709.635.4520,,,160,,NH DP PT DW RS,NL,16.7,NE,Deer Lake NL
-58.132,49.437,TROU,Trout River Pond - Gros Morne National Park,CNP,709.458.2417,,,44,,FT DW SH RS,NL,14.4,SW,Rocky Harbour NL
-64.774,45.338,ADVO,Advocate Harbor,CP,902.392.2606,,,,,RS,NS,0.4,E,Advocate Harbour
-63.879,45.961,AMHE,Amherst Shore Provincial Park,PP,902.661.6002,,,42,,RS,NS,2.2,N,Northport
-60.869,45.649,BATT,Battery Provincial Park,PP,902.535.3094,,,56,,FT RS,NS,0.6,SE,St. Peters
-60.611,46.832,BIGI,Big Intervale - Cape Breton Highlands National Park,CNP,902.224.2306,,,10,,NH PT NW NR,NS,6.1,SW,Cape North
-64.337,45.268,BLOM,Blomidon Provincial Park,PP,902.582.7319,,,70,,RS,NS,8.7,NE,Canning
-61.511,45.427,BOYL,Boylston Provincial Park,PP,902.533.3326,,,35,,RS,NS,2.6,N,Guysborough
-60.364,46.71,BROA,Broad Cove - Cape Breton Highlands National Park,CNP,902.224.2306,,,250,,WES FT RS,NS,0.2,E,Ingonish
-64.824,45.35,CAPE,Cape Chignecto Provincial Park,PP,902.392.2085,,walk to sites only,60,,VT,NS,18.2,W,Diligent River
-62.657,45.722,CARI,Caribou Munroes Island Provincial Park,PP,902.485.6134,,,95,,RS,NS,4.3,NE,Pictou
-60.954,46.651,CHET,Cheticamp - Cape Breton Highlands National Park,CNP,902.224.2306,,,160,,WES FT RS,NS,,,
-60.925,46.726,CORN,Corney Brook - Cape Breton Highlands National Park,CNP,902.224.2306,,,20,,NH FT NW NR,NS,9,SW,Pleasant Bay
-63.312,44.933,DOLL,Dollar Lake Provincial Park,PP,902.384.2770,,,119,,FT RS,NS,3.9,W,Meaghers Grant
-66.006,43.93,ELLE,Ellenwood Lake Provincial Park,PP,902.761.2400,,,87,,RS,NS,3,E,South Ohio
-64.021,45.408,FIVE,Five Islands Provincial Park,PP,902.254.2980,,,90,,RS,NS,0.8,E,Five Islands
-64.218,44.566,GRAV,Graves Island Provincial Park,PP,902.275.4425,,,84,,RS,NS,2,NE,Chester
-60.4,46.653,INGO,Ingonish - Cape Breton Highlands National Park,CNP,902.224.2306,,,90,,NH NR,NS,0.9,N,Ingonish Beach
-65.249,44.405,JERE,Jeremys Bay Campground - Kejimkujik National Park,CNP,902.682.2772,,,350,,RS,NS,21.4,S,Annapolis
-63.602,44.878,LAUR,Laurie Provincial Park,PP,902.861.1623,,,71,,RS,NS,1.3,W,Grand Lake
-60.767,46.813,MACI,MacIntosh Brook - Cape Breton Highlands National Park,CNP,902.224.2306,,,10,,NH FT NR,NS,1.7,SE,Pleasant Bay
-60.037,46.026,MIRA,Mira River Provincial Park,PP,902.563.3373,,,148,,VT RS,NS,1.3,NE,Albert Bridge
-63.309,44.691,PORT,Porters Lake Provincial Park,PP,902.827.2250,,,80,,VT RS,NS,0.3,NE,West Porters Lake
-65.445,44.583,RAVE,Raven Haven Beachside City Park,CP,902.532.7320,,,15,,,NS,13.6,SW,Annapolis
-64.424,44.232,RISS,Rissers Beach Provincial Park,PP,902.688.2034,,,90,,NH RS,NS,10.3,NE,Port Medway
-61.767,45.237,SALS,Salsman Provincial Park,PP,902.328.2999,,,40,,NH VT RS,NS,9.4,N,Bickerton West
-63.961,45.014,SMIL,Smileys Provincial Park,PP,902.757.3131,,,86,,FT RS,NS,2.3,E,Newport
-65.338,43.765,THEI,The Islands Provincial Park,PP,902.875.4304,,,70,,RS,NS,0.7,W,Shelburne
-64.92,43.845,THOM,Thomas Raddall Provincial Park,PP,902.683.2664,,,82,,RS,NS,2.4,SW,Port Joli
-62.629,45.624,TREN,Trenton City Park,CP,902.752.1019,,,45,,,NS,0.7,NE,Trenton
-65.318,44.869,VALL,Valleyview Provincial Park,PP,902.665.2559,,,30,,RS,NS,2.8,SE,Hampton
-61.108,45.966,WHYC,Whycocomagh Provincial Park,PP,902.756.2448,,,62,,RS,NS,4.5,N,Orangedale
-121.828,61.369,BLAC,Blackstone Territorial Park,PP,867.695.7515,,,19,,DW SH RS,NT,37.5,SW,Fort Simpson
-121.343,61.854,FORT,Fort Simpson Territorial Park,PP,867.695.7515,,,20,,RS,NT,0.7,SE,Fort Simpson
-114.417,62.471,FRED,Fred Henne Territorial Park,PP,867.920.2472,,,104,,E DP VT DW SH RS,NT,1.8,NW,Yellowknife
-133.733,68.362,HAPP,Happy Valley Territorial Park,PP,867.777.7353,,,28,,E DW SH RS,NT,0.3,W,Inuvik
-115.744,60.864,HAYR,Hay River Territorial Park,PP,867.875.5566,,,30,,E DW SH RS,NT,3.6,NE,Hay River
-133.654,68.333,JAKT,Jak Territorial Park,PP,867.777.7353,,,35,,E DW SH RS,NT,2.6,SE,Inuvik
-113.98,62.567,PREL,Prelude Lake Territorial Park,PP,867.920.3242,,,63,,NH DP DW RS,NT,,,
-111.871,60.01,QUEE,Queen Elizabeth Territorial Park,PP,867.875.5566,,location not verified,17,,E DW RS,NT,0.5,NE,Fort Smith
-113.467,62.487,REID,Reid Lake Territorial Park,PP,867.920.3242,,,65,,NH DW RS,NT,,,
-119.842,61.144,SAMB,Sambaa Deh Territorial Park,PP,867.695.7515,,,20,,NH DP DW SH RS,NT,,,
-116.249,60.508,TWIN,Twin Falls Gorge Territorial Park,PP,867.875.5566,,,15,,RS,NT,5,SW,Enterprise
-81.835,42.829,AWCA,A W Campbell Conservation Area,AUTH,519.847.5357,,,140,,WE,ON,2.7,E,On N0N 1A0
-92.644,49.753,AARO,Aaron Provincial Park,PP,807.938.6534,,,98,,E FT DW NR,ON,,,
-77.756,45.866,ACHR,Achray - Algonquin Provincial Park,PP,705.633.5572,,,,,RS,ON,,,
-84.626,47.348,AGAW,Agawa Bay - Lake Superior Provincial Park,PP,705.856.2284,,,38,,E FT DW RS,ON,22.1,S,Algoma
-79.82,43.935,ALBI,Albion Hills Conservation Area,AUTH,800.838.9921,,,234,,,ON,10.1,NE,Caledon
-75.209,44.883,ARLO,Arlor Haven Campground,CP,613.543.4244,,mostly seasonal sites - 7 overnight sites,7,,WE DP FT DW SH RS,ON,0.3,SW,Mariatown
-79.223,45.383,ARRO,Arrowhead Provincial Park,PP,705. 789.5105,,,378,,E FT DW RS,ON,3.9,N,Huntsville
-80.003,44.845,AWEN,Awenda Provincial Park,PP,705.549.2231,,,333,,E FT DW RS,ON,,,
-80.468,42.648,BACK,Backus Conservation Area,AUTH,877.990.9932,,,150,,WE,ON,1.9,NW,Port Rowan
-78.875,44.634,BALS,Balsam Lake Provincial Park,PP,705. 454.3324,,,505,,E FT DW RS,ON,7.1,NE,Kirkfield
-79.478,44.606,BASS,Bass Lake Provincial Park,PP,705. 326.7054,,,182,,E FT DW RS,ON,2.9,W,Orillia
-81.708,42.645,BIGB,Big Bend Conservation Area,AUTH,519.354.7310,,,,,,ON,,,
-93.471,49.905,BLUE,Blue Lake Provincial Park,PP,807. 227.2601,,,198,,E FT DW RS,ON,46.4,E,Kenora
-77.213,44.899,BONE,Bon Echo Provincial Park,PP,613.336.2228,,,528,,E FT DW RS,ON,5.8,N,Cloyne
-77.58,45.658,BONN,Bonnechere Provincial Park,PP,613. 757.2103,,,128,,E FT DW RS,ON,10.6,NW,Killaloe
-77.735,44.47,BOOS,Booster Park,CP,613.472.3127,,,60,,,ON,2.8,W,Marmora
-80.311,43.143,BRAN,Brant Conservation Area,AUTH,519.752.2040,,,400,,WE,ON,2.4,W,Brantford
-78.489,46.026,BREN,Brent - Algonquin Provincial Park,PP,705.633.5572,,,,,RS,ON,49.5,E,Nipissing
-79.762,43.421,BRON,Bronte Creek Provincial Park,PP,905.827.6911,,,144,,E FT DW RS,ON,4.9,SW,Oakville
-81.523,44.379,BRUC,Brucedale Conservation Area,AUTH,519.364.1255,,,53,,,ON,15.1,N,Kincardine
-79.642,42.896,BYNG,Byng Island Conservation Area,AUTH,905.774.5755,,,380,,WE,ON,12.1,E,Haldimand
-82.107,42.375,CMWI,C. M. Wilson,AUTH,,,,102,,,ON,3,N,Charing Cross
-93.904,49.069,CALI,Caliper Lake Provincial Park,PP,807. 484.2181,,,83,,E FT DW RS,ON,30.5,NE,Pinewood
-78.595,45.564,CANI,Canisbay Lake - Algonquin Provincial Park,PP,705.633.5572,,,242,,RS,ON,,,
-76.041,44.502,CHAR,Charleston Lake Provincial Park,PP,613. 659.2065,,,238,,E PT DW RS,ON,,,
-74.529,45.094,CHAR,Charlottenburgh Park,AUTH,613.931.0944,early may-late sep,,185,,E DP FT DW SH RS,ON,3.6,S,Lancaster
-79.516,42.995,CHIC,Chippawa Creek Conservation Area,AUTH,905.386.6387,,,160,,,ON,1.8,SW,Wellandport
-89.214,48.335,CHIP,Chippewa Park,CP,807.623.3912,,,30,,WE,ON,3.5,SE,Thunder Bay
-82.075,46.219,CHUT,Chutes Provincial Park,PP,705.865.2021,,,130,,E FTVT DW RS,ON,4.9,SW,Sables-Spanish Rivers
-80.721,43.67,CONE,Conestogo lake Conservation Area,AUTH,519.638.2873,,,285,,WE,ON,6.3,S,Moorefield
-79.738,43.243,CONF,Confederation Park,AUTH,905.547.6141,,,100,,WE,ON,6.5,E,Hamilton
-78.404,45.539,COON,Coon Lake - Algonquin Provincial Park,PP,705.633.5572,,,,,NR,ON,,,
-80.357,44.538,CRAI,Craigleith Provincial Park,PP,705.445.4467,,,172,,E FT DW RS,ON,4,N,Blue Mountains
-81.52,45.233,CYPR,Cyprus Lake - Bruce Peninsula National Park,CNP,519.596.2263,,,242,,NH DW NS RS,ON,8.4,E,Tobermory
-78.78,43.87,DARL,Darlington Provincial Park,PP,905.436.2036,,,315,,E FT DW NR,ON,2.9,S,Courtice
-80.56,42.707,DEER,Deer Creek Conservation Area,AUTH,877.990.9934,,,45,,,ON,2.6,S,Langton
-81.335,44.505,DENN,Dennys Dam Conservation Area,AUTH,519.364.1255,,,,,,ON,1.8,NE,Southampton
-76.773,44.545,DEPO,Depot Lakes Conservation Area,AUTH,613.374.2940,,,,,,ON,4.6,W,Godfrey
-77.843,46.18,DRIF,Driftwood Provincial Park,PP,613. 586.2553,,,80,,E FT DW RS,ON,3,SE,Stonecliffe
-80.796,44.183,DURH,Durham Conservation Area,AUTH,519.369.2074,,,200,,WE,ON,3.9,SE,West Grey
-79.899,44.146,EARL,Earl Rowe Provincial Park,PP,705.435.2498,,,365,,E FT DW RS,ON,2.6,NE,Adjala-Tosorontio
-80.445,43.672,ELOR,Elora Gorge Conservation Area,AUTH,519.846.9742,,,545,,WE,ON,7.1,SW,Centre Wellington
-78.538,44.342,EMIL,Emily Provincial Park,PP,705.799.5170,,,300,,E FT DW RS,ON,10.5,E,Kawartha Lakes
-79.87,48.29,ESKE,Esker Lakes Provincial Park,PP,705. 568.7677,,,103,,E FT DW RS,ON,9.8,NE,King Kirkland
-81.44,46.47,FAIR,Fairbank Provincial Park,PP,705. 866.0530,,,160,,E FT DW RS,ON,20.5,W,Greater Sudbury
-81.632,43.718,FALL,Falls Reserve Conservation Area,AUTH,519.524.6429,,,,,,ON,4.4,SE,Goderich
-81.18,43.069,FANS,Fanshawe Conservation Area,AUTH,519.451.2800,,,650,,WE,ON,3.1,SW,Thorndale
-74.995,44.989,FARR,Farran Park,CP,613.537.8600,,,170,,WE DP FT DW SH RS,ON,0.8,S,Ingleside
-77.79,44.29,FERR,Ferris Provincial Park,PP,705.653.3575,,,160,,E FT DW RS,ON,19.7,SE,Warsaw
-79.624,43.223,FIFT,Fifty Point Conservation Area,AUTH,905.525.2187,,,,,,ON,12.3,E,Hamilton
-79.804,47.056,FINL,Finlayson Point Provincial Park,PP,705. 569.3205,,,117,,E FT DW RS,ON,,,
-76.216,45.484,FITZ,Fitzroy Provincial Park,PP,613.623.5159,,,235,,E FT DW NR,ON,25.5,W,Ottawa
-83.914,49.838,FUSH,Fushimi Lake Provincial Park,PP,705.362.4164,,,46,,E FT DW NR,ON,,,
-74.469,45.149,GLEG,Glengarry Park â€“ St. Lawrence,AUTH,613.347.2595,mid may-late sep,,,,WE DP FT DW SH,ON,1.7,E,Lancaster
-81.27,49.18,GREE,Greenwater Provincial Park,PP,705.272.6335,,,66,,E FT DW RS,ON,6.1,NE,Driftwood
-80.559,45.925,GRUN,Grundy Lake Provincial Park,PP,705.383.2286,,,475,,E VT DW RS,ON,47.3,NW,Parry Sound
-80.246,43.608,GUEL,Guelph Lake Conservation Area,AUTH,519.824.5061,,,290,,WE,ON,4.4,N,Guelph
-79.994,42.8,HALD,Haldimand Conservation Area,AUTH,877.990.9938,,,230,,WE,ON,10.6,SW,Haldimand
-81.635,46.906,HALF,Halfway Lake Provincial Park,PP,705. 965.2702,,,215,,E FT DW RS,ON,41.3,NW,Sudbury
-80.938,44.545,HARR,Harrison Park,CP,519.371.9734,,,75,,WE,ON,1.6,S,Owen Sound
-86.293,48.61,HATT,Hattie Cove - Pukaskwa National Park,CNP,807.229.0801,,,67,,E FT NR,ON,,,
-78.168,44.286,HOPE,Hope Mill Conservation Area,AUTH,705.745.5791,,,65,,E,ON,4.2,S,Indian River
-79.635,43.736,INDI,Indian Line Conservation Area,AUTH,800.304.9728,,,245,,WE,ON,10.2,N,Mississauga
-81.58,44.3,INVE,Inverhuron Provincial Park,PP,519. 368.1959,,,125,,E FT DW RS,ON,2.9,NW,Tiverton
-75.317,44.833,IROQ,Iroquois Municipal Campground,CP,613.652.2506,,Walk to beach/swimming/ship locks on St. Lawrence river - right in town near restaurants - paved airstrip for fly in and marina with free visitor slips.,122,,WE DP FT DW SH,ON,1.1,S,iroquois
-82.501,48.175,IVAN,Ivanhoe Lake Provincial Park,PP,705.899.2644,,,120,,E FT DW RS,ON,,,
-89.623,48.403,KAKA,Kakabeka Falls Provincial Park,PP,807. 473.9231,,,169,,E FT DW RS,ON,0.3,W,Kakabeka Falls
-78.441,45.572,KEAR,Kearney Lake - Algonquin Provincial Park,PP,705.633.5572,,,100,,NR,ON,,,
-80.946,44.579,KELS,Kelso Beach,CP,519.371.9734,,,40,,,ON,0.8,N,Owen Sound
-80.889,48.572,KETT,Kettle Lakes Provincial Park,PP,705.363.3511,,,137,,E FT DW RS,ON,21.3,E,Timmins
-81.401,46.015,KILL,Killarney George Lake Provincial Park,PP,705.287.2900,,,126,,E FT DW RS,ON,6.1,NE,Killarney
-80.211,45.356,KILB,Killbear Provincial Park,PP,705.342.5492,,yurts also,881,,E FTVT DW RS,ON,4.3,SW,Carling
-78.876,46.089,KIOS,Kiosk - Algonquin Provincial Park,PP,705.633.5572,,,,,RS,ON,30.6,E,Nipissing
-78.498,45.579,LAKT,Lake of Two Rivers - Algonquin Provincial Park,PP,705.633.5572,,,240,,RS,ON,,,
-78.023,45.32,LAKS,Lake St. Peter Provincial Park,PP,613.338.5312,,,65,,E FTVT DW RS,ON,1,NE,Lake Saint Peter
-80.568,43.491,LAUR,Laurel Creek Conservation Area,AUTH,519.884.6620,,,130,,WE,ON,3,NW,Waterloo
-81.246,44.989,LION,Lions Head Beach Park,CP,519.793.3522,,,35,,,ON,0.4,E,Lions Head
-79.424,42.874,LONB,Long Beach Conservation Area,AUTH,905.899.3462,,,300,,WE,ON,4.2,SW,Wainfleet
-80.404,42.581,LONP,Long Point Provincial Park,PP,519.586.2133,,,256,,E FT DW RS,ON,3.8,SE,Port Rowan
-82.183,42.88,LORN,Lorne C. Henderson Con. Area,AUTH,519.882.2280,,,,,,ON,2,W,Petrolia
-76.129,44.607,LOWE,Lower Beverley Twp Park,CP,613.928.2881,,,150,,WE,ON,3.9,N,Lyndhurst
-81.455,44.415,MACG,MacGregor Point Provincial Park,PP,519.389.9056,,,360,,E FT DW RS,ON,2.6,W,Saugeen Shores
-86.902,49.691,MACL,MacLeod Provincial Park,PP,807.854.0370,,,85,,E FT DW NR,ON,17.8,E,Greenstone
-74.396,45.216,MAPL,Maplewood Acres RV Park,CP,613.347.2130,,,,,,ON,2.4,NE,Bainsville
-79.359,44.587,MARA,Mara Provincial Park,PP,705.326.4451,,,105,,E FTVT DW RS,ON,6.2,S,Longford Mills
-79.805,46.731,MART,Marten River Provincial Park,PP,705.892.2200,,,190,,E FT DW RS,ON,23,S,Temagami
-74.963,44.989,MCLA,McLaren Campsite - St. Lawrence,AUTH,613.534.8202,mid may-late sep,,140,,WE FT DW,ON,4.5,SW,Long Sault
-79.328,44.57,MCRA,McRae Point Provincial Park,PP,705.325.7290,,,203,,E FT DW RS,ON,7.4,S,Longford Mills
-80.568,44.602,MEAF,Meaford Memorial Park,CP,519.538.2530,,,140,,WES,ON,1.3,E,Meaford
-78.516,45.577,MEWL,Mew Lake - Algonquin Provincial Park,PP,705.633.5572,,,130,,RS,ON,,,
-79.51,45.82,MIKI,Mikisew Provincial Park,PP,705.386.7762,,,265,,E FT DW RS,ON,6.4,W,South River
-74.903,45.01,MILR,Mille Roches Campsite - St. Lawrence,AUTH,613.534.8202,early jun-early sep,,215,,WE FT DW,ON,1.5,SW,Long Sault
-82.741,46.587,MISS,Mississagi Provincial Park,PP,705.865.2021,,,90,,NH VT DW RS,ON,,,
-76.237,44.782,MURP,Murphys Point Provincial Park,PP,613.267.5060,,,160,,E FT DW RS,ON,6.4,N,Portland
-84.71,49.46,NAGA,Nagagamisis Provincial Park,PP,807.868.2254,,,107,,NH FTVT DW RS,ON,,,
-79.973,44.352,NEWL,New Lowell Conservation Area,AUTH,705.424.1479,,,,,WE,ON,0.4,S,New Lowell
-86.6,48.74,NEYS,Neys Provincial Park,PP,807.229.1624,,,144,,E FT DW RS,ON,10.1,W,Marathon
-80.269,42.747,NORF,Norfolk Conservation Area,AUTH,877.990.9937,,,160,,WE,ON,6.5,S,Simcoe
-79.963,45.31,OAST,Oastler Lake Provincial Park,PP,705.378.2401,,,148,,E FT DW RS,ON,9,W,Seguin
-85.05,48.34,OBAT,Obatanga Provincial Park,PP,807.822.2592,,,130,,E FT DW RS,ON,20.3,SE,White River
-92.12,49.99,OJIB,Ojibway Provincial Park,PP,807.737.2033,,,45,,E FT DW NR,ON,11.5,SW,Sioux Lookout
-93.431,50.763,PAKW,Pakwash Provincial Park,PP,807.222.3346,,,69,,E FT DW NR,ON,12.3,NW,Ear Falls
-84.681,46.969,PANC,Pancake Bay Provincial Park,PP,705.882.2209,,,325,,E FT DW RS,ON,47.1,S,Algoma
-80.388,43.282,PINH,Pinehurst Lake Conservation Area,AUTH,519.442.4721,,,275,,WE,ON,3.1,E,Ayr
-81.832,43.254,PINE,Pinery Provincial Park,PP,519.243.2220,,,1000,,E FT DW RS,ON,2.9,NE,Lambton Shores
-80.745,43.158,PITT,Pittock Conservation Area,AUTH,519.539.5088,,,250,,WE,ON,4.3,SW,Innerkip
-78.45,45.573,POGL,Pog Lake - Algonquin Provincial Park,PP,705.633.5572,,,285,,RS,ON,,,
-81.715,43.804,POIN,Point Farms Provincial Park,PP,519.524.7124,,,209,,E FT DW RS,ON,,,
-80.813,42.651,PORT,Port Burwell Provincial Park,PP,519.874.4691,,,232,,E FT DW RS,ON,0.7,W,Port Burwell
-77.714,43.995,PRES,Presquile Provincial Park,PP,613.475.4324,,,394,,E FT DW RS,ON,3.5,S,Brighton
-91.123,48.675,QUET,Quetico Dawson Trail Provincial Park,PP,807.597.2735,,,107,,E FT DW RS,ON,,,
-84.826,47.742,RABB,Rabbit Blanket Lake  - Lake Superior Provincial Park,PP,705.856.2284,,,20,,E FT DW RS,ON,6.8,N,Algoma
-87.395,48.838,RANW,Rainbow Falls Ã¢â‚¬â€œ Whitesand Lake Provincial Park,PP,807.824.2298,,,97,,E FT DW RS,ON,5.6,E,Rossport
-82.137,49.419,RENE,Rene Brunelle Provincial Park,PP,705.367.2692,,,88,,E FT DW RS,ON,5.3,N,Moonbeam
-79.76,46.058,REST,Restoule Provincial Park,PP,705.729.2010,,,278,,E FT DW RS,ON,,,
-75.672,45.061,RIDE,Rideau River Provincial Park,PP,613.258.2740,,,184,,E FT DW RS,ON,3.3,NW,Kemptville
-75.071,44.946,RIVE,Riverside/Cedar - St. Lawrence,AUTH,613.543.3287,mid may-late sep,,320,,WE DP FT DW SH,ON,6.4,NE,Morrisburg
-78.408,45.524,ROCL,Rock Lake - Algonquin Provincial Park,PP,705.633.5572,,,120,,RS,ON,17.6,NE,Algonquin Highlands
-79.547,42.846,ROCP,Rock Point Provincial Park,PP,905.774.6642,,,178,,E FT DW RS,ON,5.2,W,Lowbanks
-80.148,43.613,ROCW,Rockwood Conservation Area,AUTH,519.856.9543,,,100,,WE,ON,0.4,SW,Guelph/Eramosa
-81.845,42.32,ROND,Rondeau Provincial Park,PP,519.674.1750,,,262,,E FT DW RS,ON,5,S,Morpeth
-94.234,49.68,RUSH,Rushing River Provincial Park,PP,807. 548.4351,,,217,,E FT DW RS,ON,12.9,SE,Kenora
-78.86,46.283,SAMU,Samuel de Champlain Provincial Park,PP,705.744.2276,,,215,,E FT DW RS,ON,3.1,E,Calvin
-77.26,43.9,SAND,Sandbanks Provincial Park,PP,613.393.3319,,,549,,E FT DW RS,ON,6.9,S,Prince Edward
-91.55,49.46,SANL,Sandbar Lake Provincial Park,PP,807.934.2995,,,74,,E FT DW RS,ON,,,
-81.25,44.68,SAUB,Sauble Falls Provincial Park,PP,519.422.1952,,,152,,E FT DW SH RS,ON,6.9,SW,Wiarton
-81.31,44.347,SAUG,Saugeen Bluffs Conservation Area,AUTH,519.353.7206,,,210,,WE,ON,3.3,NW,Paisley
-79.956,42.812,SELK,Selkirk Provincial Park,PP,905.776.2600,,,142,,E FT DW RS,ON,9,SW,Haldimand
-76.727,44.774,SHAR,Sharbot Lake Provincial Park,PP,613.335.2814,,,185,,E FT DW RS,ON,1.9,W,Sharbot Lake
-83.82,47.862,SHOA,Shoals Provincial Park,PP,705. 864.1160,,,44,1536,NH VT DW NR,ON,,,
-79.32,44.33,SIBB,Sibbald Point Provincial Park,PP,905.722.8061,,,604,,E FTVT DW RS,ON,6.2,E,Georgina
-78.072,44.925,SILE,Silent Lake Provincial Park,PP,613.339.2807,,,167,,NH VT DW RS,ON,6.8,E,Highlands East
-76.575,44.832,SILV,Silver Lake Provincial Park,PP,613.268.2000,,,148,,E FT DW RS,ON,1.7,W,Maberly
-94.047,49.429,SIOU,Sioux Narrows Provincial Park,PP,807. 226.5223,,,71,,E FT DW NR,ON,22.6,N,Sioux Narrows Nestor Falls
-79.769,44.901,SIXM,Six Mile Lake Provincial Park,PP,705.756.2746,,,217,,E FT DW RS,ON,,,
-88.709,48.484,SLEE,Sleeping Giant Provincial Park,PP,807.977.2526,,,200,,E FT DW RS,ON,25.7,E,Thunder Bay
-80.42,45.62,STUR,Sturgeon Bay Provincial Park,PP,705.366.2521,,,81,,E FT DW RS,ON,2.1,S,The Archipelago
-78.719,45.513,TEAL,Tea Lake - Algonquin Provincial Park,PP,705.633.5572,,,40,,RS,ON,,,
-79.957,43.725,TERR,Terra Cotta Conservation Area,CP,,,,137,,,ON,6.2,NE,Halton Hills
-80.65,51.22,TIDE,Tidewater Provincial Park,PP,705. 336.2987,,,20,,NH VT DW NR,ON,3.7,S,Moosonee
-79.81,44.02,TOTT,Tottenham Conservation Area,AUTH,705.424.1479,,,,,,ON,9.6,S,New Tecumseth
-89.19,48.49,TROW,Trowbridge Falls,CP,807.683.6661,,,150,,WE,ON,15.3,E,Murillo
-80.337,42.701,TURK,Turkey Point Provincial Park,PP,519.426.3239,,,235,,E FT DW RS,ON,,,
-75.014,44.963,UPPE,Upper Canada Sanctuary - St. Lawrence,AUTH,613.537.2024,mid may-late oct,,70,,,ON,2.7,SW,Ingleside
-80.144,43.388,VALE,Valens Conservation Area,AUTH,905.525.2183,,,220,,,ON,8.7,E,Cambridge
-74.45,45.56,VOYA,Voyageur Provincial Park,PP,613.674.2825,,,416,,E FT DW RS,ON,,,
-82.864,47.511,WAKA,Wakami Lake Provincial Park,PP,705.233.2853,,,65,,NH VT DW RS,ON,,,
-78.131,44.462,WARS,Warsaw Caves Conservation Area,AUTH,705.745.5791,,,50,,,ON,2.2,N,Warsaw
-81.948,42.997,WARW,Warwick Conservation Area,AUTH,519.849.6770,,,80,,WE,ON,4.9,NW,Watford
-80.317,42.931,WATE,Waterford North Conservation Area,AUTH,519.443.0571,,,,,,ON,18.9,N,Saint Williams
-81.466,43.828,WAWA,Wawanosh Park Conservation Area,AUTH,519.524.6429,,,,,,ON,5,NE,Auburn
-82.444,42.093,WHEA,Wheatley Provincial Park,PP,519.825.4659,,,220,,E FT DW RS,ON,1,E,Wheatley
-85.648,48.72,WHIL,White Lake Provincial Park,PP,807.822.2447,,,187,,E FT DW RS,ON,2.6,N,Mobert
-81.068,43.267,WILD,Wildwood Conservation Area,AUTH,519.284.2931,,,460,,WE,ON,,,
-81.441,46.619,WIND,Windy Lake Provincial Park,PP,705.966.2315,,,93,,E FT DW RS,ON,1.5,W,Onaping
-74.947,44.997,WOOD,Woodlands Campsite - St. Lawrence,AUTH,800.437.2233,mid may-late aug,,170,,WE FT DW,ON,3.6,SW,Long Sault
-62.582,46.202,BRUD,Brudenell River Provincial Park,PP,902.652.8966,,,25,,WES FT DW RS,PE,2.6,NW,Georgetown
-63.706,46.558,CABO,Cabot Beach Provincial Park,PP,902.836.8945,,,170,,WES FT DW RS,PE,2.6,N,Lot 18
-63.406,46.499,CAVE,Cavendish -  Prince Edward Island National Park,CNP,902.672.6350,,,300,,RS,PE,0.9,N,Green Gables
-64.381,46.623,CEDA,Cedar Dunes Provincial Park,PP,902.859.8785,,,60,,WE FT DW RS,PE,9.3,SW,Oleary
-63.89,46.591,GREE,Green Park Provincial Park,PP,902.831.7912,,,60,,WES FT DW RS,PE,2.1,NE,Tyne Valley
-63.99,46.979,JACQ,Jacques Cartier Provincial Park,PP,902.853.8632,,,80,,WES FT DW RS,PE,2.8,NE,Tignish
-63.856,46.399,LINK,Linkletter Provincial Park,PP,902.888.8366,,,90,,WES FT DW RS,PE,3.2,W,Summerside
-62.912,46.095,LORD,Lord Selkirk Provincial Park,PP,902.659.7221,,,80,,WE FT DW RS,PE,1.9,NW,Belfast
-64.179,46.75,MILL,Mill River Provincial Park,PP,902.859.8786,,,75,,WES FT DW RS,PE,4,E,Bloomfield Station
-62.72,45.965,NORT,Northumberland Provincial Park,PP,902.962.7418,,,50,,WES FT DW RS,PE,5.4,E,Belle River
-62.47,46.12,PANM,Panmure Island Provincial Park,PP,902.838.0668,,,45,,WE FT DW RS,PE,5.4,SE,Georgetown
-62.134,46.369,REDP,Red Point Provincial Park,PP,902.357.3075,,,130,,WES FT DW RS,PE,6,SW,Elmira
-62.601,46.415,STPE,St. Peters Community Park,CP,902.961.2786,,,70,,,PE,1,W,Saint Peters Bay
-63.107,46.42,STAN,Stanhope -  Prince Edward Island National Park,CNP,902.672.6350,,,125,,RS,PE,,,
-71.17,45.975,BAIA,Baie aux Rats Musques - Frontenac Provincial Park,PP,418.486.2300,,,57,,FT RS,QC,,,
-74.001,46.425,BAIM,Baie des Maries - Mont Tremblant Provincial Park,PP,,,,,,VT,QC,,,
-70.243,48.197,BAIE,Baie Eternite - Saguenay Provincial Park,PP,877.272.5224,,,84,,RS,QC,3.2,SW,Lanse-Saint-Jean
-74.237,50.27,BAIP,Baie Penicouane - Albanel Mistassini Reserve,PR,418.748.7748,,,25,,WE NR,QC,,,
-71.166,45.814,BAIS,Baie Sauvage - Frontenac Provincial Park,PP,418.486.2300,,,200,,RS,QC,4,NW,Saint-Romain
-71.717,48.24,BELR,Belle Riviere - Laurentides Reserve,PR,418.864.2161,,,30,,NH RS,QC,,,
-68.764,48.352,BICP,Bic Provincial Park,PP,418.736.5035,,,110,,FT RS,QC,12.7,SW,Rimouski
-64.224,48.815,CAPB,Cap Bon Ami - Forillon National Park,CNP,418.368.5505,,,41,,FT RS,QC,40,SE,Cloridorme
-74.2,45.26,COTE,Coteau Landing,PP,514.267.1511,,,144,,E NR,QC,0.4,E,Les Coteaux
-64.224,48.829,DESR,Des Rosiers - Forillon National Park,CNP,418.368.5505,,,155,,FT RS,QC,,,
-66.791,48.676,ETAN,Etang a la Truite - Matane Reserve,PR,418.562.3700,,,20,,WE RS,QC,18.3,SE,Saint-Jean-De-Cherbourg
-74.056,46.465,GRAN,Grand Pin - Mont Tremblant Provincial Park,PP,,,,,,RS,QC,,,
-70.16,47.668,HAUT,Haute Gorges de la Riveire Malbaie,PP,418.439.1227,,,,,VT RS,QC,0.9,NW,La Malbaie
-67.275,48.647,JOHN,John - Matane Reserve,PR,418.224.3345,,,15,,NH RS,QC,18,SE,Saint-RenÃ©-De-Matane
-72.766,47.457,TUQU,La Tuque Municipal Park,CP,819.523.4561,,,425,,WE FT,QC,1.5,NE,La Tuque
-73.017,51.074,LAAL,Lac Albanel - Albanel Mistassini Reserve,PR,,,,45,,RS,QC,,,
-70.777,47.664,LACA,Lac Athrabaska - Grande Jardins Provincial Park,PP,418.439.1227,,,35,2319,FT RS,QC,13.2,NW,Saint-Urbain-De-Charlevoix
-74.307,46.431,LACR,Lac aux Rats - Mont Tremblant Provincial Park,PP,,,,11,,VT RS,QC,,,
-72.391,46.869,LAAU,Lac aux Sables - Mastigouche Reserve,PR,,,,,,RS,QC,0.5,N,Lac-Aux-Sables
-72.231,47.193,LABE,Lac Bellevue - Portneuf Reserve,PR,,,,50,,RS,QC,7.6,W,Linton
-66.316,48.936,LACC,Lac Cascapedia - Gaspesie Provincial Park,PP,888.727.2427,,,49,1740,FT RS,QC,18.3,S,Cap-Au-Renard
-74.175,49.508,LARR,Lac Charron - Ashuapmushuan Reserve,PR,,,primitive,10,,RS,QC,36,NW,Lac-Ashuapmushuan
-74.526,46.309,LACH,Lac Chat - Mont Tremblant Provincial Park,PP,819.688.2281,,,36,,VT RS,QC,,,
-73.586,49.142,LACG,Lac Chigoubiche - Ashuapmushuan Reserve,PR,418.256.3806,,,30,,NH RS,QC,0.8,S,Lac-Ashuapmushuan
-73.703,46.702,LACB,Lac de la Bouteille - Mastigouche Reserve,PR,,,,,,RS,QC,12.3,E,Saint-Michel-Des-Saints
-76.222,46.78,LACV,Lac de la Vieille - La Verendrye Reserve,PR,819.438.2017,,,78,,WE RS,QC,29.3,N,Lac-Pythonga
-74.406,46.429,LADS,Lac des Sables - Mont Tremblant Provincial Park,PP,,,,26,1638,VT RS,QC,,,
-74.652,46.475,LASU,Lac des Sucreries - Rouge Matawin Reserve,PR,819.275.1811,,,160,,WE RS,QC,9,NE,La Macaza
-73.11,46.967,LACD,Lac Dunbar - Saint Maurice Reserve,PR,819.646.5687,,,,,RS,QC,9.6,SE,Lac-Normand
-75.459,45.938,LAEC,Lac Echo - Papineau Labelle Reserve,PR,819.454.2011,,,55,,NH NW RS,QC,3.1,NE,Val-Des-Bois
-74.477,46.432,LACE,Lac Escalier - Mont Tremblant Provincial Park,PP,,,,90,,VT RS,QC,,,
-72.171,45.38,LACF,Lac Fraser - Mont Orford Provincial Park.,PP,800.665.6527,,,149,,FT RS,QC,4.5,N,Orford
-74.171,46.473,LAGI,Lac Girondin - Mont Tremblant Provincial Park,PP,,,,,,VT RS,QC,,,
-70.779,48.002,LAHA,Lac Ha Ha Municipal Park Ã‚Â ,CP,418.676.2373,,,70,,,QC,7.5,S,Ferland-Et-Boilleau
-74.343,46.434,LAHE,Lac Herman - Mont Tremblant Provincial Park,PP,,,,15,1671,VT RS,QC,,,
-73.178,46.985,LACI,Lac Inman - Saint Maurice Reserve,PR,819.646.5687,,,,,RS,QC,6.9,SE,Lac-Normand
-75.198,46.313,LAJO,Lac Joinville - Papineau Labelle Reserve,PR,819.454.2011,,,55,,NH NW RS,QC,9.6,SW,Nominingue
-74.284,46.421,LALA,Lac Lajoie - Mont Tremblant Provincial Park,PP,819.424.7012,,,12,,VT RS,QC,,,
-78.691,48.433,LAMT,Lac Matissard - Aiguebelle Provincial Park,PP,819.637.7322,,,53,,FT RS,QC,4.5,N,Mont-Brun
-74.504,46.34,LAME,Lac Monroe (East) - Mont Tremblant,PP,819.688.2281,,multiple campgrounds,,,VT RS,QC,,,
-74.508,46.332,LAMW,Lac Monroe (West) - Mont Tremblant,PP,819.688.2281,,multiple campgrounds,,,VT RS,QC,,,
-73.255,47.083,LACN,Lac Normand - Saint Maurice Reserve,PR,819.646.5687,,,70,,E RS,QC,1,NW,Lac-Normand
-76.007,45.602,LACP,Lac Phillipe - Gatineau Park,PP,819.456.3016,,,246,,WE FT NR,QC,,,
-74.275,46.404,LAPR,Lac Provost - Mont Tremblant Provincial Park,PP,819.424.7012,,multiple campgrounds,46,,FT RS,QC,,,
-76.731,47.228,LARA,Lac Rapide - La Verendrye Reserve,PR,819.438.2017,,,92,,NH RS,QC,,,
-68.211,48.017,LARI,Lac Rimouski - Rimouski Reserve,PR,418.735.5672,,,20,,WE RS,QC,,,
-73.322,46.562,LASB,Lac Sainte Bernard - Mastigouche Reserve,PR,819.265.6055,,,100,,NH RS,QC,,,
-74.505,46.515,LASN,Lac Savane Nord - Mont Tremblant Provincial Park,PP,,,,17,,VT RS,QC,,,
-74.51,46.506,LASO,Lac Savane Ouest - Mont Tremblant Provincial Park,PP,,,,13,,VT RS,QC,,,
-76.4,46.757,LASA,Lac Savary - La Verendrye Reserve,PR,819.438.2017,,,57,,WE RS,QC,26.1,N,Lac-Pythonga
-72.239,45.361,LACS,Lac Stukely - Mont Orford Provincial Park.,PP,800.665.6527,,,334,,FT RS,QC,5.6,NE,Eastman
-67.134,50.142,LAWA,Lac Walker - Port Cartier Reserve,PR,418.766.4743,,,50,,WE RS,QC,,,
-71.104,48.635,LOAS,LOasis Municipal Park,CP,418.673.3066,,,60,,,QC,1,N,Saint-David-De-Falardeau
-74.253,46.34,LOUR,Lours - Mont Tremblant Provincial Park,PP,819.688.2281,,,58,,FT RS,QC,2.1,NW,Saint-Donat-De-Montcalm
-71.225,47.559,LOUT,Loutre - Laurentides Reserve,PR,418.846.2201,,,125,2629,WE RS,QC,,,
-66.125,48.947,MONA,Mont Albert - Gaspesie Provincial Park,PP,888.727.2427,,,122,,FT RS,QC,17.9,S,La Martre
-71.074,45.39,MONM,Mont Megantic Provincial Park,PP,819.888.2941,,,13,1803,RS,QC,2.4,NW,Notre-Dame-Des-Bois
-74.046,45.47,OKAP,Oka Provincial Park,PP,450.479.8365,,5 campgrounds,855,,FT RS,QC,1.7,E,Oka
-72.615,45.431,YAMA,Parc National de la Yamaska,PP,450.776.7182,mid may - mid oct,good bike trails-swimming,169,,E DP FT DW SH RS,QC,6.1,E,Granby
-64.258,48.81,PETI,Petite Gaspe - Forillon National Park,CNP,418.368.5505,,,171,,FT RS,QC,39,SE,Cloridorme
-70.621,47.65,PIED,Pied des Monts - Grande Jardins Provincial Park,PP,418.439.1227,,,,,RS,QC,7.4,NW,Saint-Urbain-De-Charlevoix
-65.469,48.022,PLAG,Plage Beaubassin Municipal Park,CP,418.534.3246,,,250,,WE FT,QC,2.1,S,Bonaventure
-75.066,45.601,PLAI,Plaisance Provincial Park,PP,819.427.5334,,,150,,RS,QC,,,
-71.872,48.686,POIT,Pointe Taillon Provincial Park,PP,413.347.5371,,,80,,VT RS,QC,2.7,NW,Taillon
-64.968,48.247,PORD,Port Daniel Reserve,PR,418.396.2789,,,40,,WES RS,QC,4.6,N,Port-Daniel-Gascons
-72.813,46.752,RIVI,Riviere a la Peche - La Mauricie National Park,CNP,819.538.3232,,,254,,FT RS,QC,13.6,N,Shawinigan
-74.508,46.262,SABL,Sablonniere - Mont Tremblant Provincial Park,PP,819.688.2281,,,51,,RS,QC,,,
-72.56,48.772,STFE,St. Felicien Municipal Park,CP,418.679.1719,,,285,,WE FT,QC,8.8,S,Saint-Edmond-Les-Plaines
-74.983,46.509,STVE,St. Veronique Municipal Park,CP,819.275.2155,,,185,,WE FT,QC,7.8,SW,Lascension
-71.329,47.04,STON,Stoneham,CP,418.848.2233,,,260,,WES,QC,8.1,S,Stoneham-Et-Tewkesbury
-72.491,45.908,VOLT,Voltigeurs,CP,819.477.1360,,,271,,WE FT,QC,1.9,N,Drummondville
-73.043,46.734,WAPI,Wapizagonke - La Mauricie National Park,CNP,819.538.3232,,,219,,FT RS,QC,,,
-102.275,49.267,ALAM,Alameda Campground,CP,,,,,,WES DP FT DW SH,SK,,,Alameda
-105.946,53.714,ANDE,Anderson Point  - Anglin Lake Provincial Rec Site,PP,306.982.6250,,,60,1704,NR,SK,15.5,S,Waskesiu Lake
-108.413,50.28,ANTE,Antelope Lake Regional Park,CP,306.672.3933,early may-mid oct,,60,2400,E DP FT DW SH,SK,,,GullLake
-101.682,52.831,ARMI,Armit Riser  Provincial Rec Site,PP,,,,,,NR,SK,29.5,E,Hudson Bay
-108.859,52.835,ATTO,Attons Lake Regional Park,CP,306.398.2814,,,105,1750,,SK,,,
-104.622,54.103,BALD,Baldy Lake  - Narrow Hills Provincial Park,PP,306.426.2622,,,,1962,NR,SK,35.2,NE,Candle Lake
-108.388,53.128,BATT,Battlefords Provincial Park,PP,306.386.2212,,,317,1818,RS,SK,3.8,NW,Cochin
-107.875,54.516,BEAT,Beatty Lake Provincial Park,PP,,,,,,NR,SK,15.9,N,Green Lake
-106.073,53.927,BEAG,Beaver Glen  - Prince Albert National Park,CNP,306.663.4522,,,215,1814,RS,SK,0.4,NE,Waskesiu Lake
-107.856,54.427,BEAV,Beaver/Cowan River  - Cowan River Provincial Park,PP,,,,,1508,NR,SK,9.8,N,Green Lake
-105.132,49.384,BENG,Bengough Regional Park,CP,306.268.2909,,,34,2270,,SK,,,
-105.967,50.468,RECA,Besant Provincial Rec Site,PP,,,,,1967,NR,SK,4,W,Caron
-107.024,53.839,BIGR,Big River Regional Park,CP,,early may-mid sep,,40,1600,WES DP FT DW SH,SK,,,Big River
-107.166,53.226,BIGS,Big Shell Lake  - Shell Lake Provincial Park,PP,,,,,1924,NR,SK,22.7,NE,Mullingar
-106.451,51.756,BLAC,Blackstrap Provincial Park,PP,306.492.5675,,,50,1953,NR,SK,4.4,SE,Dundurn
-107.142,52.376,BORD,Borden Bridge  Provincial Rec Site,PP,,,,,1517,NR,SK,4.6,SE,Borden
-108.853,53.645,BRIG,Brightsand Lake  Provincial Rec Site,PP,,,,,2087,NR,SK,11.9,NE,Spruce Lake
-105.396,50.587,BUFF,Buffalo Pound  Provincial Park,PP,306.694.3229,,,180,1664,RS,SK,13.8,S,Findlater
-102.431,51.641,CANR,Canora Town Park,CP,306.563.4355,,,11,1593,,SK,,,
-106.545,53.363,CANW,Canwood Regional Park,CP,306.468.2663,,,,1755,,SK,,,
-107.76,53.753,CHIT,Chitek Lake Provincial Rec Site,PP,,,,,1866,NR,SK,1,W,Chitek Lake
-101.893,50.892,CHUT,Churchbridge Town Park,CP,306.896.2240,,,33,1735,,SK,,,
-109.843,54.565,COLD,Cold Lake - Meadow Lake Provincial Park,PP,306.236.7680,,,,1743,NR,SK,15.6,N,Pierceland
-106.944,51.31,COLW,Coldwell Provincial Rec Site,PP,,,,,1631,NR,SK,6.2,E,Macrorie
-107.25,54,COWA,Cowan Dam  - Cowan Lake Provincial Park,PP,,,,,1627,NR,SK,14.5,NW,Big River
-105.791,51.063,CRAI,Craik and District Regional Park,CP,306.734.5102,,,49,1862,,SK,,,
-102.676,50.608,CROO,Crooked Lake Provincial Park,PP,306.728.7480,,,72,1507,NR,SK,12.5,SE,Killaly
-107.606,51.707,CRYS,Crystal Beach Regional Park,CP,306.656.2134,,,20,1843,,SK,,,
-106.821,51.261,DANI,Danielson  Provincial Park,PP,306.857.5500,,,92,1870,RS,SK,9.8,W,Loreburn
-108.243,52.751,DAVL,David Laird City Park,CP,306.445.3552,,,60,1714,,SK,,,
-105.987,51.268,DAVI,Davidson City Park,CP,306.567.2908,,,38,2016,,SK,,,
-102.078,54.659,DENA,Denare Beach  Provincial Rec Site,PP,,,,,,NR,SK,0.1,SE,Denare Beach
-104.732,55.636,DEVI,Devils Lake Provincial Rec Site,PP,,,,,,NR,SK,,,
-106.409,50.994,DOUG,Douglas Provincial Park,PP,306.854.6266,,,149,1868,RS,SK,9.9,NW,Tugaske
-102.949,53.836,DRAG,Dragline Channel Provincial Rec SIte,PP,,,,,,NR,SK,,,
-101.614,51.656,DUCK,Duck Mountain  Provincial Park,PP,306.542.5500,,,466,1992,RS,SK,16.4,S,Arran
-103.341,53.689,EBCA,E. B. Campbell Provincial Park,PP,,,,,,NR,SK,,,
-105.003,54.353,EAST,East Trout Lake Provincial Rec Site,PP,,,,,1660,NR,SK,,,
-103.886,50.782,ECHO,Echo Valley Provincial Park,PP,306.332.3215,,,308,1882,RS,SK,4.6,W,Fort Quappelle
-108.76,50.968,ESTO,Eston Riverside Regional Park,CP,306.962.4899,early may-late sep,,90,1900,WES DP FT DW SH,SK,,,Eston
-105.301,51.233,ETTE,Etters Beach Provincial Park,PP,,,,,1612,NR,SK,6.1,E,Stalwart
-108.493,54.627,FLOT,Flotten Lake - Meadow Lake Provincial Park,PP,306.236.7680,,,,1784,NR,SK,8.1,NW,Waterhen Lake
-103.538,51.633,FOAM,Foam Lake City Park,CP,306.272.3359,early may-late sep,,30,1800,E DP FT DW,SK,,,Foam Lake
-103.964,57.733,GEIK,Geikie River Provincial Park,PP,,,,,,NR,SK,,,
-107.701,52.497,GLEN,Glenburn Regional Park,CP,306.389.4700,mid may-mid sep,,50,,WE  DP FT DW SH,SK,,,Maymont
-102.675,51.505,GOOD,Good Spirit lake  Provincial Park,PP,306.792.4750,,,215,1611,RS,SK,12,NE,Theodore
-102.522,54.857,GRAN,Granite Lake Provincial Rec Site,PP,,,,,,NR,SK,,,
-102.686,52.847,GREB,Greenbush River  Provincial Rec Site,PP,,,,,,NR,SK,12.5,W,Hudson Bay
-103.524,52.496,GREE,Greenwater Lake  Provincial Park,PP,306.278.3516,,,186,1790,RS,SK,9.8,SW,Chelan
-108.694,54.446,GREI,Greig Lake  - Meadow Lake Provincial Park,PP,306.236.7680,,,,1601,NR,SK,21.8,E,Goodsoil
-102.94,50.413,GREN,Grenfell Regional Park,CP,306.697.3055,,,50,2000,WES DP 30ft FT DW,SK,,,Grenfell
-102.865,54.677,HANS,Hanson Lake Provincial Rec Site,PP,800.772.4064,,,,,NR,SK,,,
-103.805,58.097,HIDD,Hidden Bay  - Wollaston Lake Provincial Park,PP,,,,,,NR,SK,,,
-109.795,54.485,HIRT,Hirtz Lake  - Meadow Lake Provincial Park,PP,306.236.7680,,,,1772,NR,SK,9.8,N,Pierceland
-109.65,54.484,HOWE,Howe Bay- Meadow Lake Provincial Park,PP,306.236.7680,,,,1739,NR,SK,11,NE,Pierceland
-102.373,52.826,HUDS,Hudson Bay Regional Park,CP,306.865.4144,early may-mid oct,,40,,E DP FT DW SH,SK,,,Hudson Bay
-104.66,54,ISPU,Ispuchaw and Zeden Lake  - Narrow Hills Provincial Park,PP,306.426.2622,,,,1726,NR,SK,29.5,NE,Candle Lake
-102.829,54.889,JANL,Jan Lake  Provincial Rec Site,PP,,,,,,NR,SK,,,
-108.803,54.41,KIMB,Kimball Lake - Meadow Lake Provincial Park,PP,306.236.7680,,,,1576,NR,SK,8,NW,Dorintosh
-109.14,51.459,KIND,Kindersley Regional Park,CP,306.463.2788,,,,2233,,SK,,,
-104.192,52.576,KIPA,Kipabiskau Regional Park,CP,306.873.4335,early may-late sep,,50,1700,WES DP 30ft FT DW SH,SK,,,Pleasantdale
-107.512,55.171,LACL,Lac la Plonge Provincial Park,PP,,,,,,NR,SK,,,
-107.893,50.003,LACP,Lac Pelletier Regional Park,CP,306.627.3595,mid may-mid sep,,180,2784,E DP FT DW SH,SK,,,SwiftCurrent
-105.208,51.354,LAST,Last Mountain Regional Park,CP,306.484.4483,,,148,1603,,SK,,,
-102.648,54.844,LEAF,Leaf Rapids  Provincial Rec Site,PP,,,,,,NR,SK,,,
-109.128,51.022,LEMS,Lemsford Ferry Regional Park,CP,306.623.4638,,Take ferry if coming from the north,60,1800,E FT DW,SK,,,Lemsford
-104.662,54.301,LITB,Little Bear Lake  Provincial Rec Site,PP,,,,,2050,NR,SK,,,
-109.566,53.856,LITF,Little Fishing Lake  - Bronson Rec Site,PP,,,,,2012,NR,SK,12.9,S,Whelan
-108.259,53.356,LITT,Little Loon Regional Park,CP,306.342.2176,early may-late sep,,50,2300,E DP FT DW SH,SK,,,Parkdale
-104.621,54.029,LOWN,Lower Fishing Lake  - Narrow Hills Provincial Park,PP,306.426.2622,,,,1602,NR,SK,32,NE,Candle Lake
-109.937,52.326,MACK,Macklin Lake Regional Park,CP,,early may-mid oct,,120,2200,WES DP FT DW,SK,,,Macklin
-105.984,54.212,MACL,MacLennan River Provincial Rec Site,PP,,,,,1714,NR,SK,,,
-109.189,54.032,MAKW,Makwa Lake Provincial Park,PP,306.837.2410,,,,1709,RS,SK,1.3,W,Loon Lake
-105.451,51.717,MANI,Manitou  Regional Park,CP,,early may-mid oct,,210,1800,WS DP FT DW SH,SK,,,Manitou Beach
-109.526,49.975,MAPL,Maple Creek Provincial Rec Site,PP,,,,,,NR,SK,5.1,NW,Maple Creek
-106.996,53.01,MART,Martins Lake Regional Park,CP,306.466.4438,,,62,1803,,SK,,,
-108.924,54.416,MATH,Matheson Lake - Meadow Lake Provincial Park,PP,306.236.7680,,,,1565,NR,SK,12.4,E,Goodsoil
-104.58,52.856,MELF,Melfort  Regional Park,CP,306.752.5560,mid may-mid sep,,40,,E DP FT DW,SK,,,Melfort
-107.054,53.3,MEMO,Memorial Lake Regional Park,CP,306.427.2281,mid apr-mid oct,,150,1900,WE DP FT DW SH,SK,,,ShellLake
-107.233,54.688,MICH,Michel Point  - Dore Lake Provincial Park,PP,,,,,1557,NR,SK,,,
-109.652,54.017,MINI,Ministikwan Lake  Provincial Rec Site,PP,,,,,1870,NR,SK,,,
-105.159,53.777,MINO,Minowukaw Beach  - Candle Lake Provincial Park,PP,306.929.8400,,,,1627,NR,SK,4.1,NE,Candle Lake
-104.778,55.593,MISN,Missinipe  - Lac La Ronge Provincial Park,PP,,,,,,NR,SK,0.7,S,Missinipe
-109.057,54.457,MIST,Mistohay Lake - Meadow Lake Provincial Park,PP,306.236.7680,,,,1746,NR,SK,8,NE,Goodsoil
-102.327,49.829,MOOM,Moose Mountain Provincial Park,PP,306.577.2600,,,359,2467,NR,SK,1.9,W,Kenosee Lake
-101.721,50.078,MOOS,Moosomin Regional Park,CP,306.435.3531,mid may-mid sep,,90,1900,E DP FT DW SH,SK,,,Moosomin
-109.378,54.472,MURR,Murray Doell  - Meadow Lake Provincial Park,PP,306.236.7680,,,,1657,NR,SK,18.4,NE,Pierceland
-105.929,53.606,MURP,Murray Point  - Emma Lake Provincial Rec Site,PP,306.982.2002,,,169,1745,NR,SK,5.2,NW,Christopher Lake
-106.056,53.84,NAME,Namekus Lake  - Prince Albert National Park,CNP,306.663.4522,,,20,1736,NR,SK,5.8,S,Waskesiu Lake
-106.295,53.979,NARR,Narrows  - Prince Albert National Park,CNP,306.663.4522,,,85,1781,NR,SK,9.5,NW,Waskesiu Lake
-105.366,55.268,NEME,Nemeiben Lake  - Lac La Ronge Provincial Park,PP,306.425.4234,,,236,,RS,SK,,,
-106.773,53.929,NESS,Nesslin Lake  - Prince Albert National Park,CNP,306.663.4522,,,,1755,NR,SK,12.4,NE,Big River
-103.779,49.594,NICK,Nickle Lake Regional Park,CP,306.842.7522,mid may-mid sep,,190,1900,WES DP FT DW SH,SK,,,Weyburn
-103.999,53.395,NIPA,Nipawin Regional Park,CP,306.862.3237,early may-mid oct,,140,,WES DP FT DW SH,SK,,,Nipawin
-107.494,49.751,NIPA,Nipawin Regional Park,CP,,mid may-late sep,,30,,WES DP FT DW SH,SK,,,Ponteix
-105.757,53.225,NISB,Nisbet Provincial Rec Site,PP,,,,,,NR,SK,11.2,S,Spruce Home
-105.008,51.513,NOKO,Nokomis  City Park,CP,306.528.2010,,,20,1709,,SK,,,
-105.919,53.72,NORT,North  - Anglin Lake Provincial Rec Site,PP,,,,,1707,NR,SK,15.5,SE,Waskesiu Lake
-103.297,56.339,NORV,Norvil Olson- Reindeer Lake Provincial Park,PP,,,,,,NR,SK,,,
-107.495,49.752,NOTU,Notukeu Regional Park,CP,306.625.3587,,,30,,,SK,,,
-105.251,55.116,NUTP,Nut Point  - Lac La Ronge Provincial Park,PP,306.425.4234,,,87,,NR,SK,1.5,E,La Ronge
-104.913,49.569,OGEM,Ogema Regional Park,CP,306.459.2709,mid may-mid sep,,40,,E FT DW,SK,,,Ogema
-103.81,49.164,OUNG,Oungre Memorial Park,CP,306.456.2531,,,80,2000,E DP FT DW SH,SK,,,Oungre
-107.068,51.482,OUTL,Outlook and District Regional Park,CP,306.867.8846,,,50,1661,,SK,,,
-106.947,50.886,PALL,Palliser Regional Park,CP,306.353.4604,early may-mid oct,,300,1900,WES DP FT DW SH,SK,,,Riverhurst
-102.188,52.374,PARR,Parr Hill Lake Provincial Rec Site,PP,,,,,1606,NR,SK,24.9,NE,Endeavour
-103.581,53.188,PASQ,Pasquia Regional Park,CP,306.768.3239,,,85,,,SK,,,
-109.585,54.023,PECK,Peck Lake  - Bronson Forest Provincial Rec Site,PP,,,,,1875,NR,SK,,,
-103.695,53.556,PEMM,Pemmican Point Provincial Rec Site,PP,,,,,,NR,SK,20,E,Love
-106.817,51.889,PIKE,Pike Lake Provincial Park,PP,306.933.6966,,,206,1604,RS,SK,0.7,S,Pike Lake Provincial Park
-104.91,54.156,PIPR,Piprell Lake  Provincial Rec Site,PP,,,,,1994,NR,SK,,,
-109.926,49.601,CYPR,Ranger Station - Cypress Hills Interprov. Park,PP,,,,,,RS,SK,17.2,S,Maple Creek
-107.217,52.713,REDB,Redberry Lake Regional Park,CP,306.549.4612,mid may-late sep,,80,1700,E DP FT DW SH,SK,,,Hafford
-102.359,53.539,RICE,Rice River Provincial Rec Site,PP,,,,,,NR,SK,11.8,E,Pakwaw Lake
-102.751,49.074,ROCH,Roche Percee  Provincial Rec Site,PP,,,,,1743,NR,SK,5.4,SE,Bienfait
-105.851,49.196,ROCK,Rockin Beach Regional Park,CP,306.476.2388,,,,2657,,SK,,,
-105.174,50.993,ROWA,Rowans Ravine  Provincial Park,PP,306.725.5200,,,298,1627,NR,SK,9.5,N,Dilke
-102.35,52.96,RUBY,Ruby Lake Provincial Rec Site,PP,,,,,,NR,SK,7.3,N,Hudson Bay
-102.157,54.442,SANA,Sand Beach  - Amisk Lake Provincial Park,PP,,,,,,NR,SK,,,
-106.069,53.638,SANL,Sandy (Halkett) Lake  - Prince Albert National Park,CNP,306.663.4522,,,30,1770,NR,SK,19.7,S,Waskesiu Lake
-105.336,53.801,SANB,Sandy Bay  - Candle Lake Provincial Park,PP,306.929.8400,,,,1642,NR,SK,4.9,NW,Candle Lake
-109.74,54.486,SAND,Sandy Beach- Meadow Lake Provincial Park,PP,306.236.7680,,,,1640,NR,SK,10,N,Pierceland
-108.081,50.679,SASK,Saskatchewan Landing Provincial Park,PP,306.375.5527,,,279,1808,RS,SK,12,NE,Pennant Station
-102.078,54.692,SAWM,Sawmill Bay  - Amisk Lake Provincial Park,PP,,,,,,NR,SK,2.2,N,Denare Beach
-106.46,50.057,SHAM,Shamrock Regional Park,CP,306.394.4269,,,100,2200,E DP FT DW SH,SK,,,Shamrock
-106.002,53.672,SPRU,Spruce River  - Anglin Lake Provincial Rec Site,PP,,,,,1700,NR,SK,10.4,NW,Christopher Lake
-101.812,54.28,STUR,Sturgeon Weir Provincial Rec Site,PP,,,,,,NR,SK,,,
-109.777,52.801,SUFF,Suffern Lake Regional Park,CP,306.826.5410,early apr-late oct,,30,2100,E DP FT DW SH,SK,,,Senlac
-108.671,56.042,TAYL,Taylor Lake  - Buffalo Narrows Provincial Park,PP,306.235.1740,,,,,NR,SK,,,
-106.568,49.771,THOM,Thomson Lake Regional Park,CP,306.472.3752,early may-late sep,,190,,WES DP FT DW SH,SK,,,Lafleche
-109.027,52.745,TOMA,Tomahawk City Park,CP,306.398.2345,,,19,2089,,SK,,,
-101.728,52.483,TOWN,Townsend Lake  - Woody River Provincial Rec Site,PP,,,,,2269,NR,SK,36.6,NE,Danbury
-106.015,53.787,TRAP,Trappers Lake  - Prince Albert National Park,CNP,,,,,1728,NR,SK,9.8,S,Waskesiu Lake
-102.14,54.861,TYRR,Tyrrell Lake Provincial Park,PP,,,,,,NR,SK,,,
-109.203,52.436,UNIT,Unity and District Regional Park,CP,306.228.2621,,,15,2112,,SK,,,
-106.305,52.68,VALL,Valley Regional Park,CP,306.232.5000,mid apr-late sep,,60,1700,E DP FT DW SH,SK,,,Rosthern
-108.91,54.41,VIVI,Vivian Lake - Meadow Lake Provincial Park,PP,306.236.7680,,,,1581,NR,SK,12,W,Dorintosh
-105.184,55.267,WADB,Waden Bay - Lac La Ronge Provincial Park,PP,,,,,,NR,SK,,,
-105.184,55.267,WADI,Wadin Bay  - Lac La Ronge Provincial Park,PP,306.425.4234,,,236,,RS,SK,,,
-105.605,52.664,WAKA,Wakaw Lake Regional Park,CP,306.233.5744,early may-late sep,,240,1700,WES DP 35ft FT DW SH,SK,,,Wakaw
-105.185,52.27,WALD,Waldsea Lake Regional Park,CP,306.682.3528,mid may-late sep,,20,1800,WES DP FT DW SH,SK,,,Humboldt
-104.467,53.259,WAPI,Wapiti Provincial Rec Site,PP,,,,,,NR,SK,18.2,W,Codette
-108.468,54.513,WATE,Waterhen Lake- Meadow Lake Provincial Park,PP,306.236.7680,,,,1573,NR,SK,2.2,W,Waterhen Lake
-105.981,54.456,WEYA,Weyakwin Lake Provincial Rec Site,PP,,,,,1966,NR,SK,7.5,W,Weyakwin
-103.853,49.656,WEYB,Weyburn River Park,CP,,,,40,1900,WE DP FT DW,SK,,,Weyburn
-102.895,51.494,WHIT,White Sand Regional Park,CP,306.647.2191,early may-mid sep,,40,1600,WES DP FT DW SH,SK,,,Theodore
-105.09,54.021,WHIT,Whiteswan Lake Provincial Rec Site,PP,,,,,2109,NR,SK,,,
-108.699,52.405,WILK,Wilkie Regional Park,CP,306.843.2342,early may-late aug,,40,2200,E DP FT DW SH,SK,,,Wilkie
-106.376,49.318,WOOD,Wood Mountain Regional Park,CP,306.266.4249,mid may-mid sep,,120,,WES DP FT DW SH,SK,,,OldPost
-102.98,49.118,WOOD,Woodlawn Regional Park,CP,306.634.2324,early may-late sep,,100,1800,WES DP FT DW SH,SK,,,Estevan
-104.203,51.745,WYNA,Wynard Regional Park,CP,306.554.3661,mid may-mid oct,,20,1900,E DP FT DW SH,SK,,,Wynyard
-102.485,51.165,YORK,York Lake Regional Park,CP,306.782.7080,early may-late sep,,30,1700,E DP 30ft FT DW SH,SK,,,Orkney
-102.484,51.223,YORK,Yorkton City Campground,CP,,mid apr-late sep,,60,,WE DP 60ft FT DW SH,SK,,,Yorkton
-136.994,61.197,AISH,Aishihik Lake Government Campground,PP,867.667.5648,,5 pull thru sites- boil water,16,,NH ND PT NS NR,YT,35.1,NE,Haines Junction
-129.08,60.028,BABY,Baby Nugget RV Park,,867.536.2307,,Privately owned - location not verified - call ahead,,2412,DP,YT,13,W,Watson Lake
-129.706,60.159,BIGC,Big Creek Govt Camp,PP,867.667.5648,,7 pull thru sites- boil water,15,2570,NH ND PT NS NR,YT,,,
-139.403,64.041,BONA,Bonanza Gold/Goggieville,,888.993.6789,,Privately owned - location not verified - call ahead,,,DP,YT,1.6,SE,Dawson City
-138.997,61.357,BURW,Burwash Landing Resort & RV Park,,867.841.4441,,Privately owned,,,DP,YT,0.2,NW,Burwash Landing
-128.655,60.051,CAMP,Campground Services Ltd,,867.536.7448,,Privately owned - location not verified - call ahead,,2270,DP,YT,2.1,SE,Watson Lake
-136.284,62.086,CARM,Carmacks Hotel & RV Park,,867.863.5221,,Privately owned - location not verified - call ahead,,,DP,YT,0.2,SE,Carmacks
-136.271,62.108,COAL,Coal Mine Campground,,867.863.6363,,Privately owned - location not verified - call ahead,,,DP,YT,1.5,N,Carnacks
-138.554,61.152,CONG,Congdon Creek Govt Camp,PP,867.667.5648,,26 pull thru sites- boil water,81,,NH ND PT NS NR,YT,10.8,SE,Destruction Bay
-130.913,60.08,CONT,Continental Divide Lodge,,867.851.6451,,Privately owned - location not verified - call ahead,,3226,,YT,,,
-138.534,61.089,COTT,Cottonwood RV Park,,867.841.4066,,Privately owned,,,DP,YT,14.4,SE,Destruction Bay
-139.407,64.042,DAWS,Dawson City RV Park,,867.993.5142,,Privately owned - location not verified - call ahead,,,DP,YT,1.5,SE,Dawson City
-132.562,60.111,DAWS,Dawson Peaks Resort & RV Park,,866.402.2244,,Privately owned - location not verified - call ahead,,2379,DP,YT,10.4,SE,Teslin
-138.808,61.253,DEST,Destruction Bay Lodge & RV Park,,867.841.5332,,Privately owned - location not verified - call ahead,,,DP,YT,0.2,W,Destruction Bay
-137.044,60.398,DEZA,Dezadeash Lake Govt Camp,PP,867.667.5648,,0 pull thru sites- boil water,20,,NH ND PT NS NR,YT,29.3,SE,Haines Junction
-128.706,60.063,DOWN,Downtown RV Park,,867.536.2646,,Privately owned - location not verified - call ahead,,2286,DP,YT,0.2,E,Watson Lake
-134.381,62.199,DRUR,Drury Lake Govt Camp,PP,867.667.5648,,5 pull thru sites - boil water,10,,NH ND PT NS NR,YT,33.2,W,Faro
-138.271,65.353,ENGI,Engineer Creek Govt Camp,PP,867.667.5648,,0 pull thru sites- boil water,15,,NH ND PT NS NR,YT,,,
-136.15,63.22,ETHE,Ethel Lake Govt Camp,PP,867.667.5648,,0 pull thru sites-24 km (14.9 mi) on Ethel Lake Rd- boil water,12,,NH ND PT NS NR,YT,,,
-135.53,63.39,FIVE,Five Mile Lake Govt Camp,PP,867.667.5648,,3 pull thru sites- boil water,20,,NH ND PT NS NR,YT,,,
-135.461,61.245,FOXL,Fox Lake Govt Camp,PP,867.667.5648,,43 pull thru sites - boil water,248,,NH ND PT NS NR,YT,38.7,N,Whitehorse
-129.645,61.403,FRAN,Frances Lake Govt Camp,PP,867.667.5648,,0 pull thru sites- boil water,24,,NH ND PT NS NR,YT,,,
-135.42,62.07,FREN,Frenchman Lake Govt Camp,PP,867.667.5648,,4 pull thru sites-8 km (4.8 mi) on Frenchman Road - boil water,10,,NH ND PT NS NR,YT,,,
-139.427,64.063,GOLD,Gold Rush RV Park,,867.993.5147,,Privately owned,,,DP,YT,0.3,NE,Dawson City
-133.307,60.482,JOHN,Johnson Crossing Campground,,867.390.2607,,Privately owned - location not verified - call ahead,,,,YT,25.8,NW,Teslin
-133.397,62.209,JOHN,Johnson Lake Govt Camp,PP,867.667.5648,,6 pull thru sites-3.5 km (2.2 mi) on Faro Rd.- boil water,15,,NH ND PT NS NR,YT,2,SW,Faro
-137.209,60.577,KATH,Kathleen Lake - Kluane National Park,CNP,867.634.7207,,boil water,39,,NH ND PT NS NR,YT,,,
-139.113,64.051,KLON,Klondike River Govt Camp,PP,867.667.5648,,2 pull thru sites- boil water,38,,NH ND PT NS NR,YT,,,
-138.747,63.989,KLOK,Klondike River Lodge RV Park,,867.993.6892,,Privately owned - location not verified - call ahead,,,DP,YT,,,Dempster Corner
-137.522,60.752,KLUA,Kluane RV Kampground,,837.634.2709,,Privately owned - location not verified - call ahead,,,DP,YT,0.4,SW,Haines Junction
-136.146,60.585,KUSA,Kusawa Lake Govt Camp,PP,867.667.5648,,8 pull thru sites-23 km (14 mi) on Kusawa Road- boil water,56,,NH ND PT NS NR,YT,47.7,E,Haines Junction
-140.152,61.854,LAKE,Lake Creek Govt Camp,PP,867.667.5648,,13 pull thru sites- boil water,27,,NH ND PT NS NR,YT,,,
-135.207,61.079,LAKE,Lake Laberge Govt Camp,PP,867.667.5648,,16 pull thru sites- boil water,225,,NH ND PT NS NR,YT,25.2,N,Whitehorse
-132.607,61.987,LAPI,Lapie Canyon Govt Camp,PP,867.667.5648,,5 pull thru sites - boil water,18,,NH ND PT NS NR,YT,5.2,W,Ross River
-134.988,62.188,LITT,Little Salmon Lake Govt Camp,PP,867.667.5648,,7 pull thru sites - boil water,15,,NH ND PT NS NR,YT,,,
-134.444,60.558,MARS,Marsh Lake Govt Camp,PP,867.667.5648,,9 pull thru sites- boil water,43,,NH ND PT NS NR,YT,23.6,SE,Whitehorse
-136.945,60.108,MILL,Million Dollar Falls Govt Camp,PP,867.667.5648,,0 pull thru sites- boil water,33,2388,NH ND PT NS NR,YT,48.7,SE,Haines Junction
-137.03,63.509,MOOS,Moose Creek Govt Camp,PP,867.667.5648,,4 pull thru sites- boil water,36,,NH ND PT NS NR,YT,35.4,W,Mayo
-128.16,61.16,NAHA,Nahanni Range Govt Camp,PP,867.667.5648,,3 pull thru sites - boil water,10,,NH ND PT NS NR,YT,,,
-135.48,62.1,NUNA,Nunatuk Govt Camp,PP,867.667.5648,,2 pull thru sites-15 km (9.3 mi) on Frenchman Road - boil water,10,,NH ND PT NS NR,YT,,,
-137.49,60.801,PINE,Pine Lake Govt Camp,PP,867.667.5648,,6 pull thru sites- boil water,42,,NH ND PT NS NR,YT,3.3,N,Haines Junction
-133.05,61.09,QUIN,Quiet Lake North Govt Camp,PP,867.667.5648,,0 pull thru sites- boil water,10,,NH ND PT NS NR,YT,,,
-133.025,60.991,QUIS,Quiet Lake South Govt Camp,PP,867.667.5648,,3 pull thru sites - boil water,20,,NH ND PT NS NR,YT,,,
-130.603,60.087,RANC,Rancheria RV Park,,867.536.6456,,Privately owned,,2951,,YT,,,
-136.354,66.914,ROCK,Rock River Govt Camp,PP,867.667.5648,,3 pull thru sites- boil water,20,,NH ND PT NS NR,YT,,,
-129.231,60.678,SIMP,Simpson Lake Govt Camp,PP,867.667.5648,,10 pull thru sites - boil water,81,,NH ND PT NS NR,YT,,,
-133.809,60.134,SNAF,Snafu Lake Govt Camp,PP,867.667.5648,,0 pull thru sites- boil water,10,2552,NH ND PT NS NR,YT,,,
-140.684,62.24,SNAG,Snag Junction Govt Camp,PP,867.667.5648,,3 pull thru sites- boil water,15,,NH ND PT NS NR,YT,11.7,SE,Beaver Creek
-133.602,60.446,SQUA,Squanga Lake Govt Camp,PP,867.667.5648,,4 pull thru sites- boil water,16,,NH ND PT NS NR,YT,,,
-128.718,60.063,TAGS,Tags RV Park,,867.536.2051,,Privately owned - location not verified - call ahead,,2303,,YT,0.2,W,Watson Lake
-136.106,60.653,TAKH,Takhini River Govt Camp,PP,867.667.5648,,0 pull thru sites-15 (9.3 mi) km on Kusawa Road- boil water,13,,NH ND PT NS NR,YT,48.1,E,Haines Junction
-133.81,60.076,TARF,Tarfu Lake Govt Camp,PP,867.667.5648,,0 pull thru sites- boil water,10,2489,NH ND PT NS NR,YT,,,
-136.306,62.283,TATC,Tatchun Creek Govt Camp,PP,867.667.5648,,4 pull thru sites- boil water,12,,NH ND PT NS NR,YT,,,
-136.09,62.17,TATL,Tatchun Lake Govt Camp,PP,867.667.5648,,0 pull thru sites- boil water,20,,NH ND PT NS NR,YT,,,
-132.911,60.232,TESL,Teslin Lake Govt Camp,PP,867.667.5648,,6 pull thru sites- boil water,27,2283,NH ND PT NS NR,YT,,,
-138.221,64.506,TOMB,Tombstone Mountain Govt Camp,PP,867.667.5648,,0 pull thru sites - boil water,36,,NH ND PT NS NR,YT,,,
-135.937,61.703,TWIN,Twin Lakes Govt Camp,PP,867.667.5648,,18 pull thru sites- boil water,308,,NH ND PT NS NR,YT,,,
-128.816,60.091,WATS,Watson Lake Govt Camp,PP,867.667.5648,,12 pull thru sites- boil water,55,2282,NH ND PT NS NR,YT,,,
-140.876,62.382,WEST,Westmark RV Park,,867.862.7501,,Privately owned - location not verified - call ahead,,,DP,YT,0.1,S,Beaver Creek
-136.678,63.37,WHIS,Whispering Willows RV Park,,867.996.2130,,Privately owned - location not verified - call ahead,,,,YT,0.3,S,Stewarts Crossing
-134.941,60.608,WOLF,Wolf Creek Govt Camp,PP,867.667.5648,,12 pull thru sites- boil water,41,,NH ND PT NS NR,YT,8.8,SE,Whitehorse
-132.709,60.168,YUKO,Yukon Motel & RV Park,,867.390.2575,,Privately owned - location not verified - call ahead,,2279,DP,YT,4.2,SE,Teslin
-139.438,64.075,YUKO,Yukon River Govt Camp,PP,867.667.5648,,18 pull thru sites- boil water,98,,NH ND PT NS NR,YT,1.1,N,Dawson